{"type":"FeatureCollection","features":[{"type":"Feature","id":"way/120403141","properties":{"type":"way","id":120403141,"tags":{"alt_name":"Fulbari Barracks","landuse":"military","name":"Shree Siddhibox Gadh,","name:ne":"श्री सिद्धिबक्स गण, फुलबारी ब्यारेक","operator":"government","phone":"+977 61-531160"},"relations":[],"meta":{"timestamp":"2017-11-21T10:39:43Z","version":11,"changeset":53972053,"user":"Gaurav Thapa","uid":4212590}},"geometry":{"type":"Point","coordinates":[83.99397530312503,28.22453645312501]}},{"type":"Feature","id":"way/120510471","properties":{"type":"way","id":120510471,"tags":{"alt_name":"Siddhi Bax Gadh","landuse":"military","name":"V.N.Y. Park","operator":"Nepal Army"},"relations":[],"meta":{"timestamp":"2018-06-01T06:58:34Z","version":9,"changeset":59451388,"user":"geow","uid":223093}},"geometry":{"type":"Point","coordinates":[83.95800294230769,28.206424550000005]}},{"type":"Feature","id":"way/120748089","properties":{"type":"way","id":120748089,"tags":{"landuse":"military","name":"British Gurkha Camp","name:ne":"ब्रिटिश गोर्खा क्याम्प"},"relations":[],"meta":{"timestamp":"2016-08-10T06:52:17Z","version":3,"changeset":41360487,"user":"Manoj Thapa","uid":781054}},"geometry":{"type":"Point","coordinates":[83.99027925789473,28.24742610526316]}},{"type":"Feature","id":"way/257763927","properties":{"type":"way","id":257763927,"tags":{"access":"no","addr:city":"pokhara lekhnath municipality","addr:district":"kaski","addr:street":"Barahi Margha","landuse":"military","name":"Army Camp Playground","operator":"Nepal Army"},"relations":[],"meta":{"timestamp":"2018-05-31T15:42:15Z","version":10,"changeset":59434505,"user":"geow","uid":223093}},"geometry":{"type":"Point","coordinates":[83.95605945000001,28.208650459999994]}},{"type":"Feature","id":"way/274294903","properties":{"type":"way","id":274294903,"tags":{"barrier":"wall","landuse":"military","name":"Hima Griha","name:ne":"हिमा ग्रिह"},"relations":[],"meta":{"timestamp":"2016-08-15T09:15:19Z","version":3,"changeset":41463477,"user":"Parassrest","uid":3569249}},"geometry":{"type":"Point","coordinates":[83.96241404,28.20405978]}},{"type":"Feature","id":"way/404000849","properties":{"type":"way","id":404000849,"tags":{"barrier":"wall","landuse":"military","military":"barracks","name":"Western Division Nepal Army","name:en":"Paschim Pritana Headquarters","name:ne":"पशिम पृतना हेडक्वाटर","phone":"061-441675"},"relations":[],"meta":{"timestamp":"2017-04-28T08:11:12Z","version":13,"changeset":48220145,"user":"Ro Sun","uid":3112087}},"geometry":{"type":"Point","coordinates":[84.02801580877193,28.19783826666667]}},{"type":"Feature","id":"way/404010550","properties":{"type":"way","id":404010550,"tags":{"landuse":"military","military":"training_area","name":"APF Training college","name:ne":"ए.पी.एफ ट्रेनिंग कलेज"},"relations":[],"meta":{"timestamp":"2018-03-26T04:02:04Z","version":7,"changeset":57521961,"user":"Ro Sun","uid":3112087}},"geometry":{"type":"Point","coordinates":[84.0059643,28.173943457894737]}},{"type":"Feature","id":"way/404011110","properties":{"type":"way","id":404011110,"tags":{"landuse":"military","name":"Kalika Gand","name:ne":"कालिका गण्ड","operator":"government","phone":"061-541088,1114"},"relations":[],"meta":{"timestamp":"2017-02-13T09:40:45Z","version":8,"changeset":46041495,"user":"Manoj Thapa","uid":781054}},"geometry":{"type":"Point","coordinates":[83.9785549909091,28.21765202727273]}},{"type":"Feature","id":"way/407768415","properties":{"type":"way","id":407768415,"tags":{"landuse":"military","name":"Kali Bhanjyan Gadh"},"relations":[],"meta":{"timestamp":"2017-02-10T08:58:13Z","version":3,"changeset":45967670,"user":"Manoj Thapa","uid":781054}},"geometry":{"type":"Point","coordinates":[83.98315818,28.200614324999997]}},{"type":"Feature","id":"way/407990366","properties":{"type":"way","id":407990366,"tags":{"barrier":"wall","landuse":"military","name":"Indian Army Pension Camp","name:ne":"नेपाल भारत पेन्सन क्याम्पस"},"relations":[],"meta":{"timestamp":"2016-08-10T08:23:06Z","version":7,"changeset":41362139,"user":"Alisha12","uid":4204463}},"geometry":{"type":"Point","coordinates":[83.99409670731708,28.19902303658536]}},{"type":"Feature","id":"way/416890057","properties":{"type":"way","id":416890057,"tags":{"landuse":"military","name":"Setidovan army training area","name:ne":"सेती दोभान आर्मी ट्रेनिङ्ग ऐरिया"},"relations":[],"meta":{"timestamp":"2016-09-16T09:01:05Z","version":2,"changeset":42197828,"user":"Parassrest","uid":3569249}},"geometry":{"type":"Point","coordinates":[84.03343879090909,28.158437154545457]}}],"createdOn":1528366919367}