{"type":"FeatureCollection","features":[{"type":"Feature","id":"way/342327992","properties":{"type":"way","id":342327992,"tags":{"amenity":"bank","building":"yes","name":"Kamana Sewa Bikas Bank","nrb_class":"development","opening_hours":"Mo-Fr 10:00-16:00","operator:type":"private","source":"2cpokhara","website":"www.kamanasewabank.com"},"relations":[],"meta":{"timestamp":"2018-05-30T09:07:26Z","version":6,"changeset":59391266,"user":"Ro Sun","uid":3112087}},"geometry":{"type":"Point","coordinates":[84.08135539999999,28.1472886]}},{"type":"Feature","id":"way/414965848","properties":{"type":"way","id":414965848,"tags":{"addr:housenumber":"149","addr:street":"Gauri Marga","amenity":"bank","building":"yes","name":"Shangri-la Development Bank","nrb_class":"development","opening_hours":"10:00-17:00","operator":"private","phone":"061-432330"},"relations":[],"meta":{"timestamp":"2018-05-30T09:07:27Z","version":6,"changeset":59391266,"user":"Ro Sun","uid":3112087}},"geometry":{"type":"Point","coordinates":[83.99558228,28.201383239999995]}},{"type":"Feature","id":"way/414994750","properties":{"type":"way","id":414994750,"tags":{"addr:housenumber":"119","amenity":"bank","atm":"no","building":"yes","building:levels":"2","name":"Om Finance Limited","nrb_class":"finance companies","opening_hours":"Su:Th 10:00-16:00, Fr:10:00-03:00","phone":"061-432350","source":"2cpokhara"},"relations":[],"meta":{"timestamp":"2018-06-07T10:22:06Z","version":8,"changeset":59632145,"user":"Ro Sun","uid":3112087}},"geometry":{"type":"Point","coordinates":[83.996549175,28.20084295]}},{"type":"Feature","id":"way/415725848","properties":{"type":"way","id":415725848,"tags":{"amenity":"bank","atm":"yes","building":"yes","name":"Citizens Bank International Limited","name:ne":"सिटिजन बैंक इन्टरनेसनल लिमिटेड","nrb_class":"commercial","opening_hours":"10:00-04:00","operator:type":"Citizens Bank Limited","wheelchair":"no"},"relations":[],"meta":{"timestamp":"2018-03-27T07:44:57Z","version":10,"changeset":57557593,"user":"Ro Sun","uid":3112087}},"geometry":{"type":"Point","coordinates":[83.986663575,28.220034325]}},{"type":"Feature","id":"way/417496453","properties":{"type":"way","id":417496453,"tags":{"addr:city":"Pokhara","addr:housenumber":"188","addr:street":"New Road-8, Pokhara","amenity":"bank","atm":"yes","name":"Laxmi Bank Limited","name:ne":"लक्ष्मी बैंक लिमिटेड","nrb_class":"commercial","opening_hours":"Su-Th 10:00-04:00, Fr 10:00-01:30","operator":"Laxmi Bank Ltd.","phone":"061-533580, 540153","source":"2cpokhara"},"relations":[],"meta":{"timestamp":"2018-05-30T09:07:28Z","version":9,"changeset":59391266,"user":"Ro Sun","uid":3112087}},"geometry":{"type":"Point","coordinates":[83.98632950000001,28.21829065]}},{"type":"Feature","id":"way/417799593","properties":{"type":"way","id":417799593,"tags":{"amenity":"bank","atm":"yes","building":"yes","name":"Sanima Bank Limited","name:ne":"सानीमा बैंक लिमिटेड","nrb_class":"commercial","opening_hours":"10:00-05:00","operator":"Sanima Bank Limited"},"relations":[],"meta":{"timestamp":"2017-06-30T05:57:37Z","version":10,"changeset":49935670,"user":"Alisha12","uid":4204463}},"geometry":{"type":"Point","coordinates":[83.9874367,28.220849825000002]}},{"type":"Feature","id":"way/418466538","properties":{"type":"way","id":418466538,"tags":{"amenity":"bank","building":"yes","name":"Om Development Bank"},"relations":[],"meta":{"timestamp":"2017-11-14T06:36:51Z","version":2,"changeset":53762037,"user":"nishaadhikari","uid":3481073}},"geometry":{"type":"Point","coordinates":[83.86633330000001,28.281585800000002]}},{"type":"Feature","id":"way/419040408","properties":{"type":"way","id":419040408,"tags":{"amenity":"bank","building":"yes","name":"Agriculture Development Bank Limited","name:ne":"क्रिषि विकाश बैंक","nrb_class":"commercial","operator":"Agriculture Development Bank Limited","source":"2C Pokhara Field Data Collection"},"relations":[],"meta":{"timestamp":"2018-06-04T13:00:04Z","version":8,"changeset":59537020,"user":"marek kleciak","uid":338611}},"geometry":{"type":"Point","coordinates":[83.98904055000001,28.241126975]}},{"type":"Feature","id":"way/420476861","properties":{"type":"way","id":420476861,"tags":{"alt_name":"ATM","amenity":"bank","atm":"yes","building":"yes","contact:fax":"061-531610","name":"Pokhara Finance Limited","name:ne":"पोखरा फाइनान्स लिमिटेड","nrb_class":"finance companies","phone":"061-531145, 541135","source":"2cpokhara","website":"www.pokharafinance.com.np"},"relations":[],"meta":{"timestamp":"2018-05-30T09:07:28Z","version":7,"changeset":59391266,"user":"Ro Sun","uid":3112087}},"geometry":{"type":"Point","coordinates":[83.98643058181818,28.21899516363636]}},{"type":"Feature","id":"way/420678754","properties":{"type":"way","id":420678754,"tags":{"addr:city":"Pokhara Lekhnath Metropolitan City","addr:place":"Tal Chowk","addr:street":"Prithvi Highway","amenity":"bank","building":"yes","name":"Everest Bank Limited","nrb_class":"commercial","opening_hours":"Su-Fr 09:30-17:30","operator":"Private","phone":"061-560377"},"relations":[],"meta":{"timestamp":"2018-05-30T09:07:28Z","version":5,"changeset":59391266,"user":"Ro Sun","uid":3112087}},"geometry":{"type":"Point","coordinates":[84.057339925,28.163315250000004]}},{"type":"Feature","id":"way/420741580","properties":{"type":"way","id":420741580,"tags":{"addr:street":"Rastra Bank Chowk","amenity":"bank","barrier":"wall","contact:fax":"061 521561","name":"Nepal Rastra Bank Limited","name:ne":"नेपाल राष्ट्र बैंक","nrb_class":"commercial","office":"government","operator":"Nepal Rastra Bank","phone":"061-520459, 532586, 463543, 061 520115","source":"2cpokhara","website":"www.nrb.com.np"},"relations":[],"meta":{"timestamp":"2018-05-30T09:07:29Z","version":10,"changeset":59391266,"user":"Ro Sun","uid":3112087}},"geometry":{"type":"Point","coordinates":[83.97101366000001,28.20155261]}},{"type":"Feature","id":"way/420987543","properties":{"type":"way","id":420987543,"tags":{"addr:city":"Pokhara Lekhnath Metropolitan City","addr:place":"Tal Chowk","addr:street":"Prithvi Highway","amenity":"bank","building":"yes","name":"Mega Bank Nepal Limited","nrb_class":"commercial","opening_hours":"Su-Fr 10:00-17:00","operator":"Private"},"relations":[],"meta":{"timestamp":"2017-08-27T09:23:02Z","version":3,"changeset":51476949,"user":"Ro Sun","uid":3112087}},"geometry":{"type":"Point","coordinates":[84.056028675,28.166147549999998]}},{"type":"Feature","id":"way/421301302","properties":{"type":"way","id":421301302,"tags":{"amenity":"bank","building":"yes","name":"Lumbini Bikash Bank Limited","nrb_class":"development","phone":"061-540005","source":"2cpokhara","website":"www.lumbinibikashbank.com"},"relations":[],"meta":{"timestamp":"2018-05-30T09:07:29Z","version":4,"changeset":59391266,"user":"Ro Sun","uid":3112087}},"geometry":{"type":"Point","coordinates":[83.99906787142858,28.231521985714288]}},{"type":"Feature","id":"way/421585514","properties":{"type":"way","id":421585514,"tags":{"amenity":"bank","atm":"yes","building":"yes","name":"Muktinath Bikash Bank Limited, Kahunkhola Branch","name:ne":"मुक्तिनाथ विकास बैंक लिमिटेड","nrb_class":"development","source":"2cpokhara"},"relations":[],"meta":{"timestamp":"2018-05-30T09:07:30Z","version":7,"changeset":59391266,"user":"Ro Sun","uid":3112087}},"geometry":{"type":"Point","coordinates":[84.01882082857142,28.216204057142857]}},{"type":"Feature","id":"way/422946273","properties":{"type":"way","id":422946273,"tags":{"amenity":"bank","building":"yes","name":"NMB Microfinance Limited","nrb_class":"micro finance","opening_hours":"10:00-17:00","operator:type":"private","phone":"061-541282","source":"2cpokhara"},"relations":[],"meta":{"timestamp":"2018-06-03T09:43:40Z","version":4,"changeset":59503665,"user":"Ro Sun","uid":3112087}},"geometry":{"type":"Point","coordinates":[84.00158074999999,28.231129974999998]}},{"type":"Feature","id":"way/423387446","properties":{"type":"way","id":423387446,"tags":{"amenity":"bank","building":"yes","name":"Shodesi Lagu Bitta Bittiya Sanstha Limited","nrb_class":"micro finance"},"relations":[],"meta":{"timestamp":"2018-03-26T07:08:37Z","version":3,"changeset":57524656,"user":"Ro Sun","uid":3112087}},"geometry":{"type":"Point","coordinates":[84.0445771,28.17841585]}},{"type":"Feature","id":"way/423580359","properties":{"type":"way","id":423580359,"tags":{"amenity":"bank","building":"yes","email":"budibazar@kailashbank.com","name":"Kailash Bikash Bank Limited","name:ne":"कैलाश विकास बैंक लि.","nrb_class":"development","opening_hours":"10:00-16:00","operator":"private","phone":"061411300","source":"2cpokhara"},"relations":[],"meta":{"timestamp":"2018-05-30T09:07:30Z","version":5,"changeset":59391266,"user":"Ro Sun","uid":3112087}},"geometry":{"type":"Point","coordinates":[84.03703951666667,28.183613199999996]}},{"type":"Feature","id":"way/423585607","properties":{"type":"way","id":423585607,"tags":{"amenity":"bank","atm":"yes","building":"yes","name":"Nepal Bangladesh Bank Limited","nrb_class":"commercial","opening_hours":"6:00-16:00","operator:type":"public","phone":"0614114514"},"relations":[],"meta":{"timestamp":"2018-05-30T09:07:30Z","version":4,"changeset":59391266,"user":"Ro Sun","uid":3112087}},"geometry":{"type":"Point","coordinates":[84.03954771666666,28.182318233333334]}},{"type":"Feature","id":"way/426754747","properties":{"type":"way","id":426754747,"tags":{"addr:city":"pokhara lekhnath municipality","addr:housenumber":"119","addr:place":"Ram Mandir","addr:street":"Rambazar","amenity":"bank","building":"yes","name":"Om Development Bank","nrb_class":"development","opening_hours":"10:00-17:00","operator":"Om Development Bank Limited","operator:type":"private","phone":"061-432600"},"relations":[],"meta":{"timestamp":"2018-06-04T09:35:35Z","version":5,"changeset":59530250,"user":"Ro Sun","uid":3112087}},"geometry":{"type":"Point","coordinates":[83.99658725,28.201121550000003]}},{"type":"Feature","id":"way/428124420","properties":{"type":"way","id":428124420,"tags":{"amenity":"bank","atm":"yes","name":"Laxmi Bank Limited","name:ne":"लक्ष्मी बैंक लिमिटेड","nrb_class":"commercial","source":"2cpokhara"},"relations":[],"meta":{"timestamp":"2017-04-26T07:25:16Z","version":4,"changeset":48152826,"user":"Alisha12","uid":4204463}},"geometry":{"type":"Point","coordinates":[84.00965192,28.20172556]}},{"type":"Feature","id":"way/429556220","properties":{"type":"way","id":429556220,"tags":{"addr:city":"Pokhara Lekhanath Metropolitan City","addr:place":"Powerhouse","amenity":"bank","name":"Gandaki Bikash Bank Limited","nrb_class":"development","operator":"Private"},"relations":[],"meta":{"timestamp":"2017-08-27T09:29:26Z","version":3,"changeset":51477080,"user":"Ro Sun","uid":3112087}},"geometry":{"type":"Point","coordinates":[84.08160790000001,28.133250399999998]}},{"type":"Feature","id":"way/429592434","properties":{"type":"way","id":429592434,"tags":{"alt_name":"ATM","amenity":"bank","atm":"yes","name":"Nabil Bank Limited","name:ne":"नबिल बैंक लिमिटेड","network":"Cirrus, VISA, MasterCard, UnionPay, Maestro","nrb_class":"commercial","opening_hours":"10:00-17:00","operator":"Nabil Bank Limited","phone":"061-532951","source":"2c peset","website":"www.nabilbank.com"},"relations":[],"meta":{"timestamp":"2018-05-30T09:07:31Z","version":9,"changeset":59391266,"user":"Ro Sun","uid":3112087}},"geometry":{"type":"Point","coordinates":[83.98430968333334,28.211625650000002]}},{"type":"Feature","id":"way/463217655","properties":{"type":"way","id":463217655,"tags":{"amenity":"bank","atm":"yes","building":"yes","name":"Nepal Bank Limited","name:ne":"नेपाल बैंक लि.","nrb_class":"commercial","operator":"Nepal Bank Limited","phone":"061-520439, 528819, 526068, 520270","source":"2cpokhara","website":"www.nepalbank.com.np"},"relations":[],"meta":{"timestamp":"2018-05-30T09:07:31Z","version":7,"changeset":59391266,"user":"Ro Sun","uid":3112087}},"geometry":{"type":"Point","coordinates":[83.98644015714287,28.20951704285714]}},{"type":"Feature","id":"way/463217658","properties":{"type":"way","id":463217658,"tags":{"amenity":"bank","building":"yes","name":"Prabhu Bank Limited","name:ne":"प्रभु बैंक लिमिटेड","nrb_class":"commercial","source":"2cpokhara"},"relations":[],"meta":{"timestamp":"2018-06-12T10:59:19Z","version":6,"changeset":59773623,"user":"marek kleciak","uid":338611}},"geometry":{"type":"Point","coordinates":[83.9850398,28.210150875]}},{"type":"Feature","id":"way/464907382","properties":{"type":"way","id":464907382,"tags":{"addr:city":"Pokhara Lekhnath Municipality","addr:street":"Palikhe Chowk-3, Pokhara","amenity":"bank","atm":"yes","grade":"A","name":"Nepal Bank Limited","name:ne":"नेपाल बैंक लिमिटेड","nrb_class":"commercial","operator":"Nepal Bank Limited","phone":"061-541291, 9846028315","source":"2cpokhara;#dial2","website":"www.nepalbank.com.np"},"relations":[],"meta":{"timestamp":"2018-05-30T09:07:32Z","version":7,"changeset":59391266,"user":"Ro Sun","uid":3112087}},"geometry":{"type":"Point","coordinates":[83.98996465999998,28.226954059999997]}},{"type":"Feature","id":"way/485250922","properties":{"type":"way","id":485250922,"tags":{"amenity":"bank","atm":"yes","building":"yes","name":"Garima Bikas Bank","nrb_class":"development","source":"2cpokhara"},"relations":[],"meta":{"timestamp":"2018-05-30T09:07:32Z","version":4,"changeset":59391266,"user":"Ro Sun","uid":3112087}},"geometry":{"type":"Point","coordinates":[84.09215308,28.11546826]}},{"type":"Feature","id":"way/485283109","properties":{"type":"way","id":485283109,"tags":{"amenity":"bank","building":"yes","name":"Lumbini Bikas Bank","nrb_class":"development","opening_hours":"Mo-Fr 10:00-17:00","operator":"Private","phone":"061-410223"},"relations":[],"meta":{"timestamp":"2018-05-30T09:07:32Z","version":4,"changeset":59391266,"user":"Ro Sun","uid":3112087}},"geometry":{"type":"Point","coordinates":[84.103446925,28.1202407]}},{"type":"Feature","id":"way/537057448","properties":{"type":"way","id":537057448,"tags":{"alt_name":"ATM","amenity":"bank","atm":"yes","contact:fax":"521107","email":"pokhara.ro@adbl.gov.np","name":"Agriculture Development Bank Limited","name:ne":"कृषि विकास बैंक लि.","nrb_class":"commercial","operator":"Agriculture Development Bank Limited","phone":"061-528445, 520458, 520156","source":"2cpokhara","website":"www.adbl.gov.np"},"relations":[],"meta":{"timestamp":"2018-05-30T09:07:32Z","version":2,"changeset":59391266,"user":"Ro Sun","uid":3112087}},"geometry":{"type":"Point","coordinates":[83.98855535,28.21186125]}},{"type":"Feature","id":"way/537057449","properties":{"type":"way","id":537057449,"tags":{"amenity":"bank","name":"Machhapuchchhre Bank Limited","nrb_class":"commercial","operator":"Machhapuchchhre Bank Limited","wikipedia":"en:Machhapuchchhre Bank"},"relations":[],"meta":{"timestamp":"2018-06-11T08:39:20Z","version":3,"changeset":59732996,"user":"marek kleciak","uid":338611}},"geometry":{"type":"Point","coordinates":[83.98812360000001,28.21131741666667]}},{"type":"Feature","id":"node/1346572363","properties":{"type":"node","id":1346572363,"tags":{"amenity":"bank","atm":"yes","name":"Standard Chartered Bank Nepal Limited","name:ne":"इस्टानडर्ड चाटार्ड बैंक लिमिटेड","nrb_class":"commercial","operator":"Standard Chartered Bank","phone":"523875, 523876, 536231, 536230","source":"2cpokhara","website":"www.sc.com/np"},"relations":[],"meta":{"timestamp":"2018-05-30T09:07:02Z","version":13,"changeset":59391266,"user":"Ro Sun","uid":3112087}},"geometry":{"type":"Point","coordinates":[83.9875565,28.2206409]}},{"type":"Feature","id":"node/2447228223","properties":{"type":"node","id":2447228223,"tags":{"addr:city":"Pokhara","addr:housenumber":"549","addr:postcode":"33700","addr:street":"Bhim kali Patan","amenity":"bank","atm":"yes","email":"rijalgp200@gmail.com","name":"KIST Bank Limited","name:en":"Rijal Grocery Stores","name:ne":"किस्ट बैंक लिमिटेड","nrb_class":"commercial","operator":"Homnath Rijal","phone":"061531262","source":"2cpokhara"},"relations":[],"meta":{"timestamp":"2018-04-17T03:06:21Z","version":6,"changeset":58155431,"user":"Govin Da Rijal","uid":8127783}},"geometry":{"type":"Point","coordinates":[83.9888115,28.2429725]}},{"type":"Feature","id":"node/2480083639","properties":{"type":"node","id":2480083639,"tags":{"addr:street":"Lamachaur","amenity":"bank","atm":"yes","name":"Kailash Bikash Bank Limited","name:ne":"कैलाश विकास बैंक लि.","nrb_class":"development","operator":"Kailash Bikash Bank Limited","source":"2cpokhara"},"relations":[],"meta":{"timestamp":"2017-05-21T11:10:38Z","version":31,"changeset":48860002,"user":"Ro Sun","uid":3112087}},"geometry":{"type":"Point","coordinates":[83.9724466,28.261209]}},{"type":"Feature","id":"node/2481342440","properties":{"type":"node","id":2481342440,"tags":{"addr:street":"Bhimkali Patan","amenity":"bank","atm":"yes","name":"Pokhara Finance","name:ne":"पोखरा फाईनान्स लिमिटेड","nrb_class":"finance companies","operator":"Pokhara Finance Limited","phone":"061 538009, 061 526751","source":"2cpokhara","website":"www.pokharafincance.com.np"},"relations":[],"meta":{"timestamp":"2018-06-11T06:28:17Z","version":10,"changeset":59729197,"user":"Ro Sun","uid":3112087}},"geometry":{"type":"Point","coordinates":[83.9888011,28.2427914]}},{"type":"Feature","id":"node/2684655986","properties":{"type":"node","id":2684655986,"tags":{"amenity":"bank","name":"Sangri-La Development Bank Limited","name:ne":"सांग्रिला बिकाश बैंक","nrb_class":"development","operator":"Sangri-La Development Bank Limited","phone":"+97761525962"},"relations":[],"meta":{"timestamp":"2018-03-04T10:55:48Z","version":11,"changeset":56867488,"user":"Active Asmita","uid":7644107}},"geometry":{"type":"Point","coordinates":[83.9756932,28.2130261]}},{"type":"Feature","id":"node/3114495554","properties":{"type":"node","id":3114495554,"tags":{"addr:city":"Pokhara","addr:street":"Mahendrapool","alt_name":"ATM","amenity":"bank","atm":"yes","contact:fax":"520549","name":"Rastriya Banijya Bank Limited","name:ne":"राष्ट्रिय वाणिज्य बैंक लिमिटेड","nrb_class":"commercial","phone":"522229, 520549","source":"2cpokhara","website":"www.rbb.com.np","wheelchair":"no"},"relations":[],"meta":{"timestamp":"2018-05-30T09:07:02Z","version":8,"changeset":59391266,"user":"Ro Sun","uid":3112087}},"geometry":{"type":"Point","coordinates":[83.9908613,28.2248116]}},{"type":"Feature","id":"node/3123520334","properties":{"type":"node","id":3123520334,"tags":{"amenity":"bank","atm":"yes","name":"Nepal Investment Bank Limited","name:ne":"नेपाल इन्भेस्टमेन्ट बैंक लिमिटेड","nrb_class":"commercial","phone":"061-466872, 466873, 466874","source":"2cpokhara","website":"www.nibl.com.np"},"relations":[],"meta":{"timestamp":"2018-05-30T09:07:02Z","version":5,"changeset":59391266,"user":"Ro Sun","uid":3112087}},"geometry":{"type":"Point","coordinates":[83.9572597,28.2108458]}},{"type":"Feature","id":"node/3123520343","properties":{"type":"node","id":3123520343,"tags":{"amenity":"bank","atm":"yes","brand":"Standard Chartered Bank","drive_through":"no","name":"Nabil Bank Limited","name:ne":"नबिल बैंक लिमिटेड","nrb_class":"commercial","operator":"Nabil Bank","phone":"061-464268","source":"2cpokhara","website":"www.nabilbank.com"},"relations":[],"meta":{"timestamp":"2018-05-30T09:07:02Z","version":10,"changeset":59391266,"user":"Ro Sun","uid":3112087}},"geometry":{"type":"Point","coordinates":[83.9572303,28.2133724]}},{"type":"Feature","id":"node/3404903239","properties":{"type":"node","id":3404903239,"tags":{"amenity":"bank","name":"Muktinath Bikash Bank Limited","name:ne":"मुक्तिनाथ विकास बैंक लिमिटेड","nrb_class":"development","operator":"Muktinath Bikash Bank Limited","source":"2cpokhara"},"relations":[],"meta":{"timestamp":"2017-05-02T09:11:37Z","version":5,"changeset":48328964,"user":"Alisha12","uid":4204463}},"geometry":{"type":"Point","coordinates":[83.9686095,28.2049368]}},{"type":"Feature","id":"node/3519015435","properties":{"type":"node","id":3519015435,"tags":{"addr:city":"Pokhara","addr:street":"Mahendrapool","amenity":"bank","atm":"yes","name":"OM Development Bank Limited","name:ne":"ओम डेभलपमेन्ट बैंक लिमिटेड","nrb_class":"development","phone":"061521505","source":"2cpokhara"},"relations":[],"meta":{"timestamp":"2018-05-30T09:07:03Z","version":13,"changeset":59391266,"user":"Ro Sun","uid":3112087}},"geometry":{"type":"Point","coordinates":[83.9888436,28.2240982]}},{"type":"Feature","id":"node/3634990926","properties":{"type":"node","id":3634990926,"tags":{"amenity":"bank","atm":"yes","name":"Kailash Bikash Bank Limited","name:ne":"कैलाश विकास बैंक लि.","nrb_class":"development","operator":"Kailash Bank","source":"2cpokhara"},"relations":[],"meta":{"timestamp":"2017-04-27T07:37:00Z","version":4,"changeset":48185585,"user":"Alisha12","uid":4204463}},"geometry":{"type":"Point","coordinates":[83.9570164,28.2120815]}},{"type":"Feature","id":"node/3912161256","properties":{"type":"node","id":3912161256,"tags":{"amenity":"bank","atm":"yes","name":"Fewa Bikash Bank Limited","name:ne":"फेवा बिकास बैंक लिमिटेड","nrb_class":"development","operator":"Fewa Bikash Bank Limited"},"relations":[],"meta":{"timestamp":"2017-05-04T08:40:25Z","version":6,"changeset":48387403,"user":"Alisha12","uid":4204463}},"geometry":{"type":"Point","coordinates":[83.9882344,28.2400867]}},{"type":"Feature","id":"node/4068343416","properties":{"type":"node","id":4068343416,"tags":{"amenity":"bank","atm":"yes","name":"Kamana Sewa Bikash Bank Limited","name:ne":"कामना विकास बैंक","nrb_class":"development","opening_hours":"Su-Th 09:45-04:00, Fr 02:00-04:00","phone":"061-539672","source":"2cpokhara"},"relations":[],"meta":{"timestamp":"2018-05-30T09:07:03Z","version":9,"changeset":59391266,"user":"Ro Sun","uid":3112087}},"geometry":{"type":"Point","coordinates":[83.9808059,28.2115444]}},{"type":"Feature","id":"node/4172759911","properties":{"type":"node","id":4172759911,"tags":{"amenity":"bank","contact:fax":"061-432166","name":"Kamana Bikash Bank Limited","name:ne":"कामना बिकास बैक","nrb_class":"development","phone":"061-432171, 432172","source":"2cpokhara"},"relations":[],"meta":{"timestamp":"2018-05-30T09:07:03Z","version":6,"changeset":59391266,"user":"Ro Sun","uid":3112087}},"geometry":{"type":"Point","coordinates":[84.0009849,28.2046873]}},{"type":"Feature","id":"node/4172759913","properties":{"type":"node","id":4172759913,"tags":{"amenity":"bank","atm":"yes","name":"Prabhu Bank Limited","name:ne":"प्रभु बैंक लिमिटेड","nrb_class":"commercial","opening_hours":"Su-Th 10:00-16:00, Fr 10:00-15:00","source":"2cpokhara"},"relations":[],"meta":{"timestamp":"2017-09-14T07:51:05Z","version":6,"changeset":52028129,"user":"marek kleciak","uid":338611}},"geometry":{"type":"Point","coordinates":[84.0004174,28.2048355]}},{"type":"Feature","id":"node/4172759914","properties":{"type":"node","id":4172759914,"tags":{"addr:city":"Pokhara","addr:street":"Amarsingh Chowk","amenity":"bank","atm":"yes","name":"Rastriya Banijya Bank Limited","name:ne":"राष्ट्रीय बाढ़िज्य बैंक","nrb_class":"commercial","operator":"Rastriya Banijya Bank Limited","operator:type":"government","phone":"061-431079, 430428","source":"2cpokhara"},"relations":[],"meta":{"timestamp":"2018-06-03T06:05:00Z","version":11,"changeset":59499559,"user":"Ro Sun","uid":3112087}},"geometry":{"type":"Point","coordinates":[84.000572,28.2047681]}},{"type":"Feature","id":"node/4172769753","properties":{"type":"node","id":4172769753,"tags":{"amenity":"bank","atm":"yes","contact:fax":"061-432330","name":"Sangri-La Development Bank Limited","name:ne":"सांग्रिला विकास बैंक","nrb_class":"development","operator":"Sangri-La Development Bank Limited","phone":"061-432332, 432331","source":"2cpokhara Field Visit"},"relations":[],"meta":{"timestamp":"2018-05-29T10:43:01Z","version":8,"changeset":59363762,"user":"Ro Sun","uid":3112087}},"geometry":{"type":"Point","coordinates":[83.9953197,28.2012092]}},{"type":"Feature","id":"node/4175792273","properties":{"type":"node","id":4175792273,"tags":{"amenity":"bank","atm":"yes","name":"Nepal Bank Limited","name:ne":"नेपाल बैंक लिमिटेड","nrb_class":"commercial","phone":"061-520354, 530648","source":"2cpokhara","website":"www.nepalbank.com.np"},"relations":[],"meta":{"timestamp":"2018-05-30T09:07:04Z","version":8,"changeset":59391266,"user":"Ro Sun","uid":3112087}},"geometry":{"type":"Point","coordinates":[83.9882092,28.2397769]}},{"type":"Feature","id":"node/4176490118","properties":{"type":"node","id":4176490118,"tags":{"amenity":"bank","atm":"yes","name":"Nepal SBI Bank Limited","name:ne":"यस बि आइ बैंक","nrb_class":"commercial","operator":"Nepal SBI Bank","source":"2cpokhara","website":"www.nepalsbi.com.np"},"relations":[],"meta":{"timestamp":"2017-04-26T04:57:35Z","version":6,"changeset":48149363,"user":"Alisha12","uid":4204463}},"geometry":{"type":"Point","coordinates":[83.9831443,28.2109157]}},{"type":"Feature","id":"node/4176508308","properties":{"type":"node","id":4176508308,"tags":{"amenity":"bank","name":"Rastriya Banijya Bank Limited","name:ne":"राष्ट्रिय बाणिज्य बैंक लि.","nrb_class":"commercial","operator":"Rastriya Banijya Bank Limited","operator:type":"government","phone":"061-520473","source":"2cpokhara","website":"www.rbb.com.np"},"relations":[],"meta":{"timestamp":"2018-06-03T06:05:01Z","version":10,"changeset":59499559,"user":"Ro Sun","uid":3112087}},"geometry":{"type":"Point","coordinates":[83.9851975,28.21003]}},{"type":"Feature","id":"node/4180402805","properties":{"type":"node","id":4180402805,"tags":{"amenity":"bank","name":"NCC Bank Limited","nrb_class":"commercial","operator":"NCC Bank","source":"2cpokhara"},"relations":[],"meta":{"timestamp":"2017-09-12T08:47:16Z","version":5,"changeset":51965243,"user":"Ashish Thapa","uid":4039113}},"geometry":{"type":"Point","coordinates":[84.0564298,28.1646726]}},{"type":"Feature","id":"node/4180402807","properties":{"type":"node","id":4180402807,"tags":{"addr:city":"Pokhara Lekhnath Metropolitan City","addr:place":"Tal Chowk","addr:street":"Prithvi Highway","amenity":"bank","name":"Civil Bank Limited","name:ne":"सिभिल बैंक लिमिटेड","nrb_class":"commercial","opening_hours":"Su-Fr 10:00-17:00","operator":"Civil Bank Limited","phone":"061-560251, 560252","source":"2cpokhara","website":"www.civilbank.com.np"},"relations":[],"meta":{"timestamp":"2018-05-30T09:07:04Z","version":7,"changeset":59391266,"user":"Ro Sun","uid":3112087}},"geometry":{"type":"Point","coordinates":[84.0568308,28.1627901]}},{"type":"Feature","id":"node/4180402809","properties":{"type":"node","id":4180402809,"tags":{"amenity":"bank","atm":"yes","contact:fax":"061-560977","name":"Everest Bank Limited","name:ne":"एभरेष्ट बैंक लिमिटेड","nrb_class":"commercial","phone":"061-560251, 560777","source":"2cpokhara","website":"www.ebl.com.np"},"relations":[],"meta":{"timestamp":"2018-05-30T09:07:04Z","version":9,"changeset":59391266,"user":"Ro Sun","uid":3112087}},"geometry":{"type":"Point","coordinates":[84.0568268,28.1628623]}},{"type":"Feature","id":"node/4180402810","properties":{"type":"node","id":4180402810,"tags":{"amenity":"bank","email":"srijana@gandakibank.com.np","name":"Gandaki Bikas Bank Limited","name:ne":"गंडकी बिकास बैंक","nrb_class":"development","opening_hours":"10:00-17:00","operator":"Gandaki Bikash Bank","operator:type":"private","phone":"061561644","source":"2cpokhara"},"relations":[],"meta":{"timestamp":"2018-05-30T09:07:04Z","version":9,"changeset":59391266,"user":"Ro Sun","uid":3112087}},"geometry":{"type":"Point","coordinates":[84.0497236,28.1752588]}},{"type":"Feature","id":"node/4180402818","properties":{"type":"node","id":4180402818,"tags":{"amenity":"bank","contact:fax":"061-561082","name":"Kailash Development Bank limited","name:ne":"कैलाश विकास बैंक लि.","nrb_class":"development","operator":"Kailash Development Bank","phone":"061-561081","source":"2cpokhara","website":"www.kailashbank.com"},"relations":[],"meta":{"timestamp":"2018-05-30T09:07:04Z","version":6,"changeset":59391266,"user":"Ro Sun","uid":3112087}},"geometry":{"type":"Point","coordinates":[84.0568502,28.162692]}},{"type":"Feature","id":"node/4180402819","properties":{"type":"node","id":4180402819,"tags":{"amenity":"bank","name":"Om Development Bank","name:ne":"ओम विकास बैंक","nrb_class":"development","operator":"Om Development Bank Limited","operator:type":"private","phone":"061561795","source":"2C_Pokhara Field Visit 2018"},"relations":[],"meta":{"timestamp":"2018-06-04T09:20:56Z","version":7,"changeset":59529768,"user":"Ro Sun","uid":3112087}},"geometry":{"type":"Point","coordinates":[84.0688049,28.1636833]}},{"type":"Feature","id":"node/4180449258","properties":{"type":"node","id":4180449258,"tags":{"amenity":"bank","atm":"yes","name":"NCC Bank Limited","name:ne":"एन सि सि बैंक लिमिटेड","network":"VISA, VISA Electron, Maestro, MaestroCard, National","nrb_class":"commercial","opening_hours":"Su-Th 10:00-06:00; FR 10:00-05:00","source":"2cpokhara"},"relations":[],"meta":{"timestamp":"2017-04-25T11:22:27Z","version":7,"changeset":48120814,"user":"Alisha12","uid":4204463}},"geometry":{"type":"Point","coordinates":[83.9865693,28.2175743]}},{"type":"Feature","id":"node/4180451607","properties":{"type":"node","id":4180451607,"tags":{"amenity":"bank","atm":"yes","brand":"Machhapuchhre Bank ATM","contact:fax":"061-538480","name":"Machhapuchchre Bank Limited","name:ne":"माछापुछ्रे बैंक लिमिटेड","network":"VISA, VISA Electron","nrb_class":"commercial","operator":"Machhapuchchre Bank","phone":"061-538479","source":"2cpokhara"},"relations":[],"meta":{"timestamp":"2018-05-30T09:07:05Z","version":9,"changeset":59391266,"user":"Ro Sun","uid":3112087}},"geometry":{"type":"Point","coordinates":[83.9869271,28.2210857]}},{"type":"Feature","id":"node/4189725970","properties":{"type":"node","id":4189725970,"tags":{"amenity":"bank","brand":"B level bank","fax":"+97761-537900","name":"Mahalaxmi Bikash Bank Limited","name:ne":"महालक्ष्मी बिकाश बैंक","nrb_class":"development","opening_hours":"9:15-5:00","operator":"Ganesh Prasad Acharya","phone":"+97761-534900","source":"2cpokhara","website":"www.mahalaxmi.com.np","wheelchair":"no"},"relations":[],"meta":{"timestamp":"2017-04-27T06:40:54Z","version":5,"changeset":48184092,"user":"Alisha12","uid":4204463}},"geometry":{"type":"Point","coordinates":[83.987499,28.2241045]}},{"type":"Feature","id":"node/4191244524","properties":{"type":"node","id":4191244524,"tags":{"amenity":"bank","atm":"yes","name":"Global IME bank","nrb_class":"commercial","phone":"061-539406","source":"2c peset"},"relations":[],"meta":{"timestamp":"2018-06-15T11:25:45Z","version":10,"changeset":59871828,"user":"marek kleciak","uid":338611}},"geometry":{"type":"Point","coordinates":[83.9850585,28.2125897]}},{"type":"Feature","id":"node/4191244539","properties":{"type":"node","id":4191244539,"tags":{"amenity":"bank","name":"Yeti Development Bank Limited","name:ne":"एती विकास बैंक लि.","network":"VISA, JCB, Mastercard, Discover, National, Cirrus","nrb_class":"development","operator":"Yeti Development Bank","source":"2cpokhara"},"relations":[],"meta":{"timestamp":"2018-06-15T11:25:45Z","version":8,"changeset":59871828,"user":"marek kleciak","uid":338611}},"geometry":{"type":"Point","coordinates":[83.9849658,28.2123413]}},{"type":"Feature","id":"node/4231148889","properties":{"type":"node","id":4231148889,"tags":{"addr:street":"Amar Shing Road","amenity":"bank","atm":"yes","name":"Machhapuchchre Bank Limited","name:ne":"मचापुछ्रे बैंक","nrb_class":"commercial","operator":"Machhapuchchre Bank","phone":"061-431193","source":"2cpokhara"},"relations":[],"meta":{"timestamp":"2018-05-30T04:52:47Z","version":8,"changeset":59385482,"user":"Ro Sun","uid":3112087}},"geometry":{"type":"Point","coordinates":[84.0023125,28.2041619]}},{"type":"Feature","id":"node/4248066438","properties":{"type":"node","id":4248066438,"tags":{"amenity":"bank","atm":"yes","name":"Kailash Bikash Bank Limited","name:ne":"कैलाश बिकास बैंक","nrb_class":"development"},"relations":[],"meta":{"timestamp":"2017-06-05T07:25:48Z","version":4,"changeset":49260270,"user":"Gaurav Thapa","uid":4212590}},"geometry":{"type":"Point","coordinates":[83.9996886,28.2117418]}},{"type":"Feature","id":"node/4252615906","properties":{"type":"node","id":4252615906,"tags":{"amenity":"bank","atm":"yes","name":"Lumbini Bikash Bank","name:ne":"लुम्बिनी बिकाश बैंक","nrb_class":"development","operator":"Lumbini Bikash Bank Limited","operator:type":"private","source":"2cpokhara"},"relations":[],"meta":{"timestamp":"2018-06-11T06:28:17Z","version":11,"changeset":59729197,"user":"Ro Sun","uid":3112087}},"geometry":{"type":"Point","coordinates":[83.9950441,28.2025795]}},{"type":"Feature","id":"node/4262060746","properties":{"type":"node","id":4262060746,"tags":{"amenity":"bank","atm":"yes","name":"Om Development Bank","name:ne":"ओम डेभलोप्मेट बैक","nrb_class":"development","operator":"Om Development Bank Limited","operator:type":"private","phone":"061-432150, 432151","source":"2C_Pokhara Field Visit 2018"},"relations":[],"meta":{"timestamp":"2018-06-04T09:21:24Z","version":7,"changeset":59529768,"user":"Ro Sun","uid":3112087}},"geometry":{"type":"Point","coordinates":[84.0008058,28.2047246]}},{"type":"Feature","id":"node/4271092409","properties":{"type":"node","id":4271092409,"tags":{"amenity":"bank","atm":"yes","email":"Shishwa@nsbl.com.np","name":"Nepal SBI Bank Limited","nrb_class":"commercial","opening_hours":"10:00-15:00","operator":"Public","phone":"0615611746","source":"2cpokhara"},"relations":[],"meta":{"timestamp":"2018-05-30T09:07:05Z","version":8,"changeset":59391266,"user":"Ro Sun","uid":3112087}},"geometry":{"type":"Point","coordinates":[84.0668468,28.1483053]}},{"type":"Feature","id":"node/4287522930","properties":{"type":"node","id":4287522930,"tags":{"amenity":"bank","atm":"yes","name":"Mega Bank Nepal Limited","name:ne":"मेगा बैंक नेपाल लिमिटेड","nrb_class":"commercial","operator":"Mega Bank","source":"2c peset"},"relations":[],"meta":{"timestamp":"2018-04-25T09:26:58Z","version":8,"changeset":58402131,"user":"sadeepta dh","uid":4851333}},"geometry":{"type":"Point","coordinates":[83.9851999,28.2120825]}},{"type":"Feature","id":"node/4296155924","properties":{"type":"node","id":4296155924,"tags":{"amenity":"bank","atm":"no","email":"pokhara@tdbl.com.np","name":"Tourism Development Bank","name:ne":"टुरिजम डेभ्लोपमेन्ट बैंक","nrb_class":"development","phone":"061-530616","source":"2c peset"},"relations":[],"meta":{"timestamp":"2018-05-30T09:07:06Z","version":6,"changeset":59391266,"user":"Ro Sun","uid":3112087}},"geometry":{"type":"Point","coordinates":[83.980635,28.2116004]}},{"type":"Feature","id":"node/4322981839","properties":{"type":"node","id":4322981839,"tags":{"addr:city":"Sabhagriha Chowk, Pokhara","alt_name":"ATM","amenity":"bank","atm":"yes","name":"Civil Bank Limited","name:ne":"सिभिल बैंक लि.","nrb_class":"commercial","opening_hours":"10:00-03:00","operator":"Civil Bank Limited","source":"2cpokhara","wheelchair":"no"},"relations":[],"meta":{"timestamp":"2017-06-05T10:59:42Z","version":5,"changeset":49266282,"user":"Alisha12","uid":4204463}},"geometry":{"type":"Point","coordinates":[83.9835852,28.210377]}},{"type":"Feature","id":"node/4361366696","properties":{"type":"node","id":4361366696,"tags":{"amenity":"bank","atm":"yes","name":"Gandaki Development Bank Limited","name:ne":"ग०डकी बिकास बैंक लिमिटेड","nrb_class":"development","operator":"Gandaki Bikas Bank","source":"2cpokhara"},"relations":[],"meta":{"timestamp":"2018-03-08T07:05:15Z","version":7,"changeset":56989579,"user":"Active Asmita","uid":7644107}},"geometry":{"type":"Point","coordinates":[83.988052,28.2241049]}},{"type":"Feature","id":"node/4361366711","properties":{"type":"node","id":4361366711,"tags":{"amenity":"bank","atm":"yes","name":"Kamana Bikash Bank Limited","name:ne":"कामना विकास बैंक लिमिटेड","nrb_class":"development","operator":"Kamana Bikash Bank Limited","source":"2cpokhara"},"relations":[],"meta":{"timestamp":"2017-05-04T08:23:49Z","version":8,"changeset":48386910,"user":"Alisha12","uid":4204463}},"geometry":{"type":"Point","coordinates":[83.9892181,28.2240783]}},{"type":"Feature","id":"node/4458687689","properties":{"type":"node","id":4458687689,"tags":{"amenity":"bank","name":"Om Development Bank","name:ne":"ओम डेभलपमेन्ट बैंक लिमिटेड","nrb_class":"development","operator":"Om Development Bank Limited","operator:type":"private","phone":"061-441355, 061-441366","source":"2C_Pokhara Field Visit 2018"},"relations":[],"meta":{"timestamp":"2018-06-04T09:21:25Z","version":8,"changeset":59529768,"user":"Ro Sun","uid":3112087}},"geometry":{"type":"Point","coordinates":[83.9718841,28.2615076]}},{"type":"Feature","id":"node/4511700327","properties":{"type":"node","id":4511700327,"tags":{"amenity":"bank","atm":"yes","brand":"Siddartha Bank ATM","name":"Siddhartha Bank","nrb_class":"commercial","operator":"Siddartha Bank Limited","operator:type":"private","source":"2cpokhara"},"relations":[],"meta":{"timestamp":"2018-06-10T09:57:33Z","version":5,"changeset":59707603,"user":"Ro Sun","uid":3112087}},"geometry":{"type":"Point","coordinates":[83.9801469,28.2251624]}},{"type":"Feature","id":"node/4514789590","properties":{"type":"node","id":4514789590,"tags":{"amenity":"bank","atm":"yes","name":"Bank of Kathmandu Limited","name:ne":"बैंक अफ काठमाडौँ लुम्बिनी लिमिटेड","nrb_class":"commercial","opening_hours":"Su-Th 10:00-06:00, FR 10:00-5:00","operator":"Bank of Kathmandu Lumnini Limited","phone":"539150/539151","source":"2cpokhara","website":"www.boklumbini.com"},"relations":[],"meta":{"timestamp":"2018-05-30T09:07:06Z","version":9,"changeset":59391266,"user":"Ro Sun","uid":3112087}},"geometry":{"type":"Point","coordinates":[83.9871567,28.220151]}},{"type":"Feature","id":"node/4515437791","properties":{"type":"node","id":4515437791,"tags":{"addr:street":"Mahendrapool","amenity":"bank","atm":"yes","name":"NIC Asia Bank Limited","name:ne":"एन.आइ.सी. एसिया बैंक लिमिटेड","nrb_class":"commercial","operator":"NIC Asia Bank","phone":"061-539645","source":"2cpokhara"},"relations":[],"meta":{"timestamp":"2018-05-30T09:07:06Z","version":9,"changeset":59391266,"user":"Ro Sun","uid":3112087}},"geometry":{"type":"Point","coordinates":[83.9913277,28.2238878]}},{"type":"Feature","id":"node/4571267060","properties":{"type":"node","id":4571267060,"tags":{"amenity":"bank","atm":"no","name":"Tourism Development Bank","name:ne":"टुरिजम डेभ्लोपमेन्ट बैंक","nrb_class":"development","source":"2cpokhara"},"relations":[],"meta":{"timestamp":"2017-09-14T07:51:07Z","version":6,"changeset":52028129,"user":"marek kleciak","uid":338611}},"geometry":{"type":"Point","coordinates":[84.0000278,28.2049037]}},{"type":"Feature","id":"node/4571467988","properties":{"type":"node","id":4571467988,"tags":{"amenity":"bank","atm":"yes","name":"Siddhartha Bank Limited","name:ne":"सिद्धार्थ डेभलपमेन्ट बैंक लिमिटेड","nrb_class":"commercial","operator":"Siddhartha Bank","phone":"061-432505","source":"2cpokhara Field Visit"},"relations":[],"meta":{"timestamp":"2018-05-29T09:20:11Z","version":5,"changeset":59361949,"user":"Ro Sun","uid":3112087}},"geometry":{"type":"Point","coordinates":[83.9943706,28.206054]}},{"type":"Feature","id":"node/4579370618","properties":{"type":"node","id":4579370618,"tags":{"amenity":"bank","contact:fax":"061-520519","name":"N.I.D.C. Development Bank","name:ne":"एन.आइ.डी.सी. विकास बैंक","nrb_class":"development","operator":"N.I.D.C. Development Bank Limited","phone":"061-520518, 061-520083","source":"2cpokhara","website":"www.nidc.org.np"},"relations":[],"meta":{"timestamp":"2018-06-10T04:31:17Z","version":7,"changeset":59703468,"user":"Ro Sun","uid":3112087}},"geometry":{"type":"Point","coordinates":[83.9865828,28.210199]}},{"type":"Feature","id":"node/4579370628","properties":{"type":"node","id":4579370628,"tags":{"alt_name":"ATM","amenity":"bank","name":"Mega Bank Nepal Limited","name:ne":"मेगा बैंक नेपाल लिमिटेड","network":"SCT","nrb_class":"commercial","operator":"Mega Bank","phone":"061-531112","source":"2c peset","website":"www.megabanknepal.com"},"relations":[],"meta":{"timestamp":"2018-06-15T11:25:47Z","version":11,"changeset":59871828,"user":"marek kleciak","uid":338611}},"geometry":{"type":"Point","coordinates":[83.9847648,28.2110805]}},{"type":"Feature","id":"node/4579370636","properties":{"type":"node","id":4579370636,"tags":{"amenity":"bank","name":"Sana Kisan Bikash Bank","name:ne":"साना किसान विकास बैंक लिमिटेड बिहानी","nrb_class":"development","source":"2cpokhara"},"relations":[],"meta":{"timestamp":"2018-06-15T11:25:49Z","version":6,"changeset":59871828,"user":"marek kleciak","uid":338611}},"geometry":{"type":"Point","coordinates":[83.9847262,28.2109517]}},{"type":"Feature","id":"node/4579452344","properties":{"type":"node","id":4579452344,"tags":{"addr:city":"Pokhara Lekhnath Municipality","addr:street":"Newroad 9","amenity":"bank","atm":"yes","contact:fax":"061538229","name":"Shangri-la Development Bank Limited","name:ne":"सांग्रिला विकास बैंक लिमिटेड","network":"VISA, MasterCard, Maestro, Discover, UnionPay, JCB, Diners Club International, SCT","nrb_class":"development","operator":"Shangri-la Development Bank Limited","phone":"061523715","source":"2cpokhara"},"relations":[],"meta":{"timestamp":"2018-05-30T09:07:07Z","version":7,"changeset":59391266,"user":"Ro Sun","uid":3112087}},"geometry":{"type":"Point","coordinates":[83.987443,28.2213852]}},{"type":"Feature","id":"node/4579452346","properties":{"type":"node","id":4579452346,"tags":{"amenity":"bank","contact:fax":"061-537962","email":"infopokhara@jbbl.com.np","name":"Jyoti Bikas Bank Limited","name:ne":"ज्योति विकास बैंक लिमिटेड","nrb_class":"development","operator":"Jyoti Bikash Bank Limited","phone":"061-537960, 537961","source":"2cpokhara"},"relations":[],"meta":{"timestamp":"2018-05-30T09:07:08Z","version":6,"changeset":59391266,"user":"Ro Sun","uid":3112087}},"geometry":{"type":"Point","coordinates":[83.9871929,28.2204067]}},{"type":"Feature","id":"node/4579452347","properties":{"type":"node","id":4579452347,"tags":{"amenity":"bank","atm":"yes","name":"Everest Bank Limited","name:ne":"एभरेस्ट बैंक लिमिटेड","network":"VISA, MasterCard, Maestro, VISA Electron, Cirrus, SCT","nrb_class":"commercial","operator":"Everest Bank Limited","phone":"061-541491","source":"2cpokhara","website":"www.everestbankltd.com"},"relations":[],"meta":{"timestamp":"2018-05-30T09:07:08Z","version":8,"changeset":59391266,"user":"Ro Sun","uid":3112087}},"geometry":{"type":"Point","coordinates":[83.9871319,28.2200652]}},{"type":"Feature","id":"node/4579452350","properties":{"type":"node","id":4579452350,"tags":{"amenity":"bank","atm":"yes","name":"Union Finance Limited","name:ne":"युनियन फाइनान्स लिमिटेड","network":"VISA, MasterCard, Maestro, VISA Electron, SCT, JCB","nrb_class":"finance companies","operator":"Union Finance Limited","source":"2cpokhara"},"relations":[],"meta":{"timestamp":"2017-04-27T06:13:44Z","version":4,"changeset":48183465,"user":"Alisha12","uid":4204463}},"geometry":{"type":"Point","coordinates":[83.9870749,28.2198714]}},{"type":"Feature","id":"node/4579452355","properties":{"type":"node","id":4579452355,"tags":{"amenity":"bank","atm":"yes","drive_through":"no","name":"Janata Bank Nepal Limited","name:ne":"जनता बैंक लि.","network":"VISA, Maestro, MasterCard, JCB, Discover, Diners Club International","nrb_class":"commercial","opening_hours":"Su-Th 09:45-04:00, FR 09:45-02:00","operator":"Janata Bank Nepal Limited","phone":"061537793","source":"2cpokhara"},"relations":[],"meta":{"timestamp":"2018-05-30T09:07:08Z","version":7,"changeset":59391266,"user":"Ro Sun","uid":3112087}},"geometry":{"type":"Point","coordinates":[83.9870139,28.2195781]}},{"type":"Feature","id":"node/4579452356","properties":{"type":"node","id":4579452356,"tags":{"amenity":"bank","atm":"yes","name":"Himalayan Bank Limited","name:ne":"हिमालयन बैंक लि.","nrb_class":"commercial","operator":"Himalayan Bank Limited","source":"2cpokhara"},"relations":[],"meta":{"timestamp":"2017-04-25T11:22:28Z","version":3,"changeset":48120814,"user":"Alisha12","uid":4204463}},"geometry":{"type":"Point","coordinates":[83.986979,28.2192555]}},{"type":"Feature","id":"node/4579452358","properties":{"type":"node","id":4579452358,"tags":{"amenity":"bank","name":"Supreme Development Bank Limited","name:ne":"सुप्रिम बिकास बैंक लिमिटेड","nrb_class":"development","operator":"Supreme Development Bank","source":"2cpokhara"},"relations":[],"meta":{"timestamp":"2018-04-09T14:09:37Z","version":7,"changeset":57942281,"user":"Active Asmita","uid":7644107}},"geometry":{"type":"Point","coordinates":[83.9867571,28.2180517]}},{"type":"Feature","id":"node/4579452360","properties":{"type":"node","id":4579452360,"tags":{"amenity":"bank","atm":"yes","name":"Sunrise Bank Limited","name:ne":"सनराईज बैंक लिमिटेड","network":"VISA, SCT, VISA Electron, Maestro, MasterCard, Cirrus","nrb_class":"commercial","opening_hours":"Su-Fr 10:00-03:00, Fr 10:00-01:00","operator":"Sunrise Bank Limited","source":"2cpokhara"},"relations":[],"meta":{"timestamp":"2017-04-27T06:01:37Z","version":6,"changeset":48183170,"user":"Alisha12","uid":4204463}},"geometry":{"type":"Point","coordinates":[83.9868533,28.2186986]}},{"type":"Feature","id":"node/4586485316","properties":{"type":"node","id":4586485316,"tags":{"amenity":"bank","atm":"yes","name":"Century Commercial Bank Limited","name:ne":"सेन्चुरी कमर्सियल बैंक लिमिटेड","network":"VISA, Mastercard, Plus, National, Cirrus","nrb_class":"commercial","operator":"Century Commercial Bank Limited","source":"2cpokhara","website":"www.myeasylink.com"},"relations":[],"meta":{"timestamp":"2018-06-15T11:25:53Z","version":10,"changeset":59871828,"user":"marek kleciak","uid":338611}},"geometry":{"type":"Point","coordinates":[83.9850118,28.2124433]}},{"type":"Feature","id":"node/4586787603","properties":{"type":"node","id":4586787603,"tags":{"amenity":"bank","atm":"yes","name":"Prime Commercial Bank Limited","name:ne":"प्राइम कमर्सियल बैंक लि.","nrb_class":"commercial","operator":"Prime Commercial Bank Limited","source":"2C Pokhara Field Data Collection"},"relations":[],"meta":{"timestamp":"2018-03-20T13:59:55Z","version":8,"changeset":57353339,"user":"Active Asmita","uid":7644107}},"geometry":{"type":"Point","coordinates":[83.9872599,28.2222933]}},{"type":"Feature","id":"node/4586787604","properties":{"type":"node","id":4586787604,"tags":{"amenity":"bank","name":"Lumbini Finance and Leasing co LTD.","nrb_class":"finance companies","operator":"Lumbini Finance & Leasing C0.LTD","phone":"061-540005","source":"2cpokhara"},"relations":[],"meta":{"timestamp":"2018-05-30T09:07:08Z","version":4,"changeset":59391266,"user":"Ro Sun","uid":3112087}},"geometry":{"type":"Point","coordinates":[83.9872576,28.2220852]}},{"type":"Feature","id":"node/4586787607","properties":{"type":"node","id":4586787607,"tags":{"amenity":"bank","atm":"yes","name":"Global IME Bank Limited","name:ne":"ग्लोबल आइ.एम.इ. बैंक लि.","network":"VISA, SCT, VISA Electron, Maestro, MasterCard, Cirrusm, National","nrb_class":"commercial","operator":"Global IME Bank","phone":"061-537881","source":"2cpokhara","website":"www.globalimebank.com"},"relations":[],"meta":{"timestamp":"2018-05-30T09:07:08Z","version":6,"changeset":59391266,"user":"Ro Sun","uid":3112087}},"geometry":{"type":"Point","coordinates":[83.9866505,28.2177567]}},{"type":"Feature","id":"node/4586787609","properties":{"type":"node","id":4586787609,"tags":{"amenity":"bank","atm":"yes","name":"Kailash Bikash Bank Limited","name:ne":"कैलाश विकास बैंक लिमिटेड","network":"VISA, JCB, Mastercard, Discoverl, Cirrus, VISA Electron","nrb_class":"development","opening_hours":"Su-Th 09:00-05:00, Fr 09:00-03:00","operator":"Kailash Bank","phone":"061-521861","source":"2cpokhara"},"relations":[],"meta":{"timestamp":"2018-05-30T09:07:09Z","version":9,"changeset":59391266,"user":"Ro Sun","uid":3112087}},"geometry":{"type":"Point","coordinates":[83.985933,28.2163321]}},{"type":"Feature","id":"node/4586787610","properties":{"type":"node","id":4586787610,"tags":{"amenity":"bank","name":"United Finance Limited","name:ne":"युनियन फाइनान्स लिमिटेड","nrb_class":"finance companies","operator":"United Finance","source":"2cpokhara"},"relations":[],"meta":{"timestamp":"2017-04-27T06:01:37Z","version":5,"changeset":48183170,"user":"Alisha12","uid":4204463}},"geometry":{"type":"Point","coordinates":[83.985809,28.2157139]}},{"type":"Feature","id":"node/4586787612","properties":{"type":"node","id":4586787612,"tags":{"amenity":"bank","atm":"yes","name":"Garima Bikash Bank Limited","name:ne":"गरिमा विकास बैंक लि.","nrb_class":"development","operator":"Garima Bikash Bank","source":"2cpokhara"},"relations":[],"meta":{"timestamp":"2017-04-26T04:39:30Z","version":6,"changeset":48149070,"user":"Alisha12","uid":4204463}},"geometry":{"type":"Point","coordinates":[83.9843345,28.2109929]}},{"type":"Feature","id":"node/4586850324","properties":{"type":"node","id":4586850324,"tags":{"amenity":"bank","name":"Triveni Development Bank Limited","name:ne":"त्रिवेणी बचत तथा ऋण सहकरी संस्था लिमिटेड","nrb_class":"development","operator":"Triveni Development Bank","source":"2cpokhara"},"relations":[],"meta":{"timestamp":"2017-04-27T06:25:26Z","version":5,"changeset":48183723,"user":"Alisha12","uid":4204463}},"geometry":{"type":"Point","coordinates":[83.987567,28.2220139]}},{"type":"Feature","id":"node/4586850325","properties":{"type":"node","id":4586850325,"tags":{"amenity":"bank","atm":"yes","contact:fax":"061-523699","name":"Kamana Bikash Bank Limited","name:ne":"कामना विकास बैंक लिमिटेड","nrb_class":"development","opening_hours":"Su-Th 09:45-06:00, Fr 09:45-04:00, Sa 11:00-02:00","operator":"Kamana Bikash Bank","phone":"061-523699","source":"2cpokhara"},"relations":[],"meta":{"timestamp":"2018-05-30T09:07:09Z","version":8,"changeset":59391266,"user":"Ro Sun","uid":3112087}},"geometry":{"type":"Point","coordinates":[83.9872086,28.2218753]}},{"type":"Feature","id":"node/4586850326","properties":{"type":"node","id":4586850326,"tags":{"amenity":"bank","contact:fax":"061-521758","name":"Synergy Finance Limited","name:ne":"सिनर्जी फाइनान्स लिमिटेड","nrb_class":"finance companies","operator":"Synergy Finance LTD.","phone":"061-522033/521663","source":"2cpokhara"},"relations":[],"meta":{"timestamp":"2018-05-30T09:07:09Z","version":7,"changeset":59391266,"user":"Ro Sun","uid":3112087}},"geometry":{"type":"Point","coordinates":[83.9866683,28.2194441]}},{"type":"Feature","id":"node/4586850329","properties":{"type":"node","id":4586850329,"tags":{"addr:city":"Pokhara","amenity":"bank","atm":"yes","name":"Gandaki Bikash Bank Limited","name:ne":"गण्डकी विकास बैंक लिमिटेड","network":"VISA, Mastercard, Cirrus, VISA Electron, National","nrb_class":"development","operator":"Gandaki Bikash Bank Limited","source":"2cpokhara"},"relations":[],"meta":{"timestamp":"2017-06-06T10:01:01Z","version":7,"changeset":49300525,"user":"Alisha12","uid":4204463}},"geometry":{"type":"Point","coordinates":[83.9864621,28.2185543]}},{"type":"Feature","id":"node/4590509452","properties":{"type":"node","id":4590509452,"tags":{"amenity":"bank","atm":"yes","name":"Nepal Investment Bank Limited","name:ne":"नेपाल इन्भेस्टमेन्ट बैंक लिमिटेड","nrb_class":"commercial","phone":"538919, 539276","source":"2cpokhara","website":"www.nibl.com.np"},"relations":[],"meta":{"timestamp":"2018-05-30T09:07:09Z","version":5,"changeset":59391266,"user":"Ro Sun","uid":3112087}},"geometry":{"type":"Point","coordinates":[83.9858902,28.2243018]}},{"type":"Feature","id":"node/4590509462","properties":{"type":"node","id":4590509462,"tags":{"amenity":"bank","atm":"yes","contact:fax":"061-528324","name":"Apex Development Bank Limited","name:ne":"अपेक्स डेभलपमेन्ट बैंक लिमिटेड","network":"SCT","nrb_class":"development","operator":"Apex Development Bank Limited","phone":"061-528325","source":"2cpokhara","website":"www.apexbanknepal.com"},"relations":[],"meta":{"timestamp":"2018-05-30T09:07:10Z","version":7,"changeset":59391266,"user":"Ro Sun","uid":3112087}},"geometry":{"type":"Point","coordinates":[83.9875846,28.2235337]}},{"type":"Feature","id":"node/4590509463","properties":{"type":"node","id":4590509463,"tags":{"amenity":"bank","atm":"yes","name":"Nepal Bangladesh Bank Limited","network":"SCT, VISA, Mastercard, Maestro, Discover, JCB, Dinners Club International, UnionPay","nrb_class":"commercial","operator":"Nepal Banglasesh Bank","phone":"533134/533135","source":"2cpokhara","website":"www.nbbl.com.np"},"relations":[],"meta":{"timestamp":"2018-05-30T09:07:10Z","version":5,"changeset":59391266,"user":"Ro Sun","uid":3112087}},"geometry":{"type":"Point","coordinates":[83.987862,28.2234173]}},{"type":"Feature","id":"node/4590509464","properties":{"type":"node","id":4590509464,"tags":{"amenity":"bank","contact:fax":"061-541127","name":"Muktinath Bikash Bank Limited","network":"VISA, VISA Electron, MasterCard, Maestro, Cirrus, National,","nrb_class":"development","operator":"Mukthinath Bikash Bank","phone":"061-522656, 540656","source":"2cpokhara","website":"www.muktinathbank.com.np"},"relations":[],"meta":{"timestamp":"2018-05-30T09:07:10Z","version":6,"changeset":59391266,"user":"Ro Sun","uid":3112087}},"geometry":{"type":"Point","coordinates":[83.9878431,28.2232526]}},{"type":"Feature","id":"node/4590509465","properties":{"type":"node","id":4590509465,"tags":{"amenity":"bank","atm":"yes","name":"Kumari Bank Limited","nrb_class":"commercial","operator":"Kumari Bank","source":"2cpokhara","website":"www.kumaribank.com"},"relations":[],"meta":{"timestamp":"2017-04-25T10:49:09Z","version":4,"changeset":48119745,"user":"Alisha12","uid":4204463}},"geometry":{"type":"Point","coordinates":[83.9874978,28.2232611]}},{"type":"Feature","id":"node/4590509467","properties":{"type":"node","id":4590509467,"tags":{"amenity":"bank","name":"NMB Bank Limited","name:ne":"एन एम वि बैंक लिमिटेड","nrb_class":"commercial","operator":"NMB Bank","phone":"528413, 528414","source":"2cpokhara","website":"www.nmbbanknepal.com"},"relations":[],"meta":{"timestamp":"2018-05-30T09:07:10Z","version":6,"changeset":59391266,"user":"Ro Sun","uid":3112087}},"geometry":{"type":"Point","coordinates":[83.9874539,28.2230743]}},{"type":"Feature","id":"node/4590509469","properties":{"type":"node","id":4590509469,"tags":{"amenity":"bank","name":"Agriculture Development Bank Limited","name:ne":"कृषि विकास बैंक लिमिटेड","nrb_class":"commercial","operator":"Agriculture Development Bank Limited","source":"2cpokhara","website":"www.adbl.gov.np"},"relations":[],"meta":{"timestamp":"2017-04-27T06:25:27Z","version":5,"changeset":48183723,"user":"Alisha12","uid":4204463}},"geometry":{"type":"Point","coordinates":[83.9877434,28.2228535]}},{"type":"Feature","id":"node/4590509472","properties":{"type":"node","id":4590509472,"tags":{"amenity":"bank","contact:fax":"061-533038","name":"Om Development Bank","name:ne":"ओम डेभलपमेन्ट बैंक लिमिटेड","nrb_class":"development","operator":"Om Development Bank Limited","operator:type":"private","phone":"061-521505, 521912, 526261","source":"2C_Pokhara Field Visit 2018","website":"www.ombank.com.np"},"relations":[],"meta":{"timestamp":"2018-06-04T09:21:26Z","version":7,"changeset":59529768,"user":"Ro Sun","uid":3112087}},"geometry":{"type":"Point","coordinates":[83.9877129,28.2226397]}},{"type":"Feature","id":"node/4590509473","properties":{"type":"node","id":4590509473,"tags":{"amenity":"bank","atm":"yes","name":"Kailash Bikash Bank Limited","name:ne":"कैलास विकास बैंक लिमिटेड","network":"SCT, VISA, Mastercard, Cirrus, Maestro","nrb_class":"development","operator":"Kailash Bikash Bank Limited","source":"2cpokhara"},"relations":[],"meta":{"timestamp":"2017-07-19T10:11:47Z","version":7,"changeset":50400883,"user":"Ro Sun","uid":3112087}},"geometry":{"type":"Point","coordinates":[83.9873523,28.2225358]}},{"type":"Feature","id":"node/4592397384","properties":{"type":"node","id":4592397384,"tags":{"addr:city":"Pokhara","addr:street":"Annapurna Marg","amenity":"bank","atm":"yes","name":"Kamana Bikash Bank Limited","name:ne":"कामना विकास बैंक लिमिटेड","nrb_class":"development","opening_hours":"Su-Th 09:45-06:00, Fr 09:45-04:00, Sa 11:00- 02:00","operator":"Kamana Bikash Bank","source":"2cpokhara"},"relations":[],"meta":{"timestamp":"2017-04-27T05:21:04Z","version":7,"changeset":48182482,"user":"Alisha12","uid":4204463}},"geometry":{"type":"Point","coordinates":[83.9722245,28.1921776]}},{"type":"Feature","id":"node/4595904434","properties":{"type":"node","id":4595904434,"tags":{"addr:housenumber":"6","addr:street":"Lakeside Marg","amenity":"bank","atm":"yes","name":"Fewa Bikash Bank Limited","name:en":"Holy Mount Guesthouse","name:ne":"फेवा बिकास बैंक लिमिटेड","nrb_class":"development","operator":"Fewa Bank","source":"2cpokhara","tourism":"guest_house"},"relations":[],"meta":{"timestamp":"2018-05-03T06:16:27Z","version":7,"changeset":58636436,"user":"Colombo42","uid":8148350}},"geometry":{"type":"Point","coordinates":[83.9572913,28.2129899]}},{"type":"Feature","id":"node/4595904435","properties":{"type":"node","id":4595904435,"tags":{"amenity":"bank","contact:fax":"061-466846","name":"Gandaki Bikash Bank Limited","name:ne":"गण्डकी विकास बैंक लिमिटेड","nrb_class":"development","operator":"Gandaki Bikash Bank Limited","phone":"061-466844","source":"2cpokhara"},"relations":[],"meta":{"timestamp":"2018-05-30T09:07:11Z","version":6,"changeset":59391266,"user":"Ro Sun","uid":3112087}},"geometry":{"type":"Point","coordinates":[83.9581404,28.2137663]}},{"type":"Feature","id":"node/4595904439","properties":{"type":"node","id":4595904439,"tags":{"amenity":"bank","atm":"yes","name":"Machhapuchchre Bank Limited","name:ne":"माछापुछ्रे बैंक लिमिटेड","nrb_class":"commercial","operator":"Machhapuchchre Bank Limited","phone":"061-463200, 463700","source":"2cpokhara","website":"www.machbank.com"},"relations":[],"meta":{"timestamp":"2018-05-30T09:07:11Z","version":6,"changeset":59391266,"user":"Ro Sun","uid":3112087}},"geometry":{"type":"Point","coordinates":[83.9571226,28.2087707]}},{"type":"Feature","id":"node/4595904446","properties":{"type":"node","id":4595904446,"tags":{"amenity":"bank","atm":"yes","name":"Sunrise Bank Limited","name:ne":"सनराईज बैंक लिमिटेड","nrb_class":"commercial","operator":"Sunrise Bank Limited","phone":"061-537845","source":"2cpokhara","website":"www.sunrisebank.com.np"},"relations":[],"meta":{"timestamp":"2018-05-30T09:07:11Z","version":6,"changeset":59391266,"user":"Ro Sun","uid":3112087}},"geometry":{"type":"Point","coordinates":[83.9575544,28.2082312]}},{"type":"Feature","id":"node/4595904447","properties":{"type":"node","id":4595904447,"tags":{"amenity":"bank","name":"Lumbini Bikas Bank","name:ne":"लुम्बिनी बिकास बैंक","nrb_class":"development","operator":"Lumbini Bikash Bank Limited","operator:type":"private","source":"2cpokhara"},"relations":[],"meta":{"timestamp":"2018-06-11T06:09:01Z","version":6,"changeset":59728676,"user":"Ro Sun","uid":3112087}},"geometry":{"type":"Point","coordinates":[83.95705,28.2122577]}},{"type":"Feature","id":"node/4597580939","properties":{"type":"node","id":4597580939,"tags":{"amenity":"bank","atm":"yes","name":"Garima Bikash Bank Limited","name:ne":"गरिमा विकास बैंक लिमिटेड","nrb_class":"development","operator":"Garima Bikash Bank","source":"2cpokhara"},"relations":[],"meta":{"timestamp":"2017-04-26T11:32:59Z","version":5,"changeset":48160144,"user":"Alisha12","uid":4204463}},"geometry":{"type":"Point","coordinates":[83.9720548,28.1921293]}},{"type":"Feature","id":"node/4597580940","properties":{"type":"node","id":4597580940,"tags":{"amenity":"bank","atm":"yes","contact:fax":"061-466019","name":"Sangri-La Development Bank Limited","name:ne":"सांग्रिला विकास बैंक लिमिटेड","network":"Visa, SCT, Maestro, MasterCard","nrb_class":"development","operator":"Sangri-La Development Bank Limited","phone":"061-466018, 466017","source":"2cpokhara","website":"www.shangrilabank.com"},"relations":[],"meta":{"timestamp":"2018-05-30T09:07:11Z","version":8,"changeset":59391266,"user":"Ro Sun","uid":3112087}},"geometry":{"type":"Point","coordinates":[83.9717709,28.1920906]}},{"type":"Feature","id":"node/4597652683","properties":{"type":"node","id":4597652683,"tags":{"addr:street":"Birauta","amenity":"bank","atm":"yes","name":"Fewa Bikash Bank Limited","name:ne":"फेवा बिकास बैंक लिमिटेड","network":"Visa, Visa Elecstsron, SCT, Maestro, MasterCard","nrb_class":"development","operator":"Fewa Bikash Bank Limited","source":"2cpokhara"},"relations":[],"meta":{"timestamp":"2017-06-13T08:49:13Z","version":7,"changeset":49492707,"user":"Alisha12","uid":4204463}},"geometry":{"type":"Point","coordinates":[83.9711703,28.1919018]}},{"type":"Feature","id":"node/4597652685","properties":{"type":"node","id":4597652685,"tags":{"amenity":"bank","email":"chudamani.parajuli@nicasiabank.com","name":"NIC Asia Bank Limited","name:ne":"एन.आइ.सी. एसिया बैंक लिमिटेड","nrb_class":"commercial","opening_hours":"Su-Th 09:45-16:00, Fr 09:45-14:00","operator":"NIC Asia Bank","phone":"061-467356/57","source":"2cpokhara","website":"www.nicasiabank.com"},"relations":[],"meta":{"timestamp":"2018-05-30T09:07:11Z","version":7,"changeset":59391266,"user":"Ro Sun","uid":3112087}},"geometry":{"type":"Point","coordinates":[83.9706424,28.1915486]}},{"type":"Feature","id":"node/4597652686","properties":{"type":"node","id":4597652686,"tags":{"amenity":"bank","atm":"yes","contact:fax":"061-462518","name":"Nepal SBI Bank Limited","name:ne":"नेपाल एस वि आइ बैंक लिमिटेड","nrb_class":"commercial","operator":"Nepal SBI Bank","phone":"061-462318","source":"2cpokhara","website":"www.nsbl.com.np"},"relations":[],"meta":{"timestamp":"2018-05-30T09:07:11Z","version":10,"changeset":59391266,"user":"Ro Sun","uid":3112087}},"geometry":{"type":"Point","coordinates":[83.9708546,28.1918143]}},{"type":"Feature","id":"node/4597652687","properties":{"type":"node","id":4597652687,"tags":{"amenity":"bank","atm":"yes","name":"Prabhu Bank Limited","name:ne":"प्रभु बैंक लिमिटेड","network":"Visa, MasterCard, Maestro, Cirrus, RuPaiya, SCT","nrb_class":"commercial","opening_hours":"Su-Th 09:45-04:00, Fr 09:45-02:00","operator":"Prabhu Bank","phone":"061-467233, 467244","source":"2cpokhara","website":"www.prabhubank.com"},"relations":[],"meta":{"timestamp":"2018-05-30T09:07:12Z","version":8,"changeset":59391266,"user":"Ro Sun","uid":3112087}},"geometry":{"type":"Point","coordinates":[83.9723515,28.1929684]}},{"type":"Feature","id":"node/4597652688","properties":{"type":"node","id":4597652688,"tags":{"amenity":"bank","name":"Rastriya Banijya Bank Limited","name:ne":"राष्ट्रिय बाणिज्य बैंक लिमिटेड","nrb_class":"commercial","operator":"Rastriya Banijya Bank Limited","operator:type":"government","phone":"061-532540, 533707","source":"2cpokhara","website":"www.rbb.com.np"},"relations":[],"meta":{"timestamp":"2018-06-03T06:05:03Z","version":9,"changeset":59499559,"user":"Ro Sun","uid":3112087}},"geometry":{"type":"Point","coordinates":[83.9711993,28.1923761]}},{"type":"Feature","id":"node/4597653689","properties":{"type":"node","id":4597653689,"tags":{"amenity":"bank","atm":"yes","name":"Siddhartha Bank Limited","name:ne":"सिद्धार्थ डेभलपमेन्ट बैंक लिमिटेड","network":"Visa, MasterCard, SCT, National, Discover, JCB, Diners Club International, UnionPay","nrb_class":"commercial","operator":"Siddharth Bank","phone":"061-460185, 464703","source":"2cpokhara","website":"www.siddharthabank.com"},"relations":[],"meta":{"timestamp":"2018-05-30T09:07:12Z","version":6,"changeset":59391266,"user":"Ro Sun","uid":3112087}},"geometry":{"type":"Point","coordinates":[83.9725332,28.1931896]}},{"type":"Feature","id":"node/4599209616","properties":{"type":"node","id":4599209616,"tags":{"addr:city":"Ratna Chowk-8, Pokhara","addr:street":"Ratna Chowk","amenity":"bank","atm":"yes","contact:fax":"061-535245","email":"ratnachowk@kailashbank.com","name":"Kailash Bikash Bank Limited","name:ne":"कैलाश विकास बैंक लि.","nrb_class":"development","operator":"Kailash Bikash Bank Limited","phone":"061-535244","source":"2c peset"},"relations":[],"meta":{"timestamp":"2018-05-30T09:07:12Z","version":8,"changeset":59391266,"user":"Ro Sun","uid":3112087}},"geometry":{"type":"Point","coordinates":[83.9755611,28.2055231]}},{"type":"Feature","id":"node/4599306670","properties":{"type":"node","id":4599306670,"tags":{"addr:city":"Sabhagriha Chowk, Pokhara","amenity":"bank","name":"Pokhara Finance Limited","name:ne":"पोखरा फाइनान्स लि.","nrb_class":"finance companies","operator":"Pokhara Finance","phone":"061-539323, 540075","source":"2cpokhara","website":"www.pokharafinance.com.np"},"relations":[],"meta":{"timestamp":"2018-05-30T09:07:13Z","version":6,"changeset":59391266,"user":"Ro Sun","uid":3112087}},"geometry":{"type":"Point","coordinates":[83.9833312,28.2104917]}},{"type":"Feature","id":"node/4599355486","properties":{"type":"node","id":4599355486,"tags":{"addr:city":"Pokhara Lekhanath Municipality","addr:street":"Prithivichowk","alt_name":"Nagarik Lagani Kosh","amenity":"bank","contact:fax":"061-540234","name":"Citizen Investment Trust","name:ne":"नागरिक लगानी कोष","operator":"Nepal Government","phone":"061-538031","source":"2C Pokhara Field Data Collection","website":"www.nlk.org.np"},"relations":[],"meta":{"timestamp":"2018-06-10T04:44:34Z","version":8,"changeset":59703574,"user":"Ro Sun","uid":3112087}},"geometry":{"type":"Point","coordinates":[83.9868592,28.2106258]}},{"type":"Feature","id":"node/4599405856","properties":{"type":"node","id":4599405856,"tags":{"addr:city":"Nayabazar- Pokhara","amenity":"bank","email":"info@pokharafinance.com.np","name":"Pokhara Finance Limited","nrb_class":"finance companies","opening_hours":"Su-Th 09:45-04:00, Fr 09:45-02:00 Sa 11:00-02:00","operator":"Pokhara Finance","phone":"061-520096","source":"2cpokhara","start_date":"2053 B.S."},"relations":[],"meta":{"timestamp":"2018-05-30T09:07:13Z","version":4,"changeset":59391266,"user":"Ro Sun","uid":3112087}},"geometry":{"type":"Point","coordinates":[83.9885373,28.2132953]}},{"type":"Feature","id":"node/4599518602","properties":{"type":"node","id":4599518602,"tags":{"addr:city":"Mahendrapul, Pokhara","amenity":"bank","atm":"yes","contact:fax":"+977-061-533696","name":"Garima Bikash Bank Limited","name:ne":"गरिमा विकाश बैंक लिमिटेड","nrb_class":"development","opening_hours":"Su-Th 10:00-06:00, Fr 10:00-04:00 Sa: 10:00-01:00","operator":"Garima Bikash Bank","phone":"+977-061-533694","source":"2cpokhara","website":"www.garimabank.com.np"},"relations":[],"meta":{"timestamp":"2018-05-30T09:07:13Z","version":7,"changeset":59391266,"user":"Ro Sun","uid":3112087}},"geometry":{"type":"Point","coordinates":[83.9912011,28.2244209]}},{"type":"Feature","id":"node/4599518603","properties":{"type":"node","id":4599518603,"tags":{"addr:city":"Mahendrapul, Pokhara","amenity":"bank","atm":"yes","name":"Lumbini Bikas Bank","name:ne":"लिम्बिनी विकास बैंक","nrb_class":"development","operator":"Lumbini Bikash Bank Limited","operator:type":"private","source":"2cpokhara"},"relations":[],"meta":{"timestamp":"2018-06-11T06:28:17Z","version":10,"changeset":59729197,"user":"Ro Sun","uid":3112087}},"geometry":{"type":"Point","coordinates":[83.9912417,28.2239527]}},{"type":"Feature","id":"node/4599574834","properties":{"type":"node","id":4599574834,"tags":{"addr:city":"Pokhara","addr:street":"Bagar","amenity":"bank","atm":"no","contact:fax":"061-525797","name":"Kailash Bikash Bank Limited","name:ne":"कैलाश विकास बैंक लि.","nrb_class":"development","operator":"Kailash Bikash Bank Limited","phone":"061-522671, 061-524556","source":"2cpokhara","website":"www.kailashbank.com"},"relations":[],"meta":{"timestamp":"2018-05-30T09:07:13Z","version":7,"changeset":59391266,"user":"Ro Sun","uid":3112087}},"geometry":{"type":"Point","coordinates":[83.9883119,28.2396308]}},{"type":"Feature","id":"node/4599601383","properties":{"type":"node","id":4599601383,"tags":{"addr:city":"Pokhara","addr:street":"Bagar","amenity":"bank","atm":"yes","name":"Machhapuchchre Bank Limited","name:ne":"माछापुछ्रे बैंक लिमिटेड","nrb_class":"commercial","operator":"Machhapuchchre Bank","phone":"061-541226","source":"2cpokhara"},"relations":[],"meta":{"timestamp":"2018-05-30T09:07:13Z","version":6,"changeset":59391266,"user":"Ro Sun","uid":3112087}},"geometry":{"type":"Point","coordinates":[83.9873017,28.2419785]}},{"type":"Feature","id":"node/4601383665","properties":{"type":"node","id":4601383665,"tags":{"amenity":"bank","atm":"yes","name":"Kasthamandap Development Bank Limited","name:ne":"कास्ठमण्डप डेभलपमेन्ट बैंक लिमिटेड","network":"VISA, SCT, VISA Electron, UnionPay","nrb_class":"development","operator":"Kasthamandap Development Bank","source":"2cpokhara"},"relations":[],"meta":{"timestamp":"2017-04-27T06:40:55Z","version":4,"changeset":48184092,"user":"Alisha12","uid":4204463}},"geometry":{"type":"Point","coordinates":[83.9858468,28.224319]}},{"type":"Feature","id":"node/4601383668","properties":{"type":"node","id":4601383668,"tags":{"amenity":"bank","name":"Nepal SBI Bank Limited","name:ne":"नेपाल एस.वि.आइ.बैंक लिमिटेड","nrb_class":"commercial","operator":"Nepal SBI Bank","source":"2cpokhara"},"relations":[],"meta":{"timestamp":"2017-04-27T06:25:27Z","version":4,"changeset":48183723,"user":"Alisha12","uid":4204463}},"geometry":{"type":"Point","coordinates":[83.9876509,28.2222951]}},{"type":"Feature","id":"node/4601383672","properties":{"type":"node","id":4601383672,"tags":{"amenity":"bank","atm":"yes","name":"Siddhartha Bank Limited","name:ne":"सिद्धार्थ बैंक लिमिटेड","nrb_class":"commercial","operator":"Siddhartha Bank","source":"2cpokhara"},"relations":[],"meta":{"timestamp":"2017-12-05T03:49:23Z","version":6,"changeset":54352393,"user":"Sachham","uid":7152840}},"geometry":{"type":"Point","coordinates":[83.988325,28.2240576]}},{"type":"Feature","id":"node/4603160092","properties":{"type":"node","id":4603160092,"tags":{"amenity":"bank","atm":"no","name":"Shangri-la Development Bank Limited","name:ne":"सांग्रिला विकास बैंक लिमिटेड","nrb_class":"development","operator":"Sangrilla Development Bank","phone":"061 524938","source":"2cpokhara"},"relations":[],"meta":{"timestamp":"2018-05-30T09:07:14Z","version":6,"changeset":59391266,"user":"Ro Sun","uid":3112087}},"geometry":{"type":"Point","coordinates":[83.9822688,28.2320445]}},{"type":"Feature","id":"node/4603174747","properties":{"type":"node","id":4603174747,"tags":{"amenity":"bank","atm":"no","name":"Apex Development Bank Limited","name:ne":"अपेक्स डेभलपमेन्ट बैंक लिमिटेड","nrb_class":"development","operator":"Apex Development Bank Limited","source":"2cpokhara"},"relations":[],"meta":{"timestamp":"2017-06-05T10:57:00Z","version":7,"changeset":49266218,"user":"Alisha12","uid":4204463}},"geometry":{"type":"Point","coordinates":[83.9840627,28.2428883]}},{"type":"Feature","id":"node/4603174749","properties":{"type":"node","id":4603174749,"tags":{"amenity":"bank","atm":"no","name":"Muktinath Bikash Bank Limited","name:ne":"मुक्तिनाथ बिकाश बैंक लिमिटेड","nrb_class":"development","operator":"Muktinath Bikash Bank Limited","phone":"061-537993","source":"2cpokhara","website":"muktinathbank.com.np"},"relations":[],"meta":{"timestamp":"2018-05-30T09:07:14Z","version":8,"changeset":59391266,"user":"Ro Sun","uid":3112087}},"geometry":{"type":"Point","coordinates":[83.9837408,28.2432427]}},{"type":"Feature","id":"node/4603174750","properties":{"type":"node","id":4603174750,"tags":{"amenity":"bank","name":"Muktinath Bikash Bank Limited","name:ne":"मुक्तिनाथ देभ्लपमेन्ट बैंक लिमिटेड","nrb_class":"development","operator":"Muktinath Bikash Bank Limited","source":"2cpokhara"},"relations":[],"meta":{"timestamp":"2017-05-02T09:13:37Z","version":5,"changeset":48329035,"user":"Alisha12","uid":4204463}},"geometry":{"type":"Point","coordinates":[83.9365916,28.2779442]}},{"type":"Feature","id":"node/4603174751","properties":{"type":"node","id":4603174751,"tags":{"amenity":"bank","name":"NMB Microfinance Bitiya Sanstha Litmited","name:ne":"यन् यम् बि माइक्रो फाइनास् बितिया संस्था लिमिटेड","nrb_class":"micro finance","source":"2cpokhara"},"relations":[],"meta":{"timestamp":"2017-04-25T09:27:35Z","version":3,"changeset":48117371,"user":"Alisha12","uid":4204463}},"geometry":{"type":"Point","coordinates":[83.9357159,28.2780281]}},{"type":"Feature","id":"node/4603174752","properties":{"type":"node","id":4603174752,"tags":{"amenity":"bank","name":"Om Development Bank","name:ne":"ओम डेभलपमेन्ट बैंक लिमिटेड","nrb_class":"development","operator":"Om Development Bank Limited","operator:type":"private","source":"2C_Pokhara Field Visit 2018"},"relations":[],"meta":{"timestamp":"2018-06-04T09:43:54Z","version":6,"changeset":59530539,"user":"Ro Sun","uid":3112087}},"geometry":{"type":"Point","coordinates":[83.9359331,28.2780033]}},{"type":"Feature","id":"node/4603174753","properties":{"type":"node","id":4603174753,"tags":{"amenity":"bank","name":"Gandaki Bikash Bank Limited","nrb_class":"development","operator":"Gandaki Bikash Bank Limited","source":"2cpokhara"},"relations":[],"meta":{"timestamp":"2017-08-08T09:16:47Z","version":23,"changeset":50938341,"user":"suneeel","uid":6447856}},"geometry":{"type":"Point","coordinates":[83.9363851,28.2776419]}},{"type":"Feature","id":"node/4623034655","properties":{"type":"node","id":4623034655,"tags":{"addr:street":"न्यु रोड","alt_name":"ATM","amenity":"bank","email":"pokharay@mahalaxmi.com.np","name":"Mahalaxmi Bikas Bank","name:ne":"एती विकास बैंक लि.","network":"VISA, JCB, Mastercard, Discover, National, Cirrus","nrb_class":"development","opening_hours":"Su-Fr 10:00-17:00","operator":"Mahalaxmians","phone":"061520446","source":"2cpokhara","website":"http://www.mahalaxmi.com"},"relations":[],"meta":{"timestamp":"2018-06-15T11:25:54Z","version":7,"changeset":59871828,"user":"marek kleciak","uid":338611}},"geometry":{"type":"Point","coordinates":[83.984984,28.2123676]}},{"type":"Feature","id":"node/4650640608","properties":{"type":"node","id":4650640608,"tags":{"addr:city":"Pokhara Lekhnath Metropolitan City","addr:place":"Tal Chowk","addr:street":"Talchowk Begnas","amenity":"bank","name":"NIC Asia Bank Limited","name:ne":"एन.आइ.सी. एसिया बैंक लिमिटेड","nrb_class":"commercial","opening_hours":"Su-Fr 10:00-17:00","operator":"NIC Asia Bank","phone":"061-560538","source":"2cpokhara"},"relations":[],"meta":{"timestamp":"2018-05-30T09:07:14Z","version":6,"changeset":59391266,"user":"Ro Sun","uid":3112087}},"geometry":{"type":"Point","coordinates":[84.0587778,28.1628098]}},{"type":"Feature","id":"node/4650648166","properties":{"type":"node","id":4650648166,"tags":{"amenity":"bank","atm":"yes","name":"Fewa Bikash Bank Limited","name:ne":"फेवा बिकास बैंक लिमिटेड","nrb_class":"development","operator":"Fewa Bank","source":"2cpokhara"},"relations":[],"meta":{"timestamp":"2017-05-01T06:57:46Z","version":6,"changeset":48298381,"user":"Alisha12","uid":4204463}},"geometry":{"type":"Point","coordinates":[84.0575517,28.1627368]}},{"type":"Feature","id":"node/4650648168","properties":{"type":"node","id":4650648168,"tags":{"amenity":"bank","name":"Rastriya Banijya Bank Limited","name:ne":"राष्ट्रिय बाणिज्य बैंक लिमिटेड","nrb_class":"commercial","operator":"Rastriya Banijya Bank Limited","operator:type":"government","source":"2cpokhara"},"relations":[],"meta":{"timestamp":"2018-06-03T06:05:04Z","version":6,"changeset":59499559,"user":"Ro Sun","uid":3112087}},"geometry":{"type":"Point","coordinates":[84.0574126,28.1626437]}},{"type":"Feature","id":"node/4650716050","properties":{"type":"node","id":4650716050,"tags":{"amenity":"bank","name":"Agriculture Development Bank","nrb_class":"commercial","operator":"Agriculture Development Bank Limited","source":"2cpokhara"},"relations":[],"meta":{"timestamp":"2018-05-30T09:07:14Z","version":6,"changeset":59391266,"user":"Ro Sun","uid":3112087}},"geometry":{"type":"Point","coordinates":[84.0565276,28.1643023]}},{"type":"Feature","id":"node/4650789102","properties":{"type":"node","id":4650789102,"tags":{"amenity":"bank","name":"Kamana Sewa Bikash Bank Limited","nrb_class":"development","operator":"Kamana Bikash Bank","source":"2cpokhara"},"relations":[],"meta":{"timestamp":"2017-09-12T08:28:23Z","version":5,"changeset":51964669,"user":"Ashish Thapa","uid":4039113}},"geometry":{"type":"Point","coordinates":[84.0558623,28.1698103]}},{"type":"Feature","id":"node/4650800222","properties":{"type":"node","id":4650800222,"tags":{"amenity":"bank","fax":"061 411302","name":"Mukthinath Bikash Bank Limited","name:ne":"मुक्तिनाथ विकाश बैंक","nrb_class":"development","operator":"Mukthinath Bikash Bank Limited","phone":"061 411301","source":"2cpokhara"},"relations":[],"meta":{"timestamp":"2018-05-30T09:07:14Z","version":6,"changeset":59391266,"user":"Ro Sun","uid":3112087}},"geometry":{"type":"Point","coordinates":[84.0363941,28.1843695]}},{"type":"Feature","id":"node/4650823511","properties":{"type":"node","id":4650823511,"tags":{"amenity":"bank","name":"NCC Bank Limited","nrb_class":"commercial","operator":"NCC Bank Limited","source":"2cpokhara"},"relations":[],"meta":{"timestamp":"2017-05-02T09:14:26Z","version":6,"changeset":48329052,"user":"Alisha12","uid":4204463}},"geometry":{"type":"Point","coordinates":[84.0157807,28.2150852]}},{"type":"Feature","id":"node/4674651327","properties":{"type":"node","id":4674651327,"tags":{"amenity":"bank","atm":"yes","name":"NIC Asia Bank Limited","name:ne":"एन.आइ.सी. एसिया बैंक लिमिटेड","nrb_class":"commercial","operator":"NIC Asia Bank Limited","source":"2cpokhara"},"relations":[],"meta":{"timestamp":"2017-04-27T07:16:25Z","version":4,"changeset":48184984,"user":"Alisha12","uid":4204463}},"geometry":{"type":"Point","coordinates":[83.9782487,28.2554209]}},{"type":"Feature","id":"node/4683004165","properties":{"type":"node","id":4683004165,"tags":{"amenity":"bank","atm":"yes","name":"Fewa Bikash Bank Limited","name:ne":"फेवा विकास बैंक लि.","nrb_class":"development","operator":"Fewa Bikash Bank","source":"2cpokhara"},"relations":[],"meta":{"timestamp":"2017-09-14T07:40:48Z","version":4,"changeset":52028129,"user":"marek kleciak","uid":338611}},"geometry":{"type":"Point","coordinates":[84.0007206,28.205237]}},{"type":"Feature","id":"node/4719740289","properties":{"type":"node","id":4719740289,"tags":{"amenity":"bank","atm":"no","name":"Lumbini Bikash Bank","name:ne":"लुम्बिनी बिकाश बैंक","nrb_class":"development","operator":"Lumbini Bikash Bank Limited","operator:type":"private","source":"2C_Pokhara Field Visit 2018"},"relations":[],"meta":{"timestamp":"2018-06-11T07:19:52Z","version":9,"changeset":59730922,"user":"Ro Sun","uid":3112087}},"geometry":{"type":"Point","coordinates":[83.9859162,28.2091228]}},{"type":"Feature","id":"node/4769742727","properties":{"type":"node","id":4769742727,"tags":{"amenity":"bank","name":"Gandaki Bikash Bank Limited","name:ne":"गण्डकी विकाश बैंक","nrb_class":"development","opening_hours":"10:00-16:00","source":"2cpokhara"},"relations":[],"meta":{"timestamp":"2018-03-21T20:20:46Z","version":7,"changeset":57398697,"user":"VlIvYur","uid":345975}},"geometry":{"type":"Point","coordinates":[84.0360424,28.1847134]}},{"type":"Feature","id":"node/4778174774","properties":{"type":"node","id":4778174774,"tags":{"amenity":"bank","name":"Kalika Microcredit Developnemt Bank","nrb_class":"micro finance","phone":"+9776144055","source":"2cpokhara"},"relations":[],"meta":{"timestamp":"2017-04-25T09:31:16Z","version":2,"changeset":48117491,"user":"Alisha12","uid":4204463}},"geometry":{"type":"Point","coordinates":[83.9084049,28.2360991]}},{"type":"Feature","id":"node/4788190928","properties":{"type":"node","id":4788190928,"tags":{"amenity":"bank","name":"Aadhikhola laghubitta Saanstha Ltd.","nrb_class":"micro finance","opening_hours":"9:30-16:30","operator:type":"private","source":"2cpokhara"},"relations":[],"meta":{"timestamp":"2018-06-17T10:01:42Z","version":5,"changeset":59911131,"user":"Ro Sun","uid":3112087}},"geometry":{"type":"Point","coordinates":[84.0372673,28.1842062]}},{"type":"Feature","id":"node/4788190934","properties":{"type":"node","id":4788190934,"tags":{"amenity":"bank","name":"Nepal Grameen Bikas Bank","name:ne":"नेपाल ग्रामण बिकास बैंक लिमिटेड","nrb_class":"development","source":"2cpokhara"},"relations":[],"meta":{"timestamp":"2017-04-26T09:53:09Z","version":5,"changeset":48157285,"user":"Alisha12","uid":4204463}},"geometry":{"type":"Point","coordinates":[84.049798,28.1751957]}},{"type":"Feature","id":"node/4788190936","properties":{"type":"node","id":4788190936,"tags":{"amenity":"bank","name":"Reliable Development Bank Limited","nrb_class":"development","source":"2cpokhara"},"relations":[],"meta":{"timestamp":"2017-04-26T08:24:29Z","version":3,"changeset":48154630,"user":"Alisha12","uid":4204463}},"geometry":{"type":"Point","coordinates":[84.0898216,28.1643497]}},{"type":"Feature","id":"node/4788190937","properties":{"type":"node","id":4788190937,"tags":{"amenity":"bank","atm":"no","name":"Chhimek Laghubitta Bittiya Sanstha","nrb_class":"micro finance","operator:type":"private","source":"2C_Pokhara Field Visit 2018"},"relations":[],"meta":{"timestamp":"2018-06-12T07:38:10Z","version":5,"changeset":59766204,"user":"Ro Sun","uid":3112087}},"geometry":{"type":"Point","coordinates":[84.0553475,28.1696392]}},{"type":"Feature","id":"node/4790245023","properties":{"type":"node","id":4790245023,"tags":{"amenity":"bank","name":"Om Development Bank","name:ne":"ओम डेभलपमेन्ट बैंक लिमिटेड","nrb_class":"development","operator":"Om Development Bank Limited","operator:type":"private","phone":"061461320","source":"2C_Pokhara Field Visit 2018","website":"ombank.com.np"},"relations":[],"meta":{"timestamp":"2018-06-04T09:21:28Z","version":6,"changeset":59529768,"user":"Ro Sun","uid":3112087}},"geometry":{"type":"Point","coordinates":[83.9598747,28.2134625]}},{"type":"Feature","id":"node/4790245223","properties":{"type":"node","id":4790245223,"tags":{"amenity":"bank","name":"NIC Asia Bank Limited","name:ne":"एन.आइ.सी. एसिया बैंक लिमिटेड","nrb_class":"commercial","operator":"NIC Asia Bank Limited","source":"2cpokhara"},"relations":[],"meta":{"timestamp":"2017-04-27T07:37:01Z","version":4,"changeset":48185585,"user":"Alisha12","uid":4204463}},"geometry":{"type":"Point","coordinates":[83.9572496,28.2085712]}},{"type":"Feature","id":"node/4793392221","properties":{"type":"node","id":4793392221,"tags":{"amenity":"bank","atm":"yes","name":"NIC Asia Bank Limited","name:ne":"एन.आइ.सी. एसिया बैंक लिमिटेड","nrb_class":"commercial","opening_hours":"9:45-15:30","operator":"NIC Asia Bank Limited","phone":"061-522228","source":"2c peset","website":"www.nicasiabank.com"},"relations":[],"meta":{"timestamp":"2018-05-30T09:07:15Z","version":8,"changeset":59391266,"user":"Ro Sun","uid":3112087}},"geometry":{"type":"Point","coordinates":[83.9843863,28.2112437]}},{"type":"Feature","id":"node/4798534249","properties":{"type":"node","id":4798534249,"tags":{"amenity":"bank","name":"Sangri-La Development Bank Limited","nrb_class":"development","operator":"Sangri-La Development Bank Limited","phone":"061-525951, 526509","source":"2cpokhara","website":"www.shangrilabank.com"},"relations":[],"meta":{"timestamp":"2018-05-13T18:12:05Z","version":4,"changeset":58930764,"user":"Abash Paudel","uid":6677482}},"geometry":{"type":"Point","coordinates":[83.9945279,28.2217792]}},{"type":"Feature","id":"node/4798636066","properties":{"type":"node","id":4798636066,"tags":{"alt_name":"ATM","amenity":"bank","email":"deep.csd@kamanasewabank.com","name":"Kamana Bikash Bank Limited","name:ne":"कामना विकास बैंक लिमिटेड","nrb_class":"development","opening_hours":"09:45-17:00","operator":"Kamana Bikash Bank Limited","phone":"061-441600","source":"2cpokhara","website":"www.kamanasewabank.com"},"relations":[],"meta":{"timestamp":"2018-05-30T09:07:16Z","version":7,"changeset":59391266,"user":"Ro Sun","uid":3112087}},"geometry":{"type":"Point","coordinates":[83.9864716,28.2486052]}},{"type":"Feature","id":"node/4798636097","properties":{"type":"node","id":4798636097,"tags":{"addr:city":"Pokhara","addr:street":"Bagar","amenity":"bank","building":"yes","name":"Siddhartha Bank Limited","name:ne":"सिद्धार्थ बैंक लिमिटेड","nrb_class":"commercial","operator":"Siddhartha Bank Limited","phone":"061-527747,527748","source":"2cpokhara","website":"www.siddharthabank.com"},"relations":[],"meta":{"timestamp":"2018-06-10T07:48:30Z","version":4,"changeset":59705515,"user":"Ro Sun","uid":3112087}},"geometry":{"type":"Point","coordinates":[83.9880252,28.2400325]}},{"type":"Feature","id":"node/4798636100","properties":{"type":"node","id":4798636100,"tags":{"amenity":"bank","name":"Om Development Bank","name:ne":"ओम डेभलपमेन्ट बैंक लिमिटेड","nrb_class":"development","operator":"Om Development Bank Limited","operator:type":"private","source":"2C_Pokhara Field Visit 2018"},"relations":[],"meta":{"timestamp":"2018-06-04T09:43:54Z","version":5,"changeset":59530539,"user":"Ro Sun","uid":3112087}},"geometry":{"type":"Point","coordinates":[83.9883765,28.2398018]}},{"type":"Feature","id":"node/4798646986","properties":{"type":"node","id":4798646986,"tags":{"amenity":"bank","email":"batulechaur@garimabank.com.np","name":"Garima Bikash Bank Limited","name:ne":"गरिमा विकाश बैंक लिमिटेड","nrb_class":"development","opening_hours":"10:00-18:00","phone":"061-441966","source":"2cpokhara"},"relations":[],"meta":{"timestamp":"2018-05-30T09:07:16Z","version":5,"changeset":59391266,"user":"Ro Sun","uid":3112087}},"geometry":{"type":"Point","coordinates":[83.9797256,28.2632466]}},{"type":"Feature","id":"node/4798665062","properties":{"type":"node","id":4798665062,"tags":{"amenity":"bank","name":"Om Development Bank Limited","name:ne":"ओम डेभलपमेन्ट बैंक लिमिटेड","nrb_class":"development","operator":"ॐ विकास बैंक","source":"2cpokhara"},"relations":[],"meta":{"timestamp":"2017-06-13T08:52:32Z","version":5,"changeset":49492779,"user":"Alisha12","uid":4204463}},"geometry":{"type":"Point","coordinates":[83.9855363,28.2334732]}},{"type":"Feature","id":"node/4798691730","properties":{"type":"node","id":4798691730,"tags":{"amenity":"bank","name":"Green Development Bank Limited","name:ne":"ग्रीन डेभलपमेन्ट बैंक लिमिटेड","nrb_class":"development","phone":"061-533634","source":"2c peset","website":"www.greenbank.com"},"relations":[],"meta":{"timestamp":"2018-06-15T11:25:54Z","version":6,"changeset":59871828,"user":"marek kleciak","uid":338611}},"geometry":{"type":"Point","coordinates":[83.9848012,28.2111219]}},{"type":"Feature","id":"node/4798697907","properties":{"type":"node","id":4798697907,"tags":{"amenity":"bank","name":"Kailash Bikash Bank Limited","name:ne":"कैलाश विकास बैंक लि.","nrb_class":"development","source":"2cpokhara"},"relations":[],"meta":{"timestamp":"2017-05-04T07:52:49Z","version":3,"changeset":48386090,"user":"Alisha12","uid":4204463}},"geometry":{"type":"Point","coordinates":[83.9851233,28.2093182]}},{"type":"Feature","id":"node/4798697911","properties":{"type":"node","id":4798697911,"tags":{"amenity":"bank","name":"Muktinath Bikash Bank Limited","name:ne":"मुक्तिनाथ विकास बैंक लिमिटेड","nrb_class":"development","source":"2cpokhara"},"relations":[],"meta":{"timestamp":"2018-06-15T05:33:31Z","version":4,"changeset":59864911,"user":"marek kleciak","uid":338611}},"geometry":{"type":"Point","coordinates":[83.9846526,28.2081719]}},{"type":"Feature","id":"node/4800970680","properties":{"type":"node","id":4800970680,"tags":{"amenity":"bank","name":"Siddhartha Bank Limited","name:ne":"सिद्धार्थ बैंक लिमिटेड","nrb_class":"commercial","operator":"Siddharth Bank","source":"2cpokhara"},"relations":[],"meta":{"timestamp":"2017-05-04T07:18:55Z","version":4,"changeset":48385307,"user":"Alisha12","uid":4204463}},"geometry":{"type":"Point","coordinates":[83.9568693,28.2096533]}},{"type":"Feature","id":"node/4805411465","properties":{"type":"node","id":4805411465,"tags":{"amenity":"bank","atm":"no","name":"Muktinath Bikash Bank Limited","name:ne":"मुक्तिनाथ बिकाश बैंक लिमिटेड","nrb_class":"development","opening_hours":"Su-Th 10:00-16:00, Fr 10:00-15:00","phone":"061-467032, 061-467033","source":"2cpokhara","website":"www.muktinathbank.com.np"},"relations":[],"meta":{"timestamp":"2018-05-30T09:07:18Z","version":6,"changeset":59391266,"user":"Ro Sun","uid":3112087}},"geometry":{"type":"Point","coordinates":[83.9582564,28.189388]}},{"type":"Feature","id":"node/4805411466","properties":{"type":"node","id":4805411466,"tags":{"amenity":"bank","name":"Lumbini Bikas Bank limited","name:ne":"लुम्बिनी विकास बैंक लिमिटेड","nrb_class":"development","opening_hours":"Su-Fr 10:00-16:00, Fr 10:00-15:00","operator":"Vibor Society Development Bank limited","phone":"061526456","source":"2cpokhara","website":"www.lumbinibikasbank.com"},"relations":[],"meta":{"timestamp":"2018-05-30T09:07:18Z","version":13,"changeset":59391266,"user":"Ro Sun","uid":3112087}},"geometry":{"type":"Point","coordinates":[83.9585087,28.1896269]}},{"type":"Feature","id":"node/4805458668","properties":{"type":"node","id":4805458668,"tags":{"amenity":"bank","name":"Sangri-La Development Bank Limited","nrb_class":"development","operator":"Sangri-La Development Bank Limited","phone":"061-528344","source":"2cpokhara","website":"www.shangarilabank.com"},"relations":[],"meta":{"timestamp":"2018-05-27T05:48:25Z","version":8,"changeset":59306511,"user":"Ro Sun","uid":3112087}},"geometry":{"type":"Point","coordinates":[84.0095268,28.2135044]}},{"type":"Feature","id":"node/4805458673","properties":{"type":"node","id":4805458673,"tags":{"amenity":"bank","name":"Kailash Bikash Bank Limited","nrb_class":"development","source":"2cpokhara"},"relations":[],"meta":{"timestamp":"2017-04-26T06:41:52Z","version":2,"changeset":48151621,"user":"Alisha12","uid":4204463}},"geometry":{"type":"Point","coordinates":[84.0128637,28.2140745]}},{"type":"Feature","id":"node/4807288921","properties":{"type":"node","id":4807288921,"tags":{"addr:place":"Kudahar, Pokhara","amenity":"bank","name":"Pokhara Finance Limited","name:ne":"पोखरा फाइनान्स लिमिटेड","nrb_class":"finance companies","source":"2cpokhara","website":"www.pokharafinance.com.np"},"relations":[],"meta":{"timestamp":"2017-09-05T14:16:27Z","version":5,"changeset":51752408,"user":"Ashish Thapa","uid":4039113}},"geometry":{"type":"Point","coordinates":[84.0117888,28.1998964]}},{"type":"Feature","id":"node/4813407222","properties":{"type":"node","id":4813407222,"tags":{"amenity":"bank","name":"NMB Bank Limited","name:ne":"एन एम वि बैंक लिमिटेड","nrb_class":"commercial","phone":"061-696845","source":"2cpokhara"},"relations":[],"meta":{"timestamp":"2018-05-30T09:07:19Z","version":5,"changeset":59391266,"user":"Ro Sun","uid":3112087}},"geometry":{"type":"Point","coordinates":[84.0440786,28.144059]}},{"type":"Feature","id":"node/4813407321","properties":{"type":"node","id":4813407321,"tags":{"amenity":"bank","name":"NCC Bank Limited","name:ne":"एन सी सी बैंक लिमिटेड","nrb_class":"commercial","operator":"NCC Bank Limited","source":"2C Pokhara field visit"},"relations":[],"meta":{"timestamp":"2018-03-31T15:58:03Z","version":4,"changeset":57692045,"user":"Sagarsubedi205","uid":7632456}},"geometry":{"type":"Point","coordinates":[84.0440522,28.1439816]}},{"type":"Feature","id":"node/5028094693","properties":{"type":"node","id":5028094693,"tags":{"addr:place":"Bhandardhik","amenity":"bank","email":"lekthanath@jantabank.com.np","name":"Janata Bank Nepal Limited","nrb_class":"commercial","opening_hours":"10:00-15:00","phone":"561806"},"relations":[],"meta":{"timestamp":"2018-05-30T09:07:19Z","version":5,"changeset":59391266,"user":"Ro Sun","uid":3112087}},"geometry":{"type":"Point","coordinates":[84.0643928,28.1507962]}},{"type":"Feature","id":"node/5100059578","properties":{"type":"node","id":5100059578,"tags":{"amenity":"bank","email":"info@ombank.com.np","name":"Om Development Bank","nrb_class":"development","operator:type":"public","phone":"061 561807"},"relations":[],"meta":{"timestamp":"2018-05-30T09:07:20Z","version":4,"changeset":59391266,"user":"Ro Sun","uid":3112087}},"geometry":{"type":"Point","coordinates":[84.0495974,28.1753922]}},{"type":"Feature","id":"node/5100226184","properties":{"type":"node","id":5100226184,"tags":{"addr:city":"Pokhara Lekhnath Metropolitan City","addr:place":"Tal Chowk","addr:street":"Prithvi Highway","amenity":"bank","building":"yes","name":"Chhimeki Laghubitta Bikas Bank","name:ne":"छिमेकी लघुवित्त बिकास बैंक","nrb_class":"micro finance","opening_hours":"Su-Fr 10:00-17:00","operator":"Chhimeki Laghubitta Bikas Bank Limited","operator:type":"private","phone":"061-560461","website":"http://chhimekbank.org/"},"relations":[],"meta":{"timestamp":"2018-06-13T04:07:40Z","version":5,"changeset":59796148,"user":"Ro Sun","uid":3112087}},"geometry":{"type":"Point","coordinates":[84.0572166,28.1634975]}},{"type":"Feature","id":"node/5100226186","properties":{"type":"node","id":5100226186,"tags":{"amenity":"bank","name":"Gandaki Bikash Bank Limited","nrb_class":"development"},"relations":[],"meta":{"timestamp":"2017-09-12T09:17:48Z","version":1,"changeset":51966205,"user":"Ashish Thapa","uid":4039113}},"geometry":{"type":"Point","coordinates":[84.0575052,28.1627207]}},{"type":"Feature","id":"node/5157202177","properties":{"type":"node","id":5157202177,"tags":{"amenity":"bank","name":"Gorkha Finance Limited","nrb_class":"finance companies"},"relations":[],"meta":{"timestamp":"2017-10-09T14:53:43Z","version":1,"changeset":52762416,"user":"Ashish Thapa","uid":4039113}},"geometry":{"type":"Point","coordinates":[83.9867519,28.2243563]}},{"type":"Feature","id":"node/5239480522","properties":{"type":"node","id":5239480522,"tags":{"addr:street":"Lamachaur Marga","amenity":"bank","name":"Lumbini Bikash Bank","nrb_class":"development","opening_hours":"Su-Th,Fr 10:00-16:00,10:00-14:00","phone":"061442320","website":"http://www.lumbinibikashbank.com"},"relations":[],"meta":{"timestamp":"2017-11-26T06:24:10Z","version":2,"changeset":54087641,"user":"Ro Sun","uid":3112087}},"geometry":{"type":"Point","coordinates":[83.9771916,28.2571987]}},{"type":"Feature","id":"node/5424161026","properties":{"type":"node","id":5424161026,"tags":{"addr:street":"Bhim kali Patan","amenity":"bank","atm":"yes","contact:fax":"061-532915","name":"Prabhu Bank Limited","name:ne":"प्रभु बैंक लिमिटेड","nrb_class":"commercial","opening_hours":"Su-Fr 10:00-17:00","operator":"Prabhu Bank","phone":"061-532914","source":"2cpokhara","website":"www.prabhubank.com"},"relations":[],"meta":{"timestamp":"2018-06-10T07:48:30Z","version":3,"changeset":59705515,"user":"Ro Sun","uid":3112087}},"geometry":{"type":"Point","coordinates":[83.9889074,28.2415457]}},{"type":"Feature","id":"node/5455595626","properties":{"type":"node","id":5455595626,"tags":{"amenity":"bank","atm":"yes","name":"Gandaki Bikash Bank Ltd","nrb_class":"development"},"relations":[],"meta":{"timestamp":"2018-03-26T04:32:25Z","version":2,"changeset":57522293,"user":"Ro Sun","uid":3112087}},"geometry":{"type":"Point","coordinates":[83.9714845,28.2610308]}},{"type":"Feature","id":"node/5456664934","properties":{"type":"node","id":5456664934,"tags":{"amenity":"bank","atm":"yes","email":"info@ombank.com.np","name":"Om Development Bank","nrb_class":"development","opening_hours":"Su-Th 10:00-16:30, Evening Counter 16:30 – 17:30; Fr 10:00-15:00, Evening Counter 15:00 – 16:00","source":"2cpokhara","website":"http://www.ombank.com.np/"},"relations":[],"meta":{"timestamp":"2018-05-30T09:07:21Z","version":2,"changeset":59391266,"user":"Ro Sun","uid":3112087}},"geometry":{"type":"Point","coordinates":[83.9708897,28.1921296]}},{"type":"Feature","id":"node/5456664935","properties":{"type":"node","id":5456664935,"tags":{"amenity":"bank","atm":"yes","name":"Sanima Bank","nrb_class":"commercial","opening_hours":"Su-Th 09:45-17:00, Fr 10:00-15:00","source":"2cpokhara","website":"www.sanimabank.com"},"relations":[],"meta":{"timestamp":"2018-06-11T05:56:11Z","version":3,"changeset":59728372,"user":"Ro Sun","uid":3112087}},"geometry":{"type":"Point","coordinates":[83.970836,28.1921207]}},{"type":"Feature","id":"node/5456664944","properties":{"type":"node","id":5456664944,"tags":{"amenity":"bank","atm":"no","email":"birauta@kailashbank.com","name":"Kailash Bikas Bank- Birauta Branch","nrb_class":"development","opening_hours":"Su-Th 10:00-16:00; Fr 10:00-15:00","operator:type":"private","phone":"061-467302/03","source":"2cpokhara"},"relations":[],"meta":{"timestamp":"2018-05-30T09:07:22Z","version":3,"changeset":59391266,"user":"Ro Sun","uid":3112087}},"geometry":{"type":"Point","coordinates":[83.9712209,28.1922572]}},{"type":"Feature","id":"node/5457131910","properties":{"type":"node","id":5457131910,"tags":{"amenity":"bank","atm":"no","name":"Rastriya Banijya Bank LTD.","nrb_class":"commercial","operator:type":"government"},"relations":[],"meta":{"timestamp":"2018-04-11T09:26:30Z","version":3,"changeset":57997398,"user":"Manoj Thapa","uid":781054}},"geometry":{"type":"Point","coordinates":[83.9722241,28.2018299]}},{"type":"Feature","id":"node/5459168701","properties":{"type":"node","id":5459168701,"tags":{"amenity":"bank","atm":"no","email":"info@pokharafinance.com.np","name":"Pokhara Finance Ltd.","nrb_class":"finance companies","opening_hours":"Su-Th 09:45-16:00, Fr 09:45-14:00","source":"2cpokhara","website":"www.pokharafinance.com.np"},"relations":[],"meta":{"timestamp":"2018-05-30T09:07:22Z","version":3,"changeset":59391266,"user":"Ro Sun","uid":3112087}},"geometry":{"type":"Point","coordinates":[83.9702412,28.1916113]}},{"type":"Feature","id":"node/5459366058","properties":{"type":"node","id":5459366058,"tags":{"amenity":"bank","atm":"yes","email":"birauta@gandakibank.com.np","name":"Gandaki Bikas Bank Limited","name:ne":"गण्डकी विकास बैंक लिमिटेड","nrb_class":"development","opening_hours":"Su-Fr 09:30-17:30, Sa 10:00-14:00","phone":"+977-061-465580","source":"2cpokhara","website":"www.gandakibank.com.np"},"relations":[],"meta":{"timestamp":"2018-05-30T09:07:22Z","version":4,"changeset":59391266,"user":"Ro Sun","uid":3112087}},"geometry":{"type":"Point","coordinates":[83.9710931,28.1918958]}},{"type":"Feature","id":"node/5469439621","properties":{"type":"node","id":5469439621,"tags":{"addr:street":"Sabhagriha chowk, pokhara","amenity":"bank","name":"Global IME Bank","name:en":"Global IME Bank","nrb_class":"commercial","opening_hours":"Su-Fr 10:00-17:00"},"relations":[],"meta":{"timestamp":"2018-06-15T11:25:55Z","version":4,"changeset":59871828,"user":"marek kleciak","uid":338611}},"geometry":{"type":"Point","coordinates":[83.9849904,28.2123891]}},{"type":"Feature","id":"node/5470524939","properties":{"type":"node","id":5470524939,"tags":{"amenity":"bank","name":"NCC Bank","nrb_class":"commercial","opening_hours":"Su-Fr 10:00-16:00","phone":"061-528762","source":"2cpokhara","website":"nccbank.com.np"},"relations":[],"meta":{"timestamp":"2018-05-30T09:07:23Z","version":2,"changeset":59391266,"user":"Ro Sun","uid":3112087}},"geometry":{"type":"Point","coordinates":[83.9718761,28.1920616]}},{"type":"Feature","id":"node/5472541736","properties":{"type":"node","id":5472541736,"tags":{"amenity":"bank","atm":"yes","email":"info@pokharafinance.com.np","name":"Pokhara Finance Limited","nrb_class":"finance companies","opening_hours":"10:00-15:00","operator:type":"public","phone":"5618012","source":"2cpokhara"},"relations":[],"meta":{"timestamp":"2018-05-30T09:07:23Z","version":4,"changeset":59391266,"user":"Ro Sun","uid":3112087}},"geometry":{"type":"Point","coordinates":[84.0629096,28.1517453]}},{"type":"Feature","id":"node/5474999714","properties":{"type":"node","id":5474999714,"tags":{"amenity":"bank","atm":"yes","name":"Nabil Bank","nrb_class":"commercial"},"relations":[],"meta":{"timestamp":"2018-03-13T08:32:50Z","version":1,"changeset":57137100,"user":"reenuka","uid":7644128}},"geometry":{"type":"Point","coordinates":[84.0579817,28.1630701]}},{"type":"Feature","id":"node/5490759372","properties":{"type":"node","id":5490759372,"tags":{"amenity":"bank","atm":"yes","name":"Janta Bank Nepal Limited","nrb_class":"commercial"},"relations":[],"meta":{"timestamp":"2018-03-26T06:15:24Z","version":2,"changeset":57523709,"user":"Ro Sun","uid":3112087}},"geometry":{"type":"Point","coordinates":[84.0384015,28.1824414]}},{"type":"Feature","id":"node/5491232010","properties":{"type":"node","id":5491232010,"tags":{"amenity":"bank","atm":"no","name":"Deva Bikas Bank","name:ne":"देव: बिकाश बैंक","nrb_class":"development","operator:type":"private","source":"2C_Pokhara Field Visit 2018"},"relations":[],"meta":{"timestamp":"2018-06-11T05:56:11Z","version":3,"changeset":59728372,"user":"Ro Sun","uid":3112087}},"geometry":{"type":"Point","coordinates":[83.9859972,28.2239717]}},{"type":"Feature","id":"node/5508748336","properties":{"type":"node","id":5508748336,"tags":{"alt_name":"ATM","amenity":"bank","atm":"yes","name":"Lumbini Bikash Bank","name:ne":"लुम्बिनी बिकाश बैंक","nrb_class":"development","operator:type":"private","phone":"061-522122","source":"2C_Pokhara Field Visit 2018"},"relations":[],"meta":{"timestamp":"2018-06-11T06:28:18Z","version":4,"changeset":59729197,"user":"Ro Sun","uid":3112087}},"geometry":{"type":"Point","coordinates":[83.9852993,28.2135183]}},{"type":"Feature","id":"node/5516604649","properties":{"type":"node","id":5516604649,"tags":{"amenity":"bank","name":"Manju Shree Finance Limited","nrb_class":"finance companies","operator:type":"private","source":"2cpokhara"},"relations":[],"meta":{"timestamp":"2018-05-17T10:27:51Z","version":2,"changeset":59045543,"user":"Ro Sun","uid":3112087}},"geometry":{"type":"Point","coordinates":[83.9875814,28.221885]}},{"type":"Feature","id":"node/5517954473","properties":{"type":"node","id":5517954473,"tags":{"amenity":"bank","atm":"yes","name":"Muktinath Bikash Bank Limited","nrb_class":"development","source":"2cpokhara"},"relations":[],"meta":{"timestamp":"2018-04-10T08:56:46Z","version":2,"changeset":57965336,"user":"Ro Sun","uid":3112087}},"geometry":{"type":"Point","coordinates":[84.0825588,28.1324269]}},{"type":"Feature","id":"node/5540450853","properties":{"type":"node","id":5540450853,"tags":{"amenity":"bank","atm":"no","department":"area office","name":"Nepal Grameen Bikas Bank","nrb_class":"development","source":"2cpokhara"},"relations":[],"meta":{"timestamp":"2018-04-10T08:56:47Z","version":2,"changeset":57965336,"user":"Ro Sun","uid":3112087}},"geometry":{"type":"Point","coordinates":[83.9882001,28.2176938]}},{"type":"Feature","id":"node/5552007319","properties":{"type":"node","id":5552007319,"tags":{"amenity":"bank","atm":"no","name":"Nepal Agro Microfinance Bitiya Sanstha","nrb_class":"micro finance","opening_hours":"10:00 - 16:00","operator":"private","phone":"061412445","website":"www.nepalagro.com.np","wheelchair":"yes"},"relations":[],"meta":{"timestamp":"2018-04-26T08:04:04Z","version":2,"changeset":58434260,"user":"Ro Sun","uid":3112087}},"geometry":{"type":"Point","coordinates":[83.9827001,28.2396481]}},{"type":"Feature","id":"node/5576534795","properties":{"type":"node","id":5576534795,"tags":{"amenity":"bank","name":"Gandaki Bikash Bank","nrb_class":"development","opening_hours":"10:00-17:00","source":"2c peset"},"relations":[],"meta":{"timestamp":"2018-06-10T04:20:23Z","version":2,"changeset":59703377,"user":"Ro Sun","uid":3112087}},"geometry":{"type":"Point","coordinates":[83.9766538,28.2068338]}},{"type":"Feature","id":"node/5578045439","properties":{"type":"node","id":5578045439,"tags":{"amenity":"bank","atm":"yes","email":"sblpkr@sbl.com.np","name":"Siddhartha Bank","nrb_class":"commercial","opening_hours":"10:00-17:30","phone":"061-551338, 061-551405","source":"2c peset"},"relations":[],"meta":{"timestamp":"2018-05-30T09:07:26Z","version":3,"changeset":59391266,"user":"Ro Sun","uid":3112087}},"geometry":{"type":"Point","coordinates":[83.984281,28.2109219]}},{"type":"Feature","id":"node/5579903389","properties":{"type":"node","id":5579903389,"tags":{"amenity":"bank","atm":"yes","name":"Ganapati Micro finance Bittiya Sanstha ltd","nrb_class":"micro finance"},"relations":[],"meta":{"timestamp":"2018-06-03T09:43:23Z","version":2,"changeset":59503665,"user":"Ro Sun","uid":3112087}},"geometry":{"type":"Point","coordinates":[84.1096556,28.1366113]}},{"type":"Feature","id":"node/5580150194","properties":{"type":"node","id":5580150194,"tags":{"amenity":"bank","atm":"no","name":"Janaprakash Micro Finance","nrb_class":"micro finance"},"relations":[],"meta":{"timestamp":"2018-04-26T10:11:32Z","version":1,"changeset":58437964,"user":"reenuka","uid":7644128}},"geometry":{"type":"Point","coordinates":[84.101351,28.1237564]}},{"type":"Feature","id":"node/5645140806","properties":{"type":"node","id":5645140806,"tags":{"amenity":"bank","atm":"yes","name":"Nabil Bank Limited","nrb_class":"commercial"},"relations":[],"meta":{"timestamp":"2018-05-27T04:35:02Z","version":1,"changeset":59305818,"user":"Ro Sun","uid":3112087}},"geometry":{"type":"Point","coordinates":[84.0025444,28.2054919]}},{"type":"Feature","id":"node/5650840044","properties":{"type":"node","id":5650840044,"tags":{"amenity":"bank","name":"Everest Bank Limited","name:ne":"एभरेष्ट बैंक लिमिटेड","nrb_class":"commercial"},"relations":[],"meta":{"timestamp":"2018-06-03T09:43:37Z","version":3,"changeset":59503665,"user":"Ro Sun","uid":3112087}},"geometry":{"type":"Point","coordinates":[83.9972323,28.2054683]}},{"type":"Feature","id":"node/5650864321","properties":{"type":"node","id":5650864321,"tags":{"amenity":"bank","name":"Global IME Bank","name:ne":"ग्लोबल आईमई बैंक","nrb_class":"commercial"},"relations":[],"meta":{"timestamp":"2018-06-04T05:35:22Z","version":3,"changeset":59523572,"user":"Manoj Thapa","uid":781054}},"geometry":{"type":"Point","coordinates":[83.9973718,28.2053737]}},{"type":"Feature","id":"node/5678862253","properties":{"type":"node","id":5678862253,"tags":{"amenity":"bank","name":"Laxmi Bank","name:ne":"लक्ष्मी बैंक लिमिटेड","nrb_class":"commercial","opening_hours":"Su-Fr 10:00-16:00","operator":"Laxmi Bank Limited","operator:type":"private","phone":"061-521580"},"relations":[],"meta":{"timestamp":"2018-06-10T04:50:45Z","version":1,"changeset":59703623,"user":"Ro Sun","uid":3112087}},"geometry":{"type":"Point","coordinates":[83.9864109,28.2238446]}}],"createdOn":1529471829597}