{"type":"FeatureCollection","features":[{"type":"Feature","id":"way/364104958","properties":{"type":"way","id":364104958,"tags":{"amenity":"place_of_worship","building":"yes","denomination":"jehovahs_witness","name":"Kingdom Hall of Jehovah's Witnesses","name:ne":"किङ्ग डम हल","religion":"christian","website":"www.jw.org"},"relations":[],"meta":{"timestamp":"2018-06-11T08:43:04Z","version":5,"changeset":59733144,"user":"marek kleciak","uid":338611}},"geometry":{"type":"Point","coordinates":[83.9859377375,28.211272200000003]}},{"type":"Feature","id":"way/398659474","properties":{"type":"way","id":398659474,"tags":{"addr:city":"Pokhara Lekhnath M.City","addr:district":"Kaski","addr:place":"Lamachaur","addr:street":"Dhad","amenity":"place_of_worship","building":"yes","name":"DTS Lamachaur","opening_hours":"6:00-17:00","operator":"Community","religion":"christian"},"relations":[],"meta":{"timestamp":"2017-08-11T06:23:26Z","version":2,"changeset":51021867,"user":"Delta Bravo123","uid":6447837}},"geometry":{"type":"Point","coordinates":[83.9634285,28.263557900000002]}},{"type":"Feature","id":"way/404363097","properties":{"type":"way","id":404363097,"tags":{"addr:city":"Pokhara lekthnath municipility","amenity":"place_of_worship","name":"Santwana Church","operator":"Community","religion":"christian"},"relations":[],"meta":{"timestamp":"2017-08-10T09:46:24Z","version":4,"changeset":50995885,"user":"liladevkota123","uid":6448317}},"geometry":{"type":"Point","coordinates":[83.98630791666666,28.243859783333335]}},{"type":"Feature","id":"way/414757214","properties":{"type":"way","id":414757214,"tags":{"addr:housenumber":"33","addr:street":"Rakshya Marga","amenity":"place_of_worship","building":"yes","building:levels":"3","name":"Pokhara Baptist Church","name:ne":"पोखरा ब्यापटिस्ट चर्च","religion":"christian"},"relations":[],"meta":{"timestamp":"2016-10-06T06:53:30Z","version":3,"changeset":42675806,"user":"Parassrest","uid":3569249}},"geometry":{"type":"Point","coordinates":[83.997637275,28.207278775]}},{"type":"Feature","id":"way/414776171","properties":{"type":"way","id":414776171,"tags":{"addr:city":"Pokhara Lekhnath Metropolitian City","addr:street":"Salom Marga","amenity":"place_of_worship","building":"yes","name":"Ramghat Church","name:ne":"रामघाट चर्च","religion":"christian"},"relations":[],"meta":{"timestamp":"2017-08-10T05:39:57Z","version":4,"changeset":50989366,"user":"Indira Panta","uid":6458622}},"geometry":{"type":"Point","coordinates":[84.000954925,28.213487375]}},{"type":"Feature","id":"way/415281475","properties":{"type":"way","id":415281475,"tags":{"addr:street":"Subarajya Marga","amenity":"place_of_worship","building":"yes","building:levels":"1","religion":"christian"},"relations":[],"meta":{"timestamp":"2016-06-25T02:33:20Z","version":3,"changeset":40274679,"user":"gaurab basnet","uid":3120057}},"geometry":{"type":"Point","coordinates":[84.0040317,28.2030619]}},{"type":"Feature","id":"way/416671958","properties":{"type":"way","id":416671958,"tags":{"amenity":"place_of_worship","building":"yes","name":"Bagbazaar Church","name:ne":"बागबजार चर्च","religion":"christian","source":"2cpokhara"},"relations":[],"meta":{"timestamp":"2018-03-02T15:23:57Z","version":5,"changeset":56823290,"user":"Rabin Ojha","uid":6075053}},"geometry":{"type":"Point","coordinates":[83.98602220000001,28.240755439999997]}},{"type":"Feature","id":"way/416823541","properties":{"type":"way","id":416823541,"tags":{"amenity":"place_of_worship","name":"Nawa Jyoti Baptist Church","name:ne":"नव ज्योति बापटिस्ट चर्च","religion":"christian"},"relations":[],"meta":{"timestamp":"2016-09-21T08:09:40Z","version":2,"changeset":42317161,"user":"Bishal9841","uid":3573216}},"geometry":{"type":"Point","coordinates":[83.97885155,28.27182855]}},{"type":"Feature","id":"way/422594164","properties":{"type":"way","id":422594164,"tags":{"amenity":"place_of_worship","building":"yes","religion":"christian","source":"2cpokhara"},"relations":[],"meta":{"timestamp":"2018-05-09T05:06:26Z","version":2,"changeset":58806727,"user":"Abash Paudel","uid":6677482}},"geometry":{"type":"Point","coordinates":[83.994360775,28.178752325]}},{"type":"Feature","id":"way/423382821","properties":{"type":"way","id":423382821,"tags":{"amenity":"place_of_worship","building":"yes","name":"Bijaya Church","name:ne":"विजया चर्च","religion":"christian"},"relations":[],"meta":{"timestamp":"2017-04-06T05:26:23Z","version":2,"changeset":47495393,"user":"Parassrest","uid":3569249}},"geometry":{"type":"Point","coordinates":[83.94060794999999,28.226923250000002]}},{"type":"Feature","id":"way/427141969","properties":{"type":"way","id":427141969,"tags":{"amenity":"place_of_worship","name":"Victory Church","name:ne":"भिक्ट्री चर्च","religion":"christian"},"relations":[],"meta":{"timestamp":"2016-09-23T07:38:47Z","version":2,"changeset":42366475,"user":"Bishal9841","uid":3573216}},"geometry":{"type":"Point","coordinates":[84.0029906,28.202851625]}},{"type":"Feature","id":"way/436340468","properties":{"type":"way","id":436340468,"tags":{"addr:city":"pokhara lekhnath metropolitan city","addr:place":"Galeswor Chok","addr:postcode":"39","addr:street":"shiva shakti tole","amenity":"place_of_worship christian","building":"yes","name":"Bhedi Farm Bapist Church","opening_hours":"10:00-17:00","operator":"private","religion":"christian"},"relations":[],"meta":{"timestamp":"2017-12-25T07:13:20Z","version":3,"changeset":54900890,"user":"Ro Sun","uid":3112087}},"geometry":{"type":"Point","coordinates":[84.003908,28.1800831]}},{"type":"Feature","id":"way/451814091","properties":{"type":"way","id":451814091,"tags":{"Estd":"2059","amenity":"place_of_worship","building":"yes","name":"Grace Church","name:ne":"Pokhara Anugraha Mandali Pokhara","religion":"christian","source":"2cpokhara"},"relations":[],"meta":{"timestamp":"2018-03-11T06:41:21Z","version":2,"changeset":57073996,"user":"Sagarsubedi205","uid":7632456}},"geometry":{"type":"Point","coordinates":[83.9719082,28.19656725]}},{"type":"Feature","id":"way/514187366","properties":{"type":"way","id":514187366,"tags":{"addr:city":"Pokhara Lekhnath Municipality","addr:place":"Suvakamana Tole 9","addr:street":"Prithivichowk","amenity":"place_of_worship","name":"Pokhara Dail Mandali","religion":"christian"},"relations":[],"meta":{"timestamp":"2018-04-10T08:58:12Z","version":2,"changeset":57965364,"user":"Manoj Thapa","uid":781054}},"geometry":{"type":"Point","coordinates":[83.9885266,28.2067884]}},{"type":"Feature","id":"way/514200288","properties":{"type":"way","id":514200288,"tags":{"addr:housenumber":"7","amenity":"place_of_worship","name":"Living God Church","operator:type":"private","religion":"christian"},"relations":[],"meta":{"timestamp":"2018-04-23T06:29:00Z","version":3,"changeset":58328379,"user":"Manoj Thapa","uid":781054}},"geometry":{"type":"Point","coordinates":[83.97797847777777,28.223758322222224]}},{"type":"Feature","id":"way/514388765","properties":{"type":"way","id":514388765,"tags":{"addr:city":"Pokhara Lekhanath Metropolitan City","addr:place":"Tinkune Gharipatan","addr:street":"RTO Road","amenity":"place_of_worship","name":"X-Curch","religion":"christian"},"relations":[],"meta":{"timestamp":"2017-08-10T05:54:10Z","version":1,"changeset":50989615,"user":"Ankit Keshav Baral","uid":6447999}},"geometry":{"type":"Point","coordinates":[83.98431945,28.197227599999998]}},{"type":"Feature","id":"way/515161007","properties":{"type":"way","id":515161007,"tags":{"addr:housenumber":"37245","addr:street":"Ganesh Marga","amenity":"place_of_worship","name":"Presbyterian Church Paster in Nepal","religion":"christian"},"relations":[],"meta":{"timestamp":"2018-06-14T12:08:39Z","version":3,"changeset":59843151,"user":"marek kleciak","uid":338611}},"geometry":{"type":"Point","coordinates":[83.98216473333333,28.228926149999996]}},{"type":"Feature","id":"way/543816971","properties":{"type":"way","id":543816971,"tags":{"amenity":"place_of_worship","building":"yes","name":"Ishoriya Marga Bhajan Mandal","religion":"christian","source":"2cpokhara"},"relations":[],"meta":{"timestamp":"2018-02-25T13:18:11Z","version":2,"changeset":56660853,"user":"Rabin Ojha","uid":6075053}},"geometry":{"type":"Point","coordinates":[83.981083425,28.25185175]}},{"type":"Feature","id":"way/575452484","properties":{"type":"way","id":575452484,"tags":{"amenity":"place_of_worship","contact:email":"ngchurch@gmail.com","contact:phone":"061-430921","drinking_water":"yes","name":"Nayagaun Church","opening_hours":"We 17:00-19:00; Fr 17:00-18:00; Sa 8:00-13:00","religion":"christian","toilets":"yes"},"relations":[],"meta":{"timestamp":"2018-04-02T06:21:24Z","version":1,"changeset":57729551,"user":"Abash Paudel","uid":6677482}},"geometry":{"type":"Point","coordinates":[83.99023536153845,28.198177646153837]}},{"type":"Feature","id":"way/580335326","properties":{"type":"way","id":580335326,"tags":{"amenity":"place_of_worship","name":"Rajdaut Mandale Church","religion":"christian"},"relations":[],"meta":{"timestamp":"2018-04-16T06:49:09Z","version":1,"changeset":58127832,"user":"sandip parajuli","uid":7668145}},"geometry":{"type":"Point","coordinates":[84.0595967,28.1451921]}},{"type":"Feature","id":"way/580370325","properties":{"type":"way","id":580370325,"tags":{"amenity":"place_of_worship","name":"Rajdaut Mandale Church","religion":"christian"},"relations":[],"meta":{"timestamp":"2018-04-16T08:27:52Z","version":1,"changeset":58130142,"user":"sandip parajuli","uid":7668145}},"geometry":{"type":"Point","coordinates":[84.0595967,28.1451921]}},{"type":"Feature","id":"node/4061485598","properties":{"type":"node","id":4061485598,"tags":{"amenity":"place_of_worship","name":"Oikos Church","name:ne":"वइकस चर्च","religion":"christian"},"relations":[],"meta":{"timestamp":"2018-03-07T06:55:05Z","version":3,"changeset":56957637,"user":"Ro Sun","uid":3112087}},"geometry":{"type":"Point","coordinates":[83.9661022,28.2092568]}},{"type":"Feature","id":"node/4158709133","properties":{"type":"node","id":4158709133,"tags":{"amenity":"place_of_worship","name":"Church","name:ne":"गिर्जाघर","religion":"christian"},"relations":[],"meta":{"timestamp":"2018-06-02T05:03:17Z","version":3,"changeset":59476985,"user":"Ro Sun","uid":3112087}},"geometry":{"type":"Point","coordinates":[83.9910154,28.230459]}},{"type":"Feature","id":"node/4183083715","properties":{"type":"node","id":4183083715,"tags":{"amenity":"place_of_worship","name":"Everlasting Life Church","religion":"christian"},"relations":[],"meta":{"timestamp":"2017-05-04T05:52:30Z","version":2,"changeset":48383448,"user":"Ro Sun","uid":3112087}},"geometry":{"type":"Point","coordinates":[83.9815007,28.2244356]}},{"type":"Feature","id":"node/4213589085","properties":{"type":"node","id":4213589085,"tags":{"amenity":"place_of_worship","name":"Utsaha Church","name:ne":"उत्साह चर्च","religion":"christian"},"relations":[],"meta":{"timestamp":"2016-08-09T06:24:28Z","version":2,"changeset":41338344,"user":"Alisha12","uid":4204463}},"geometry":{"type":"Point","coordinates":[84.0043066,28.2102827]}},{"type":"Feature","id":"node/4215139114","properties":{"type":"node","id":4215139114,"tags":{"amenity":"place_of_worship","contact:phone":"061523250","name":"Rani Puwa Church","name:ne":"रानी पौवा चर्च","opening_hours":"sunrise-sunset","religion":"christian","source":"2cpokhara","toilets":"yes","water":"yes","wheelchair":"yes"},"relations":[],"meta":{"timestamp":"2018-05-14T05:35:37Z","version":4,"changeset":58939594,"user":"Abash Paudel","uid":6677482}},"geometry":{"type":"Point","coordinates":[83.9982413,28.2174603]}},{"type":"Feature","id":"node/4906992121","properties":{"type":"node","id":4906992121,"tags":{"addr:city":"Pokhara Lekhnath Metropolitan City","addr:place":"Bagaletole 8","amenity":"place_of_worship","contact:phone":"061524828","name":"St. Ann's Catholic Church","religion":"christian"},"relations":[],"meta":{"timestamp":"2018-06-04T11:38:42Z","version":3,"changeset":59534161,"user":"Manoj Thapa","uid":781054}},"geometry":{"type":"Point","coordinates":[83.9840805,28.2225522]}},{"type":"Feature","id":"node/5027801428","properties":{"type":"node","id":5027801428,"tags":{"amenity":"place_of_worship","contact:phone":"9846056834","name":"Jagriti Church","religion":"christian"},"relations":[],"meta":{"timestamp":"2017-10-10T04:25:05Z","version":2,"changeset":52777796,"user":"Ashish Thapa","uid":4039113}},"geometry":{"type":"Point","coordinates":[83.9866906,28.2319339]}},{"type":"Feature","id":"node/5027900193","properties":{"type":"node","id":5027900193,"tags":{"amenity":"place_of_worship","name":"All Nepal Prayer Fellowship Church","religion":"christian"},"relations":[],"meta":{"timestamp":"2017-08-11T07:45:58Z","version":1,"changeset":51023963,"user":"sabikoirala12","uid":6448381}},"geometry":{"type":"Point","coordinates":[84.0168916,28.2154421]}},{"type":"Feature","id":"node/5158199702","properties":{"type":"node","id":5158199702,"tags":{"amenity":"place_of_worship","name":"Ethnic Mission Church","religion":"christian"},"relations":[],"meta":{"timestamp":"2017-10-10T04:14:53Z","version":1,"changeset":52777667,"user":"Ashish Thapa","uid":4039113}},"geometry":{"type":"Point","coordinates":[83.9898026,28.2293841]}},{"type":"Feature","id":"node/5195632524","properties":{"type":"node","id":5195632524,"tags":{"amenity":"place_of_worship","name":"Dhampus Sallim Church","religion":"christian"},"relations":[],"meta":{"timestamp":"2018-04-13T08:26:25Z","version":2,"changeset":58057099,"user":"Manoj Thapa","uid":781054}},"geometry":{"type":"Point","coordinates":[83.8579495,28.3003751]}},{"type":"Feature","id":"node/5195632526","properties":{"type":"node","id":5195632526,"tags":{"amenity":"place_of_worship","name":"Heavenly Christ Church","religion":"christian"},"relations":[],"meta":{"timestamp":"2018-04-13T08:26:25Z","version":2,"changeset":58057099,"user":"Manoj Thapa","uid":781054}},"geometry":{"type":"Point","coordinates":[83.8294154,28.305433]}},{"type":"Feature","id":"node/5434552583","properties":{"type":"node","id":5434552583,"tags":{"amenity":"place_of_worship","name":"Nepal Christian Hemja Mandali","religion":"christian"},"relations":[],"meta":{"timestamp":"2018-02-25T05:44:38Z","version":1,"changeset":56652372,"user":"Bijay adhikari","uid":7643850}},"geometry":{"type":"Point","coordinates":[83.9217281,28.2823855]}},{"type":"Feature","id":"node/5461844514","properties":{"type":"node","id":5461844514,"tags":{"amenity":"place_of_worship","name":"Glorious Church","religion":"christian","source":"2cpokhara"},"relations":[],"meta":{"timestamp":"2018-03-07T10:49:35Z","version":1,"changeset":56964115,"user":"Sagarsubedi205","uid":7632456}},"geometry":{"type":"Point","coordinates":[83.9530852,28.1908542]}},{"type":"Feature","id":"node/5475957964","properties":{"type":"node","id":5475957964,"tags":{"amenity":"place_of_worship","name":"Aatmik Ekata Church","religion":"christian","source":"2c pokhara"},"relations":[],"meta":{"timestamp":"2018-03-13T16:02:00Z","version":1,"changeset":57149773,"user":"Active Asmita","uid":7644107}},"geometry":{"type":"Point","coordinates":[83.9880804,28.2308425]}},{"type":"Feature","id":"node/5555797760","properties":{"type":"node","id":5555797760,"tags":{"amenity":"place_of_worship","name":"Phetam Church","religion":"christian"},"relations":[],"meta":{"timestamp":"2018-04-16T06:49:08Z","version":1,"changeset":58127832,"user":"sandip parajuli","uid":7668145}},"geometry":{"type":"Point","coordinates":[84.0623268,28.1440589]}},{"type":"Feature","id":"node/5555797763","properties":{"type":"node","id":5555797763,"tags":{"amenity":"place_of_worship","name":"Rajdaut Mandale Church","religion":"christian"},"relations":[],"meta":{"timestamp":"2018-04-16T06:49:08Z","version":1,"changeset":58127832,"user":"sandip parajuli","uid":7668145}},"geometry":{"type":"Point","coordinates":[84.0596192,28.1452013]}},{"type":"Feature","id":"node/5556007798","properties":{"type":"node","id":5556007798,"tags":{"amenity":"place_of_worship","name":"Phetam Church","religion":"christian"},"relations":[],"meta":{"timestamp":"2018-04-16T08:27:52Z","version":1,"changeset":58130142,"user":"sandip parajuli","uid":7668145}},"geometry":{"type":"Point","coordinates":[84.0623268,28.1440589]}},{"type":"Feature","id":"node/5556007801","properties":{"type":"node","id":5556007801,"tags":{"amenity":"place_of_worship","name":"Rajdaut Mandale Church","religion":"christian"},"relations":[],"meta":{"timestamp":"2018-04-16T08:27:52Z","version":1,"changeset":58130142,"user":"sandip parajuli","uid":7668145}},"geometry":{"type":"Point","coordinates":[84.0596192,28.1452013]}},{"type":"Feature","id":"node/5571113317","properties":{"type":"node","id":5571113317,"tags":{"amenity":"place_of_worship","name":"Bethesda Church","religion":"christian"},"relations":[],"meta":{"timestamp":"2018-04-22T14:23:45Z","version":1,"changeset":58311402,"user":"Bijay adhikari","uid":7643850}},"geometry":{"type":"Point","coordinates":[83.9843358,28.2340508]}},{"type":"Feature","id":"node/5576534796","properties":{"type":"node","id":5576534796,"tags":{"amenity":"place_of_worship","contact:phone":"061-691140","drinking_water":"no","name":"Immanul Light Church","religion":"christian","source":"2c peset","toilets":"yes"},"relations":[],"meta":{"timestamp":"2018-04-25T09:51:15Z","version":2,"changeset":58402755,"user":"mueschel","uid":616774}},"geometry":{"type":"Point","coordinates":[83.9799361,28.2070318]}},{"type":"Feature","id":"node/5581851762","properties":{"type":"node","id":5581851762,"tags":{"amenity":"place_of_worship","religion":"christian"},"relations":[],"meta":{"timestamp":"2018-04-27T06:27:46Z","version":1,"changeset":58465666,"user":"Kshitizraj Sharma","uid":7004124}},"geometry":{"type":"Point","coordinates":[84.1083821,28.1832086]}},{"type":"Feature","id":"node/5598609636","properties":{"type":"node","id":5598609636,"tags":{"amenity":"place_of_worship","name":"Halaluhaya Church","religion":"christian"},"relations":[],"meta":{"timestamp":"2018-05-05T12:39:41Z","version":1,"changeset":58706737,"user":"Bijay adhikari","uid":7643850}},"geometry":{"type":"Point","coordinates":[84.0169466,28.214697]}},{"type":"Feature","id":"node/5606153567","properties":{"type":"node","id":5606153567,"tags":{"amenity":"place_of_worship","name":"Logos Hissup Church","religion":"christian","service_times":"Sa 8:30-11:00; Wed 11:30-1:00","source":"2cpokhara"},"relations":[],"meta":{"timestamp":"2018-05-09T04:22:47Z","version":1,"changeset":58806256,"user":"Abash Paudel","uid":6677482}},"geometry":{"type":"Point","coordinates":[83.9966731,28.1897197]}},{"type":"Feature","id":"node/5645279646","properties":{"type":"node","id":5645279646,"tags":{"amenity":"place_of_worship","name":"New Testament Church","name:ne":"नयाँ नियम मण्डली","religion":"christian"},"relations":[],"meta":{"timestamp":"2018-05-27T06:26:59Z","version":1,"changeset":59306961,"user":"Ro Sun","uid":3112087}},"geometry":{"type":"Point","coordinates":[84.0002525,28.2206458]}},{"type":"Feature","id":"node/5650840063","properties":{"type":"node","id":5650840063,"tags":{"amenity":"place_of_worship","name":"Abundant Life Church","name:ne":"प्रशस्त जीवन मण्डली","religion":"christian"},"relations":[],"meta":{"timestamp":"2018-05-30T04:52:47Z","version":1,"changeset":59385482,"user":"Ro Sun","uid":3112087}},"geometry":{"type":"Point","coordinates":[84.0037796,28.2002751]}}],"createdOn":1529835783524}