{"type":"FeatureCollection","features":[{"type":"Feature","id":"way/186920014","properties":{"type":"way","id":186920014,"tags":{"amenity":"clinic","contact:phone":"061520436","healthcare:speciality":"gynaecology","name":"Nepal Family Planning Office","name:ne":"नेपाल परिवार नियोजन संस्था","office":"ngo","opening_hours":"Su-Th 10:00-16:00, Fr 10:00-15:00"},"relations":[],"meta":{"timestamp":"2018-05-27T05:48:26Z","version":8,"changeset":59306511,"user":"Ro Sun","uid":3112087}},"geometry":{"type":"Point","coordinates":[84.00196904444444,28.209618199999998]}},{"type":"Feature","id":"way/307258506","properties":{"type":"way","id":307258506,"tags":{"amenity":"clinic","name":"Sayaptri Medical Hall"},"relations":[],"meta":{"timestamp":"2014-10-11T07:43:10Z","version":1,"changeset":25998010,"user":"Kanchanbdr","uid":2323570}},"geometry":{"type":"Point","coordinates":[83.95980442499999,28.206452849999998]}},{"type":"Feature","id":"way/387994886","properties":{"type":"way","id":387994886,"tags":{"amenity":"clinic","name":"Sardi Khola Polyclinic","name:ne":"सार्दी खोला पोलिक्लिनिक","operator":"pvt,"},"relations":[],"meta":{"timestamp":"2016-08-25T04:21:19Z","version":3,"changeset":41678434,"user":"Manoj Thapa","uid":781054}},"geometry":{"type":"Point","coordinates":[83.9877724,28.242155]}},{"type":"Feature","id":"way/400139187","properties":{"type":"way","id":400139187,"tags":{"addr:housenumber":"47","addr:street":"BuddhaShanti Marga","amenity":"clinic","building":"yes","building:levels":"2","name":"Tulsi Clinic"},"relations":[],"meta":{"timestamp":"2016-06-22T11:27:56Z","version":4,"changeset":40202582,"user":"gaurab basnet","uid":3120057}},"geometry":{"type":"Point","coordinates":[83.992993,28.208680825]}},{"type":"Feature","id":"way/414297856","properties":{"type":"way","id":414297856,"tags":{"amenity":"clinic","building":"yes","name":"Pokhara clinic"},"relations":[],"meta":{"timestamp":"2017-02-06T05:39:20Z","version":3,"changeset":45846182,"user":"Alisha12","uid":4204463}},"geometry":{"type":"Point","coordinates":[83.991226525,28.225030725000003]}},{"type":"Feature","id":"way/414319170","properties":{"type":"way","id":414319170,"tags":{"amenity":"clinic","building":"yes","name":"Pokhara Medical Hall","name:ne":"पोखरा मेडिकल हल"},"relations":[],"meta":{"timestamp":"2016-11-20T09:09:45Z","version":4,"changeset":43817412,"user":"Ro Sun","uid":3112087}},"geometry":{"type":"Point","coordinates":[83.9913059,28.225469883333336]}},{"type":"Feature","id":"way/416085546","properties":{"type":"way","id":416085546,"tags":{"addr:city":"Pokhara,Naya Bazar","addr:housenumber":"129","addr:postcode":"9","addr:street":"Naya Bazar","amenity":"clinic","contact:phone":"061525237","description":"OPD services with fully eqipped Lab, Ecg,Echo, Usg etc","email":"medhacardiaccare@gmail.com","name":"Medha Cardiac Care and Diagnostic Center","opening_hours":"Su-Fr 07:00-19:00; Sa 07:00-10:00","operator":"Medha Cardiac Care","phone":"061525237"},"relations":[],"meta":{"timestamp":"2017-08-27T07:54:22Z","version":5,"changeset":51474999,"user":"Ro Sun","uid":3112087}},"geometry":{"type":"Point","coordinates":[83.989810275,28.216956775]}},{"type":"Feature","id":"way/416891068","properties":{"type":"way","id":416891068,"tags":{"amenity":"clinic","name":"Chinese Hospital","name:ne":"चानेसे होस्पिटल"},"relations":[],"meta":{"timestamp":"2016-11-21T05:09:03Z","version":4,"changeset":43837689,"user":"Ro Sun","uid":3112087}},"geometry":{"type":"Point","coordinates":[83.9747593,28.213296616666668]}},{"type":"Feature","id":"way/417486959","properties":{"type":"way","id":417486959,"tags":{"amenity":"clinic","building":"yes"},"relations":[],"meta":{"timestamp":"2016-05-12T07:25:48Z","version":1,"changeset":39259646,"user":"sagar karki","uid":2757453}},"geometry":{"type":"Point","coordinates":[84.02378335,28.192125633333337]}},{"type":"Feature","id":"way/417819488","properties":{"type":"way","id":417819488,"tags":{"amenity":"clinic","contact:phone":"061524532,061534457","name":"Skin,STD and Lasar Clinic"},"relations":[],"meta":{"timestamp":"2017-08-13T08:39:57Z","version":2,"changeset":51075369,"user":"usha51","uid":6448132}},"geometry":{"type":"Point","coordinates":[83.98481625,28.225411133333335]}},{"type":"Feature","id":"way/417834165","properties":{"type":"way","id":417834165,"tags":{"amenity":"clinic","building":"yes","contact:phone":"+977 9847600356","name":"Lion Hospital","name:en":"Annapurna Lion Health Service Center","name:ne":"लाओन अस्पताल"},"relations":[],"meta":{"timestamp":"2017-08-09T10:53:18Z","version":7,"changeset":50969283,"user":"kamala123","uid":6447944}},"geometry":{"type":"Point","coordinates":[83.97958123333333,28.22371223333333]}},{"type":"Feature","id":"way/420243961","properties":{"type":"way","id":420243961,"tags":{"addr:city":"Pokhara Lekhanath Metropolitan City","addr:place":"Masbar Pokharipatan","addr:street":"Sugam Marga","amenity":"clinic","building":"yes","healthcare":"doctor","healthcare:speciality":"Cancer Care","name":"Pokhara Cancer Care Center","name:ne":"पोखरा क्यान्सर केयर सेन्टर"},"relations":[],"meta":{"timestamp":"2017-12-01T05:22:37Z","version":4,"changeset":54224089,"user":"Ro Sun","uid":3112087}},"geometry":{"type":"Point","coordinates":[83.97349383333334,28.20834181666667]}},{"type":"Feature","id":"way/420469610","properties":{"type":"way","id":420469610,"tags":{"amenity":"clinic","building":"yes","name":"Prakriti Ayurbed Bhawan","name:ne":"प्रकृति आयुर्वेद भवन"},"relations":[],"meta":{"timestamp":"2017-06-13T07:24:45Z","version":4,"changeset":49490579,"user":"Ro Sun","uid":3112087}},"geometry":{"type":"Point","coordinates":[83.99022605,28.2229316]}},{"type":"Feature","id":"way/421305649","properties":{"type":"way","id":421305649,"tags":{"amenity":"clinic","building":"yes","contact:phone":"061-467188, 467190","healthcare":"doctor","healthcare:speciality":"oncology, dermatology, opthalmology, dental, general","name":"Bibhuti Health Care Pvt.Ltd","opening_hours":"Su-Sa 7:00-20:00","source":"2cpokhara"},"relations":[],"meta":{"timestamp":"2018-03-11T06:41:19Z","version":2,"changeset":57073996,"user":"Sagarsubedi205","uid":7632456}},"geometry":{"type":"Point","coordinates":[83.970503275,28.196539925000003]}},{"type":"Feature","id":"way/421596999","properties":{"type":"way","id":421596999,"tags":{"addr:city":"pokhara lekthnath municipility","addr:street":"Harichowk - Chauthe Route","amenity":"clinic","building":"yes","contact:phone":"9846719013","healthcare":"doctor","healthcare:speciality":"optical","name":"Sunrise Optical House","opening_hours":"7:30 - 17:00","operator":"private"},"relations":[],"meta":{"timestamp":"2018-04-11T08:37:09Z","version":3,"changeset":57996103,"user":"Manoj Thapa","uid":781054}},"geometry":{"type":"Point","coordinates":[83.98345450000001,28.24334465]}},{"type":"Feature","id":"way/422183621","properties":{"type":"way","id":422183621,"tags":{"amenity":"clinic","building":"yes","building:levels":"2","contact:phone":"061-534125","name":"The Child Specialist's Clinic","opening_hours":"Su-Fr 07:00-09:30,14:30-19:30","source":"2C Pokhara Field Data Collection"},"relations":[],"meta":{"timestamp":"2017-01-10T08:01:02Z","version":4,"changeset":45044654,"user":"Alisha12","uid":4204463}},"geometry":{"type":"Point","coordinates":[83.97709755,28.206707899999998]}},{"type":"Feature","id":"way/422635570","properties":{"type":"way","id":422635570,"tags":{"amenity":"clinic","building":"yes","name":"Primary Health Care Clinic","source":"2cpokhara"},"relations":[],"meta":{"timestamp":"2018-03-07T12:20:59Z","version":2,"changeset":56966929,"user":"Sagarsubedi205","uid":7632456}},"geometry":{"type":"Point","coordinates":[83.9565597,28.18638405]}},{"type":"Feature","id":"way/429583812","properties":{"type":"way","id":429583812,"tags":{"amenity":"clinic","name":"Sapana Ayurbed Hospital","name:ne":"सपना आयुर्बेद हस्पिटल"},"relations":[],"meta":{"timestamp":"2016-11-21T05:03:13Z","version":4,"changeset":43837631,"user":"Ro Sun","uid":3112087}},"geometry":{"type":"Point","coordinates":[83.99021135000001,28.222318324999996]}},{"type":"Feature","id":"way/430155954","properties":{"type":"way","id":430155954,"tags":{"addr:housenumber":"5","amenity":"clinic","building":"yes","building:levels":"3","name":"medical","name:ne":"मेडिकल"},"relations":[],"meta":{"timestamp":"2016-09-25T10:36:17Z","version":4,"changeset":42420345,"user":"Bishal9841","uid":3573216}},"geometry":{"type":"Point","coordinates":[83.995900525,28.1859728]}},{"type":"Feature","id":"way/438089951","properties":{"type":"way","id":438089951,"tags":{"amenity":"clinic","name":"Annapurna Samudaika Swasthya Kendra","name:ne":"अन्नपूर्ण सामुदाइक स्वास्थ्य केन्द्र"},"relations":[],"meta":{"timestamp":"2018-05-31T10:06:22Z","version":3,"changeset":59424714,"user":"Ro Sun","uid":3112087}},"geometry":{"type":"Point","coordinates":[84.04145195999999,28.146784710000002]}},{"type":"Feature","id":"way/485269942","properties":{"type":"way","id":485269942,"tags":{"amenity":"clinic","building":"yes","name":"Lamgadi Saptayek Health Clenic","operator":"public"},"relations":[],"meta":{"timestamp":"2017-08-13T08:36:15Z","version":2,"changeset":51075314,"user":"ShreeKrishna","uid":6447846}},"geometry":{"type":"Point","coordinates":[84.08029954999999,28.124307299999998]}},{"type":"Feature","id":"node/3235720707","properties":{"type":"node","id":3235720707,"tags":{"amenity":"clinic","building":"hospital","name":"Bhedabari Primary Health Centre","name:ne":"भेडाबारी प्राइमरी हेल्थ सेंटर"},"relations":[],"meta":{"timestamp":"2017-12-11T10:32:50Z","version":4,"changeset":54535574,"user":"Manoj Thapa","uid":781054}},"geometry":{"type":"Point","coordinates":[83.9027187,28.3165262]}},{"type":"Feature","id":"node/3404903235","properties":{"type":"node","id":3404903235,"tags":{"amenity":"clinic","name":"Doctor's Clinic","name:ne":"डाक्टरको क्लिनिक","opening_hours":"08:00-11:00,03:00-08:00","operator":"Dr. PK Paul"},"relations":[],"meta":{"timestamp":"2016-08-09T08:08:38Z","version":3,"changeset":41339664,"user":"Parassrest","uid":3569249}},"geometry":{"type":"Point","coordinates":[83.9654401,28.2070547]}},{"type":"Feature","id":"node/4176500035","properties":{"type":"node","id":4176500035,"tags":{"amenity":"clinic","name":"Ortho Clinic","name:ne":"ओर्ठो क्लिनिक"},"relations":[],"meta":{"timestamp":"2017-06-13T07:24:45Z","version":3,"changeset":49490579,"user":"Ro Sun","uid":3112087}},"geometry":{"type":"Point","coordinates":[83.9835997,28.2107109]}},{"type":"Feature","id":"node/4193121165","properties":{"type":"node","id":4193121165,"tags":{"amenity":"clinic","name":"Sai Ram Medical Hall","website":"9804101225"},"relations":[],"meta":{"timestamp":"2018-02-24T05:05:12Z","version":2,"changeset":56627926,"user":"Bijay adhikari","uid":7643850}},"geometry":{"type":"Point","coordinates":[83.9626935,28.2574658]}},{"type":"Feature","id":"node/4258094398","properties":{"type":"node","id":4258094398,"tags":{"amenity":"clinic","contact:phone":"061-534915, 534916","name":"Doctors Clinic","name:en":"Geno Doctors Centre","name:ne":"जीनो अस्पताल","operator":"Private"},"relations":[],"meta":{"timestamp":"2017-08-10T11:11:05Z","version":7,"changeset":50998217,"user":"liladevkota123","uid":6448317}},"geometry":{"type":"Point","coordinates":[83.9839674,28.24343]}},{"type":"Feature","id":"node/4287370138","properties":{"type":"node","id":4287370138,"tags":{"amenity":"clinic","name":"Ashish Medical Hall","name:ne":"अाषिश मेडिकल हल","operator":"private"},"relations":[],"meta":{"timestamp":"2016-11-20T08:59:53Z","version":3,"changeset":43817265,"user":"Ro Sun","uid":3112087}},"geometry":{"type":"Point","coordinates":[83.9858903,28.2335866]}},{"type":"Feature","id":"node/4287522927","properties":{"type":"node","id":4287522927,"tags":{"amenity":"clinic","name":"Deibetic And Thyroid Upachar Kendra","name:ne":"डाइबेटिक्स एंड ठैरोएड उपचार केन्द्र"},"relations":[],"meta":{"timestamp":"2016-11-21T05:18:55Z","version":3,"changeset":43837780,"user":"Ro Sun","uid":3112087}},"geometry":{"type":"Point","coordinates":[83.9859952,28.2149908]}},{"type":"Feature","id":"node/4287522928","properties":{"type":"node","id":4287522928,"tags":{"amenity":"clinic","contact:email":"diagnosticslifecare@gmail.com","contact:phone":"061521884","name":"Life Care Diagnostics","name:ne":"लाईफ कियर डाइग्नोस्तिकस्","operator":"private"},"relations":[],"meta":{"timestamp":"2017-08-13T09:45:08Z","version":3,"changeset":51076780,"user":"Sanjeev brl","uid":6447910}},"geometry":{"type":"Point","coordinates":[83.9860394,28.2150913]}},{"type":"Feature","id":"node/4287522931","properties":{"type":"node","id":4287522931,"tags":{"amenity":"clinic","contact:phone":"061-539880, 9856039984","healthcare:speciality":"gynaecology","name":"Meri Prajanan Swasthya Sewa","name:ne":"मेरि प्रजनं स्वास्थ्य सेवा"},"relations":[],"meta":{"timestamp":"2018-05-27T05:48:24Z","version":5,"changeset":59306511,"user":"Ro Sun","uid":3112087}},"geometry":{"type":"Point","coordinates":[83.9839636,28.2071158]}},{"type":"Feature","id":"node/4287522933","properties":{"type":"node","id":4287522933,"tags":{"amenity":"clinic","name":"Pokhara Cancer Centre"},"relations":[],"meta":{"timestamp":"2016-07-07T09:35:24Z","version":1,"changeset":40537637,"user":"Ro Sun","uid":3112087}},"geometry":{"type":"Point","coordinates":[83.9864291,28.2169157]}},{"type":"Feature","id":"node/4287522934","properties":{"type":"node","id":4287522934,"tags":{"amenity":"clinic","name":"Pokhara Healthy Home care","name:ne":"पोखरा हेल्दी होम कियर"},"relations":[],"meta":{"timestamp":"2016-08-07T05:48:00Z","version":2,"changeset":41298074,"user":"Parassrest","uid":3569249}},"geometry":{"type":"Point","coordinates":[83.9864633,28.2171639]}},{"type":"Feature","id":"node/4287522935","properties":{"type":"node","id":4287522935,"tags":{"amenity":"clinic","name":"Rejuwa Skin Care Clinic","name:ne":"रेजुवा ईस्किन कियर क्लिनिक"},"relations":[],"meta":{"timestamp":"2016-08-07T05:48:00Z","version":2,"changeset":41298074,"user":"Parassrest","uid":3569249}},"geometry":{"type":"Point","coordinates":[83.98647,28.2171799]}},{"type":"Feature","id":"node/4287522936","properties":{"type":"node","id":4287522936,"tags":{"amenity":"clinic","healthcare:speciality":"dermatology","name":"Skin And Laser Centre","name:ne":"स्किन एंड लेजर सेन्टर"},"relations":[],"meta":{"timestamp":"2017-12-01T06:09:49Z","version":3,"changeset":54224996,"user":"Ro Sun","uid":3112087}},"geometry":{"type":"Point","coordinates":[83.9866572,28.2179495]}},{"type":"Feature","id":"node/4511683043","properties":{"type":"node","id":4511683043,"tags":{"amenity":"clinic","name":"Global Medical Hall","name:ne":"ग्लोबल मेडिकल हल"},"relations":[],"meta":{"timestamp":"2016-11-20T08:59:52Z","version":1,"changeset":43817265,"user":"Ro Sun","uid":3112087}},"geometry":{"type":"Point","coordinates":[83.9841069,28.2433483]}},{"type":"Feature","id":"node/4579370614","properties":{"type":"node","id":4579370614,"tags":{"amenity":"clinic","contact:phone":"061-523808","name":"Pokhara Diabetes and Thyroid","source":"2cpokhara"},"relations":[],"meta":{"timestamp":"2018-04-02T03:26:25Z","version":2,"changeset":57727331,"user":"Active Asmita","uid":7644107}},"geometry":{"type":"Point","coordinates":[83.9868459,28.2115233]}},{"type":"Feature","id":"node/4579378965","properties":{"type":"node","id":4579378965,"tags":{"amenity":"clinic","name":"Advanced Poly Clinic","source":"2C Pokhara Field Data Collection"},"relations":[],"meta":{"timestamp":"2018-03-27T15:37:35Z","version":3,"changeset":57571504,"user":"Active Asmita","uid":7644107}},"geometry":{"type":"Point","coordinates":[83.9853393,28.2137053]}},{"type":"Feature","id":"node/4650879650","properties":{"type":"node","id":4650879650,"tags":{"amenity":"clinic","name":"Brighter Clinic"},"relations":[],"meta":{"timestamp":"2017-02-01T07:21:25Z","version":1,"changeset":45708599,"user":"Alisha12","uid":4204463}},"geometry":{"type":"Point","coordinates":[83.987605,28.2397716]}},{"type":"Feature","id":"node/4666610089","properties":{"type":"node","id":4666610089,"tags":{"amenity":"clinic","email":"internationalmedicarepkr@gmail.com","internet_access":"wlan","name:en":"International medicare and assistance center - traveller's clinic","note":"Only for foreigners. Specialized in illness of the foreigners like food poisoning, turista","opening_hours":"Mo-Su 07:30-21:00","phone":"+97761463271","website":"http://www.internationalmedicare.org"},"relations":[],"meta":{"timestamp":"2017-05-04T05:04:04Z","version":3,"changeset":48382540,"user":"Ro Sun","uid":3112087}},"geometry":{"type":"Point","coordinates":[83.9649744,28.2110532]}},{"type":"Feature","id":"node/4674651328","properties":{"type":"node","id":4674651328,"tags":{"amenity":"clinic","contact:email":"drpabin@gmail.com","facility:x-ray":"yes","healthcare:speciality":"general","name":"Shrijana Medical Swastha Clinic","opening_hours":"7 AM-8 PM","phone":"061-440509, 9846174275","source":"2cpokhara"},"relations":[],"meta":{"timestamp":"2018-02-24T10:30:51Z","version":3,"changeset":56632750,"user":"Rabin Ojha","uid":6075053}},"geometry":{"type":"Point","coordinates":[83.9727979,28.261071]}},{"type":"Feature","id":"node/4675774289","properties":{"type":"node","id":4675774289,"tags":{"addr:housenumber":"71","addr:street":"Jalparoad","amenity":"clinic","internet_access":"wlan","name:en":"Dr. Rabeendra Shrestha"},"relations":[],"meta":{"timestamp":"2017-02-09T01:37:16Z","version":1,"changeset":45934453,"user":"Rabeendra","uid":4823085}},"geometry":{"type":"Point","coordinates":[83.9838932,28.2138299]}},{"type":"Feature","id":"node/4759421524","properties":{"type":"node","id":4759421524,"tags":{"amenity":"clinic","name:en":"Shardikhola Polyclinic Pvt. Ltd."},"relations":[],"meta":{"timestamp":"2017-03-28T09:51:51Z","version":1,"changeset":47224597,"user":"Ro Sun","uid":3112087}},"geometry":{"type":"Point","coordinates":[83.9888073,28.2433386]}},{"type":"Feature","id":"node/4776716308","properties":{"type":"node","id":4776716308,"tags":{"amenity":"clinic","name":"Gau ghar clinic"},"relations":[],"meta":{"timestamp":"2017-05-07T10:57:53Z","version":2,"changeset":48471422,"user":"Alisha12","uid":4204463}},"geometry":{"type":"Point","coordinates":[83.953617,28.279375]}},{"type":"Feature","id":"node/4788203629","properties":{"type":"node","id":4788203629,"tags":{"amenity":"clinic","contact:phone":"9856066133","name":"Begnas Health Clinic"},"relations":[],"meta":{"timestamp":"2017-04-25T05:37:24Z","version":3,"changeset":48110432,"user":"Parassrest","uid":3569249}},"geometry":{"type":"Point","coordinates":[84.0884868,28.164566]}},{"type":"Feature","id":"node/4805458670","properties":{"type":"node","id":4805458670,"tags":{"amenity":"clinic","name":"Kahukhola Poli Clinic"},"relations":[],"meta":{"timestamp":"2017-04-20T09:24:58Z","version":1,"changeset":47965247,"user":"Alisha12","uid":4204463}},"geometry":{"type":"Point","coordinates":[84.0186275,28.2159314]}},{"type":"Feature","id":"node/4912048175","properties":{"type":"node","id":4912048175,"tags":{"amenity":"clinic","name":"Pokhara Healthy Homes"},"relations":[],"meta":{"timestamp":"2017-06-13T06:34:00Z","version":1,"changeset":49489316,"user":"Ro Sun","uid":3112087}},"geometry":{"type":"Point","coordinates":[83.9886462,28.2434124]}},{"type":"Feature","id":"node/4912099622","properties":{"type":"node","id":4912099622,"tags":{"amenity":"clinic","name":"Sahara International Fertilty centre Private limited","name:ne":"साहरा इन्टर-न्याष्नल फर्टिलिटी सेन्टर"},"relations":[],"meta":{"timestamp":"2017-06-13T06:54:30Z","version":1,"changeset":49489866,"user":"Ro Sun","uid":3112087}},"geometry":{"type":"Point","coordinates":[83.9800511,28.2251233]}},{"type":"Feature","id":"node/4934286922","properties":{"type":"node","id":4934286922,"tags":{"amenity":"clinic","name":"Nidan Aayurbed Clinic"},"relations":[],"meta":{"timestamp":"2017-06-24T16:16:51Z","version":1,"changeset":49797314,"user":"Ro Sun","uid":3112087}},"geometry":{"type":"Point","coordinates":[83.9822368,28.2319723]}},{"type":"Feature","id":"node/4956328824","properties":{"type":"node","id":4956328824,"tags":{"amenity":"clinic","name":"Dun-sel Clinic"},"relations":[],"meta":{"timestamp":"2017-07-07T08:26:56Z","version":1,"changeset":50102186,"user":"Ro Sun","uid":3112087}},"geometry":{"type":"Point","coordinates":[83.9572236,28.2622624]}},{"type":"Feature","id":"node/5026477690","properties":{"type":"node","id":5026477690,"tags":{"addr:city":"Pokhara Lekhnath M.City","addr:place":"Lamachaur","amenity":"clinic","contact:phone":"061-440522","name":"Aarogya Bhawan Health Care Home","opening_hours":"Morning 6:30 AM-9 AM Evening 5:30 PM-9 PM","operator":"Private","operator:name":"Dilip Kumar Sharma","source":"2cpokhara"},"relations":[],"meta":{"timestamp":"2018-02-24T10:30:52Z","version":2,"changeset":56632750,"user":"Rabin Ojha","uid":6075053}},"geometry":{"type":"Point","coordinates":[83.9701876,28.2627601]}},{"type":"Feature","id":"node/5031853736","properties":{"type":"node","id":5031853736,"tags":{"amenity":"clinic","name":"Kathmandu Clinic Of Cosmetic Surgery","operator":"private"},"relations":[],"meta":{"timestamp":"2018-04-29T05:44:06Z","version":2,"changeset":58518607,"user":"Manoj Thapa","uid":781054}},"geometry":{"type":"Point","coordinates":[83.9856961,28.2134644]}},{"type":"Feature","id":"node/5100274837","properties":{"type":"node","id":5100274837,"tags":{"amenity":"clinic","contact:phone":"061 561042,9856031011","facility:operating_theatre":"yes","facility:x-ray":"yes","name":"Mamata Polyclinic Pvt. Ltd.","source":"2cpokhara"},"relations":[],"meta":{"timestamp":"2018-03-05T16:43:45Z","version":2,"changeset":56908802,"user":"Amrit Devkota","uid":6497064}},"geometry":{"type":"Point","coordinates":[84.0685261,28.1634077]}},{"type":"Feature","id":"node/5107320222","properties":{"type":"node","id":5107320222,"tags":{"amenity":"clinic","contact:phone":"061530563","name":"Siddartha Pathology Clinic"},"relations":[],"meta":{"timestamp":"2018-03-11T03:26:46Z","version":2,"changeset":57072375,"user":"cazar","uid":7644110}},"geometry":{"type":"Point","coordinates":[83.9860316,28.2182516]}},{"type":"Feature","id":"node/5161242821","properties":{"type":"node","id":5161242821,"tags":{"amenity":"clinic","name":"Pancham Aayurbed Clinic"},"relations":[],"meta":{"timestamp":"2017-10-11T16:14:11Z","version":1,"changeset":52831797,"user":"Ro Sun","uid":3112087}},"geometry":{"type":"Point","coordinates":[83.9932173,28.2062034]}},{"type":"Feature","id":"node/5227505281","properties":{"type":"node","id":5227505281,"tags":{"amenity":"clinic","name":"Jyoti Ankha Clinic and Chasma Pasal"},"relations":[],"meta":{"timestamp":"2017-11-14T04:40:30Z","version":1,"changeset":53760169,"user":"nishaadhikari","uid":3481073}},"geometry":{"type":"Point","coordinates":[83.9885816,28.2424875]}},{"type":"Feature","id":"node/5240765627","properties":{"type":"node","id":5240765627,"tags":{"amenity":"clinic","name":"RupaSwasthya Clinic","phone":"061561377"},"relations":[],"meta":{"timestamp":"2017-11-21T09:57:27Z","version":1,"changeset":53971174,"user":"Ro Sun","uid":3112087}},"geometry":{"type":"Point","coordinates":[84.0575162,28.1630751]}},{"type":"Feature","id":"node/5253481968","properties":{"type":"node","id":5253481968,"tags":{"amenity":"clinic","name":"Diwa Swastya Clinic","name:ne":"दिवा स्व्स्त्य क्लिनिक"},"relations":[],"meta":{"timestamp":"2017-11-29T06:13:51Z","version":1,"changeset":54167778,"user":"nishaadhikari","uid":3481073}},"geometry":{"type":"Point","coordinates":[84.0120821,28.2038818]}},{"type":"Feature","id":"node/5283977225","properties":{"type":"node","id":5283977225,"tags":{"amenity":"clinic","name":"Pokhara Super Speciality Health Clinic"},"relations":[],"meta":{"timestamp":"2017-12-14T13:37:51Z","version":1,"changeset":54624663,"user":"Ro Sun","uid":3112087}},"geometry":{"type":"Point","coordinates":[83.9849047,28.2114775]}},{"type":"Feature","id":"node/5346005521","properties":{"type":"node","id":5346005521,"tags":{"addr:postcode":"33700","addr:street":"Janapriya Marga","amenity":"clinic","internet_access":"wlan","name:en":"Magic medico concern","opening_hours":"Su-Fr 09:00-18:00","operator":"Mitralal Sharma","phone":"061466980"},"relations":[],"meta":{"timestamp":"2018-01-18T02:17:16Z","version":1,"changeset":55537482,"user":"Dklpradeep","uid":7491932}},"geometry":{"type":"Point","coordinates":[83.9745301,28.2058021]}},{"type":"Feature","id":"node/5383565225","properties":{"type":"node","id":5383565225,"tags":{"amenity":"clinic","name":"Lekhnath City Polyclinic"},"relations":[],"meta":{"timestamp":"2018-02-03T17:54:22Z","version":1,"changeset":56035487,"user":"Ro Sun","uid":3112087}},"geometry":{"type":"Point","coordinates":[84.0610401,28.1552198]}},{"type":"Feature","id":"node/5425921620","properties":{"type":"node","id":5425921620,"tags":{"amenity":"clinic","name":"Padmashree Homeo Clinic"},"relations":[],"meta":{"timestamp":"2018-02-21T05:04:14Z","version":1,"changeset":56538750,"user":"Bijay adhikari","uid":7643850}},"geometry":{"type":"Point","coordinates":[83.986655,28.2179173]}},{"type":"Feature","id":"node/5431594937","properties":{"type":"node","id":5431594937,"tags":{"amenity":"clinic","name":"Bastola medical hall"},"relations":[],"meta":{"timestamp":"2018-04-05T10:14:42Z","version":2,"changeset":57829818,"user":"Manoj Thapa","uid":781054}},"geometry":{"type":"Point","coordinates":[83.936195,28.2783361]}},{"type":"Feature","id":"node/5434552567","properties":{"type":"node","id":5434552567,"tags":{"amenity":"clinic","name":"Hemja Medical Hall"},"relations":[],"meta":{"timestamp":"2018-02-25T05:44:37Z","version":1,"changeset":56652372,"user":"Bijay adhikari","uid":7643850}},"geometry":{"type":"Point","coordinates":[83.8994362,28.2867923]}},{"type":"Feature","id":"node/5434552576","properties":{"type":"node","id":5434552576,"tags":{"amenity":"clinic","name":"Ratna Medical Hall","phone":"9846080516"},"relations":[],"meta":{"timestamp":"2018-02-25T05:44:38Z","version":1,"changeset":56652372,"user":"Bijay adhikari","uid":7643850}},"geometry":{"type":"Point","coordinates":[83.922282,28.283384]}},{"type":"Feature","id":"node/5440501081","properties":{"type":"node","id":5440501081,"tags":{"amenity":"clinic","name":"Diamond Medical Hall","operator":"Private","phone":"9856038694"},"relations":[],"meta":{"timestamp":"2018-02-27T16:30:14Z","version":1,"changeset":56727750,"user":"Bijay adhikari","uid":7643850}},"geometry":{"type":"Point","coordinates":[83.9541775,28.2894808]}},{"type":"Feature","id":"node/5458009713","properties":{"type":"node","id":5458009713,"tags":{"amenity":"clinic","contact:email":"infogandakigastro@gmail.com","contact:phone":"061-521865","healthcare":"doctor","healthcare:speciality":"gastroenterology","name":"Gandaki Gastro Liver and Endoscopy Clinic","opening_hours":"8:00-17:00","source":"2cpokhara"},"relations":[],"meta":{"timestamp":"2018-03-27T16:35:37Z","version":2,"changeset":57573176,"user":"Active Asmita","uid":7644107}},"geometry":{"type":"Point","coordinates":[83.9858128,28.2141522]}},{"type":"Feature","id":"node/5459645733","properties":{"type":"node","id":5459645733,"tags":{"amenity":"clinic","name":"Himalaya Polyclinic & Diagnostic Centre","opening_hours":"7:00- 20:30","phone":"061-419541","source":"2c pokhara"},"relations":[],"meta":{"timestamp":"2018-05-27T07:44:49Z","version":2,"changeset":59307954,"user":"Ro Sun","uid":3112087}},"geometry":{"type":"Point","coordinates":[83.9797794,28.2246334]}},{"type":"Feature","id":"node/5461924090","properties":{"type":"node","id":5461924090,"tags":{"amenity":"clinic","contact:phone":"061-524932,061-534497","name":"Safal Skin Care & Laser Clinic","source":"2c pokhara"},"relations":[],"meta":{"timestamp":"2018-03-07T11:29:35Z","version":1,"changeset":56965291,"user":"Active Asmita","uid":7644107}},"geometry":{"type":"Point","coordinates":[83.9847768,28.225173]}},{"type":"Feature","id":"node/5462506997","properties":{"type":"node","id":5462506997,"tags":{"ambulance":"yes","amenity":"clinic","name":"Siddhartha Health Care Pvt Ltd","opening_hours":"7:00- 19:00","source":"2c pokhara"},"relations":[],"meta":{"timestamp":"2018-03-26T09:06:06Z","version":2,"changeset":57527623,"user":"Ro Sun","uid":3112087}},"geometry":{"type":"Point","coordinates":[83.984602,28.2242783]}},{"type":"Feature","id":"node/5469569838","properties":{"type":"node","id":5469569838,"tags":{"amenity":"clinic","contact:phone":"061-531725","healthcare":"doctor","healthcare:speciality":"consultation, pharmacy, x-ray, pathology, video x-ray","name":"Manisona Health Care Pvt Ltd","source":"2c pokhara"},"relations":[],"meta":{"timestamp":"2018-03-10T17:43:08Z","version":1,"changeset":57063705,"user":"Active Asmita","uid":7644107}},"geometry":{"type":"Point","coordinates":[83.9907215,28.2291974]}},{"type":"Feature","id":"node/5508848779","properties":{"type":"node","id":5508848779,"tags":{"amenity":"clinic","contact:phone":"061-523258, 9851065764","name":"Healthy Home Fittness Clinic","source":"2cpokhara"},"relations":[],"meta":{"timestamp":"2018-03-27T16:35:36Z","version":1,"changeset":57573176,"user":"Active Asmita","uid":7644107}},"geometry":{"type":"Point","coordinates":[83.9859525,28.2147654]}},{"type":"Feature","id":"node/5516604641","properties":{"type":"node","id":5516604641,"tags":{"amenity":"clinic","name":"Kayakalpa Diet Clinic"},"relations":[],"meta":{"timestamp":"2018-03-30T15:53:50Z","version":1,"changeset":57664319,"user":"Active Asmita","uid":7644107}},"geometry":{"type":"Point","coordinates":[83.9881069,28.2214638]}},{"type":"Feature","id":"node/5517954475","properties":{"type":"node","id":5517954475,"tags":{"amenity":"clinic","name":"Uniwue Medical Hall","source":"2cpokhara"},"relations":[],"meta":{"timestamp":"2018-03-31T07:48:54Z","version":1,"changeset":57681583,"user":"Amrit Devkota","uid":6497064}},"geometry":{"type":"Point","coordinates":[84.0824106,28.1326185]}},{"type":"Feature","id":"node/5517954478","properties":{"type":"node","id":5517954478,"tags":{"amenity":"clinic","name":"Pratima Medical Hall","source":"2cpokhara"},"relations":[],"meta":{"timestamp":"2018-03-31T07:48:54Z","version":1,"changeset":57681583,"user":"Amrit Devkota","uid":6497064}},"geometry":{"type":"Point","coordinates":[84.0817762,28.1326516]}},{"type":"Feature","id":"node/5520566326","properties":{"type":"node","id":5520566326,"tags":{"amenity":"clinic","name":"Kisor Kisori Maitri Youn tatha Prajanan Swasthya Seba Clinic","opening_hours":"Su-Sa PH closed","source":"2cpokhara"},"relations":[],"meta":{"timestamp":"2018-04-01T15:35:40Z","version":1,"changeset":57715309,"user":"Sagarsubedi205","uid":7632456}},"geometry":{"type":"Point","coordinates":[84.0297273,28.1338733]}},{"type":"Feature","id":"node/5530391811","properties":{"type":"node","id":5530391811,"tags":{"amenity":"clinic","name":"Hemja Policlinic"},"relations":[],"meta":{"timestamp":"2018-04-05T10:14:42Z","version":1,"changeset":57829818,"user":"Manoj Thapa","uid":781054}},"geometry":{"type":"Point","coordinates":[83.9362878,28.2776599]}},{"type":"Feature","id":"node/5543309621","properties":{"type":"node","id":5543309621,"tags":{"amenity":"clinic","name":"Mata Manakamana Aayurveda Clinic","source":"2cpokhara"},"relations":[],"meta":{"timestamp":"2018-04-10T16:32:12Z","version":1,"changeset":57978508,"user":"Active Asmita","uid":7644107}},"geometry":{"type":"Point","coordinates":[83.9908726,28.219589]}},{"type":"Feature","id":"node/5543535034","properties":{"type":"node","id":5543535034,"tags":{"amenity":"clinic","contact:phone":"9867690641","name":"Haribasu Neuro Ortho Physiotherapy Clinic","source":"2cpokhara"},"relations":[],"meta":{"timestamp":"2018-04-10T18:29:24Z","version":1,"changeset":57981857,"user":"Active Asmita","uid":7644107}},"geometry":{"type":"Point","coordinates":[83.9887643,28.2127539]}},{"type":"Feature","id":"node/5544172889","properties":{"type":"node","id":5544172889,"tags":{"amenity":"clinic","contact:phone":"061-532963, 061-531847","name":"Gandaki Imaging & Diagnostic Center","source":"2cpokhara"},"relations":[],"meta":{"timestamp":"2018-04-11T03:16:11Z","version":1,"changeset":57990378,"user":"Active Asmita","uid":7644107}},"geometry":{"type":"Point","coordinates":[83.991013,28.2230574]}},{"type":"Feature","id":"node/5544259282","properties":{"type":"node","id":5544259282,"tags":{"amenity":"clinic","contact:phone":"061-535560","name":"Gastro Care","source":"2cpokhara"},"relations":[],"meta":{"timestamp":"2018-04-11T04:29:29Z","version":1,"changeset":57991353,"user":"Active Asmita","uid":7644107}},"geometry":{"type":"Point","coordinates":[83.9845224,28.2080143]}},{"type":"Feature","id":"node/5571113311","properties":{"type":"node","id":5571113311,"tags":{"amenity":"clinic","name":"Himalyan Medicine Shop","operator":"private"},"relations":[],"meta":{"timestamp":"2018-04-22T14:23:45Z","version":1,"changeset":58311402,"user":"Bijay adhikari","uid":7643850}},"geometry":{"type":"Point","coordinates":[83.9832667,28.2344796]}},{"type":"Feature","id":"node/5571115937","properties":{"type":"node","id":5571115937,"tags":{"amenity":"clinic","name":"Dipendra Medical Hall","operator":"private"},"relations":[],"meta":{"timestamp":"2018-04-22T14:23:47Z","version":1,"changeset":58311402,"user":"Bijay adhikari","uid":7643850}},"geometry":{"type":"Point","coordinates":[83.9833901,28.2323463]}},{"type":"Feature","id":"node/5578045430","properties":{"type":"node","id":5578045430,"tags":{"amenity":"clinic","contact:phone":"061-533742","name":"Dolphin Dental Care","operator:type":"private","source":"2c peset"},"relations":[],"meta":{"timestamp":"2018-04-25T09:26:56Z","version":1,"changeset":58402131,"user":"sadeepta dh","uid":4851333}},"geometry":{"type":"Point","coordinates":[83.9846573,28.2116302]}},{"type":"Feature","id":"node/5578045435","properties":{"type":"node","id":5578045435,"tags":{"amenity":"clinic","contact:phone":"061-550074","name":"Marie Stopes Nepal","source":"2c peset"},"relations":[],"meta":{"timestamp":"2018-04-25T09:26:57Z","version":1,"changeset":58402131,"user":"sadeepta dh","uid":4851333}},"geometry":{"type":"Point","coordinates":[83.9836513,28.2106696]}},{"type":"Feature","id":"node/5578045440","properties":{"type":"node","id":5578045440,"tags":{"amenity":"clinic","contact:phone":"061-520503","name":"United Reference Laboratory","opening_hours":"6:30-19:00","operator:type":"private","source":"2c peset"},"relations":[],"meta":{"timestamp":"2018-04-25T09:26:57Z","version":1,"changeset":58402131,"user":"sadeepta dh","uid":4851333}},"geometry":{"type":"Point","coordinates":[83.9847229,28.2111204]}},{"type":"Feature","id":"node/5587559348","properties":{"type":"node","id":5587559348,"tags":{"amenity":"clinic","name":"Young Friendly Sex and Fertility clinic","opening_hours":"1:00-3:00","operator":"Nepal Goverment"},"relations":[],"meta":{"timestamp":"2018-04-30T07:07:58Z","version":1,"changeset":58545307,"user":"LonelyNarayan","uid":7644124}},"geometry":{"type":"Point","coordinates":[83.8891923,28.2390827]}},{"type":"Feature","id":"node/5598345052","properties":{"type":"node","id":5598345052,"tags":{"amenity":"clinic","name":"Sahi Medical Hall"},"relations":[],"meta":{"timestamp":"2018-05-05T09:35:26Z","version":1,"changeset":58703104,"user":"Bijay adhikari","uid":7643850}},"geometry":{"type":"Point","coordinates":[84.0124914,28.214203]}},{"type":"Feature","id":"node/5598345128","properties":{"type":"node","id":5598345128,"tags":{"amenity":"clinic","name":"Kuwan Medical","phone":"9846010687"},"relations":[],"meta":{"timestamp":"2018-05-05T09:35:28Z","version":1,"changeset":58703104,"user":"Bijay adhikari","uid":7643850}},"geometry":{"type":"Point","coordinates":[84.0114765,28.2103676]}},{"type":"Feature","id":"node/5645230506","properties":{"type":"node","id":5645230506,"tags":{"amenity":"clinic","healthcare":"laboratory","laboratory":"blood_check","name":"New Gandaki Pathology Service","name:ne":"न्यु गण्डकी प्याथोलोजी सेवा"},"relations":[],"meta":{"timestamp":"2018-05-27T05:48:23Z","version":1,"changeset":59306511,"user":"Ro Sun","uid":3112087}},"geometry":{"type":"Point","coordinates":[84.0025599,28.2169819]}}],"createdOn":1528107323054}