{"type":"FeatureCollection","features":[{"type":"Feature","id":"way/120494910","properties":{"type":"way","id":120494910,"tags":{"amenity":"college","building":"yes","contact:email":"hgs.pokhara@sosnepal.org.np","contact:phone":"061-463307","name":"SOS Hermann Gmeiner Sshool","name:ne":"एसओएस हर्मनमाइनर विद्यालय","operator":"donor","personnel:count":"54","source":"2C_Pokhara Field Visit 2018","student:count":"286","website":"www.sosnepal.org.np"},"relations":[],"meta":{"timestamp":"2018-06-04T04:31:21Z","version":4,"changeset":59522625,"user":"Manoj Thapa","uid":781054}},"geometry":{"type":"Point","coordinates":[83.97847020833332,28.189366708333328]}},{"type":"Feature","id":"way/120634903","properties":{"type":"way","id":120634903,"tags":{"amenity":"college","contact:email":"info@iof.edu.np","contact:phone":"+97761430469","contact:website":"http://www.iof.edu.np","name":"Institute of Forestry","name:ne":"बनक्याम्पस"},"relations":[],"meta":{"timestamp":"2017-11-16T04:16:53Z","version":12,"changeset":53828147,"user":"Ro Sun","uid":3112087}},"geometry":{"type":"Point","coordinates":[83.99283326304348,28.187810458695655]}},{"type":"Feature","id":"way/120725677","properties":{"type":"way","id":120725677,"tags":{"alt_name":"Pokhara Lincoln College","amenity":"college","building":"yes","contact:phone":"061531964","contact:website":"www.plic.edu.np","description":"course offered are: Bachelor of Business Administration (BBA) and Bachelor of Science (Hons.) in Hospitality Management","name":"Pokhara Lincoln International College","name:ne":"पोखरा लिंकन इन्टरनेशनल कलेज","operator:type":"private","source":"2C_Pokhara Field Visit 2018"},"relations":[],"meta":{"timestamp":"2018-06-04T10:14:03Z","version":7,"changeset":59531648,"user":"Manoj Thapa","uid":781054}},"geometry":{"type":"Point","coordinates":[83.97561355,28.21026011666667]}},{"type":"Feature","id":"way/120728618","properties":{"type":"way","id":120728618,"tags":{"addr:place":"Bhimakali Patan","amenity":"college","contact:email":"info@pncampus.edu.np","contact:phone":"+977-61-526837, 520142","contact:website":"www.pncampus.edu.np","name":"Prithivi Narayan Campus","name:ne":"पृथ्वीनारायण क्याम्पस","source":"http://en.wikipedia.org/wiki/Prithivi_Narayan_Campus"},"relations":[],"meta":{"timestamp":"2018-06-04T13:00:02Z","version":13,"changeset":59537020,"user":"marek kleciak","uid":338611}},"geometry":{"type":"Point","coordinates":[83.99063696190477,28.240383523809523]}},{"type":"Feature","id":"way/120748084","properties":{"type":"way","id":120748084,"tags":{"alt_name":"Pashchimanchal Campus","alt_name_1":"WRC","amenity":"college","contact:email":"info@wrc.edu.np","contact:phone":"061-440457,061-440463,061-440093,061-440465","internet_access":"yes","name":"Institute of Engineering Pashchimanchal Campus","name:ne":"ईन्जिनियारीङ अध्ययन संस्थान पश्चिमान्चल क्याम्पस","operator":"Institute of Engineering","source":"2cpokhara","student:count":"1488","website":"wrc.edu.np"},"relations":[],"meta":{"timestamp":"2018-02-27T03:53:54Z","version":16,"changeset":56709188,"user":"Rabin Ojha","uid":6075053}},"geometry":{"type":"Point","coordinates":[83.97704091250002,28.254413367500007]}},{"type":"Feature","id":"way/120748085","properties":{"type":"way","id":120748085,"tags":{"amenity":"college","name":"Manipal College of Medical Sciences","name:ne":"मनिपाल कलेज चिकित्सा तथा विज्ञान"},"relations":[],"meta":{"timestamp":"2018-02-25T13:18:07Z","version":6,"changeset":56660853,"user":"Rabin Ojha","uid":6075053}},"geometry":{"type":"Point","coordinates":[83.98615172857144,28.25123807857143]}},{"type":"Feature","id":"way/226380002","properties":{"type":"way","id":226380002,"tags":{"addr:street":"Janapriya Marga","amenity":"college","contact:email":"info@janapriya.edu.np","contact:phone":"061-531822, 061-522287, 061-527723","name":"Janapriya Multiple college","name:ne":"जनप्रिय मल्टिपल कलेज","operator:type":"community","source":"2c peset","website":"www.janapriya.edu.np"},"relations":[],"meta":{"timestamp":"2018-04-25T06:26:54Z","version":8,"changeset":58397602,"user":"sadeepta dh","uid":4851333}},"geometry":{"type":"Point","coordinates":[83.97837586666667,28.203409166666663]}},{"type":"Feature","id":"way/306493881","properties":{"type":"way","id":306493881,"tags":{"amenity":"college","name":"PCM College","name:ne":"पि. सि. यम्. कलेज"},"relations":[],"meta":{"timestamp":"2016-08-11T07:44:12Z","version":4,"changeset":41382887,"user":"Parassrest","uid":3569249}},"geometry":{"type":"Point","coordinates":[83.990495975,28.228784824999998]}},{"type":"Feature","id":"way/341300913","properties":{"type":"way","id":341300913,"tags":{"amenity":"college","building":"yes","name":"Janapriya Multiple College(BBA Building)","name:ne":"जनप्रिय मल्टिपल कलेज (बी.बी.ए भवन)","opening_hours":"09:00-17:00","wheelchair":"no"},"relations":[],"meta":{"timestamp":"2018-04-25T06:26:54Z","version":4,"changeset":58397602,"user":"sadeepta dh","uid":4851333}},"geometry":{"type":"Point","coordinates":[83.97899836666666,28.2023782]}},{"type":"Feature","id":"way/341899205","properties":{"type":"way","id":341899205,"tags":{"amenity":"college","building":"yes","name":"Gandaki College Of Engineering And Sciences","name:ne":"गण्डकी कलेज अफ इन्जीनिअरिङ्ग एंड साइन्स"},"relations":[],"meta":{"timestamp":"2018-05-30T09:25:12Z","version":6,"changeset":59391855,"user":"marek kleciak","uid":338611}},"geometry":{"type":"Point","coordinates":[83.970553,28.2589024625]}},{"type":"Feature","id":"way/403795581","properties":{"type":"way","id":403795581,"tags":{"addr:city":"Pokhara","amenity":"college","name":"Pokhara Nursing College","name:ne":"पोखरा नर्सिङ्ग क्याम्पस","operator":"Nepal Government"},"relations":[],"meta":{"timestamp":"2018-05-27T07:17:05Z","version":7,"changeset":59307588,"user":"Ro Sun","uid":3112087}},"geometry":{"type":"Point","coordinates":[83.99891484705883,28.214277141176474]}},{"type":"Feature","id":"way/404671128","properties":{"type":"way","id":404671128,"tags":{"amenity":"college","building":"yes","name":"Plus 2 building","name:ne":"प्लस २ भवन","opening_hours":"10 am to 4 pm Sunday To Friday","operator":"Nepalese Army Welfare Fund"},"relations":[],"meta":{"timestamp":"2016-10-05T06:15:32Z","version":3,"changeset":42648551,"user":"Binit Chhantyal","uid":4110532}},"geometry":{"type":"Point","coordinates":[83.9940197,28.223957887500003]}},{"type":"Feature","id":"way/414297782","properties":{"type":"way","id":414297782,"tags":{"addr:city":"Pokhara Lekhnath Municipality","addr:place":"Palikhechowk 9","addr:street":"Mahendrapool","amenity":"college","contact:website":"www.prativahss.edu","name":"Prativa Higher Secondary School","name:ne":"प्रतिभा उच्च मा. वि.","operator":"Private"},"relations":[],"meta":{"timestamp":"2017-08-09T09:19:04Z","version":5,"changeset":50966036,"user":"Shirisha Dhakal","uid":6447912}},"geometry":{"type":"Point","coordinates":[83.99154403333334,28.22557258333333]}},{"type":"Feature","id":"way/414745033","properties":{"type":"way","id":414745033,"tags":{"addr:place":"Nadipur","amenity":"college","name":"Kanya Campus","name:ne":"कन्या क्याम्पस"},"relations":[],"meta":{"timestamp":"2018-05-15T04:27:28Z","version":6,"changeset":58970447,"user":"Ro Sun","uid":3112087}},"geometry":{"type":"Point","coordinates":[83.9911446,28.231930125]}},{"type":"Feature","id":"way/416518006","properties":{"type":"way","id":416518006,"tags":{"addr:city":"Pokhara","addr:street":"Simalchaur","amenity":"college","name":"LA GRANDEE Int'l College","name:ne":"एल ए ग्राण्डइ इन्टरन्यासनल कलेज","operator":"Private"},"relations":[],"meta":{"timestamp":"2016-10-06T04:08:35Z","version":3,"changeset":42673912,"user":"ayushupreti22","uid":3911278}},"geometry":{"type":"Point","coordinates":[83.97618315000001,28.2067154]}},{"type":"Feature","id":"way/416823545","properties":{"type":"way","id":416823545,"tags":{"amenity":"college","name":"Vindabasini Higher Secondary School","name:ne":"बिन्दबासिनी उच्च माध्यमिक बिध्यालय","operator:type":"government","personnel:count":"14","source":"2cpokhara","student:count":"90"},"relations":[],"meta":{"timestamp":"2018-02-26T05:58:23Z","version":10,"changeset":56678695,"user":"Rabin Ojha","uid":6075053}},"geometry":{"type":"Point","coordinates":[83.97940325714286,28.263505014285716]}},{"type":"Feature","id":"way/416835844","properties":{"type":"way","id":416835844,"tags":{"amenity":"college","name":"Nepal Tourism & Hotel Management College","name:ne":"नेपाल टुरिसम एंड होटल म्यनजमेन्ट कलेज","phone":"061-432333,061-431678"},"relations":[],"meta":{"timestamp":"2016-08-28T06:36:28Z","version":2,"changeset":41748873,"user":"Bishal9841","uid":3573216}},"geometry":{"type":"Point","coordinates":[84.021392075,28.1718033375]}},{"type":"Feature","id":"way/416860102","properties":{"type":"way","id":416860102,"tags":{"amenity":"college","building":"yes","contact:phone":"061-540120","name":"Soch College of IT","name:ne":"सोच कलेज अफ आइ. टी.","operator":"private","operator:type":"private","source":"2C_Pokhara Field Visit 2018"},"relations":[],"meta":{"timestamp":"2018-06-04T05:46:03Z","version":4,"changeset":59523762,"user":"Manoj Thapa","uid":781054}},"geometry":{"type":"Point","coordinates":[83.9975963,28.222014599999998]}},{"type":"Feature","id":"way/417201326","properties":{"type":"way","id":417201326,"tags":{"amenity":"college","name":"Pokhara Engineering College","name:ne":"पोखरा इन्जीनियरीङ् कलेज","opening_hours":"sunrise-sunset"},"relations":[],"meta":{"timestamp":"2016-10-27T09:27:46Z","version":4,"changeset":43213134,"user":"Manoj Thapa","uid":781054}},"geometry":{"type":"Point","coordinates":[83.97731650555556,28.21093163888889]}},{"type":"Feature","id":"way/417201327","properties":{"type":"way","id":417201327,"tags":{"amenity":"college","name":"Pokhara Engineering College","name:ne":"पोखरा इंजीनियरिंग कलेज","opening_hours":"sunrise-sunset"},"relations":[],"meta":{"timestamp":"2016-09-21T07:34:02Z","version":2,"changeset":42316437,"user":"Alisha12","uid":4204463}},"geometry":{"type":"Point","coordinates":[83.976720275,28.211056275]}},{"type":"Feature","id":"way/417496456","properties":{"type":"way","id":417496456,"tags":{"addr:city":"Pokhara Lekhnath Municipality","addr:place":"Darbarthok Marga 9","addr:street":"Nayabazar","amenity":"college","name":"Sagarmatha Higher Secondary School","name:ne":"सगरमाथा हाईएर सेकेण्डरी स्कुल","source":"Agriculture and Food Security Mapping"},"relations":[],"meta":{"timestamp":"2017-08-09T14:13:31Z","version":5,"changeset":50974912,"user":"Shirisha Dhakal","uid":6447912}},"geometry":{"type":"Point","coordinates":[83.98920772142857,28.21989427857142]}},{"type":"Feature","id":"way/421275260","properties":{"type":"way","id":421275260,"tags":{"amenity":"college","building":"yes","name":"Shiva Shakti Campus","name:ne":"शिव शक्ति क्याम्पस","source":"2cpokhara"},"relations":[],"meta":{"timestamp":"2018-06-04T05:46:03Z","version":3,"changeset":59523762,"user":"Manoj Thapa","uid":781054}},"geometry":{"type":"Point","coordinates":[83.99978395,28.22926411666667]}},{"type":"Feature","id":"way/425261575","properties":{"type":"way","id":425261575,"tags":{"amenity":"college","name":"Pokhara Higher Secondary School","name:ne":"पोखरा उच्च मा. वि ."},"relations":[],"meta":{"timestamp":"2016-10-28T06:42:48Z","version":2,"changeset":43238109,"user":"Ro Sun","uid":3112087}},"geometry":{"type":"Point","coordinates":[83.98845460869565,28.23841008695652]}},{"type":"Feature","id":"way/425277051","properties":{"type":"way","id":425277051,"tags":{"amenity":"college","name":"Gupteshwor Mahadev Multiple Campus","name:ne":"गुप्तेशोर महादेव मल्टिपल क्याम्पस","opening_hours":"09:00-17:00","operator":"Government","wheelchair":"no"},"relations":[],"meta":{"timestamp":"2018-03-07T12:21:00Z","version":4,"changeset":56966929,"user":"Sagarsubedi205","uid":7632456}},"geometry":{"type":"Point","coordinates":[83.9578,28.188873200000003]}},{"type":"Feature","id":"way/425289423","properties":{"type":"way","id":425289423,"tags":{"alt_name":"Janaprakash Multipal Campus","amenity":"college","name":"Shree Janaprakash Bahumukhi Campus","name:ne":"श्री जनप्रकाश बहुमुखी क्याम्पस","operator:type":"government","source":"2C_Pokhara Field Visit 2018"},"relations":[],"meta":{"timestamp":"2018-06-04T06:02:42Z","version":2,"changeset":59524083,"user":"Manoj Thapa","uid":781054}},"geometry":{"type":"Point","coordinates":[84.06586033333333,28.15064166666667]}},{"type":"Feature","id":"way/425475957","properties":{"type":"way","id":425475957,"tags":{"alt_name":"Regional College of Health Science & Technology (RE-COHST)","amenity":"college","name":"Pokhara Bigyan Tatha Prabidhi Campus","name:ne":"पोखरा बिज्ञान तथा प्रबिधि क्याम्पस"},"relations":[],"meta":{"timestamp":"2016-08-21T06:37:00Z","version":2,"changeset":41587595,"user":"Alisha12","uid":4204463}},"geometry":{"type":"Point","coordinates":[83.9895778,28.218098270000002]}},{"type":"Feature","id":"way/426274738","properties":{"type":"way","id":426274738,"tags":{"amenity":"college","contact:email":"www.macpokhara.edu.np","contact:phone":"061-532636","name":"Mount Annapurna Campus","name:ne":"माउण्ट अन्नपूर्ण क्याम्पस","operator:type":"private","source":"2cpokhara"},"relations":[],"meta":{"timestamp":"2018-04-05T10:37:07Z","version":3,"changeset":57830409,"user":"Madan Acharya","uid":7707025}},"geometry":{"type":"Point","coordinates":[83.9958255,28.234371580000005]}},{"type":"Feature","id":"way/426768972","properties":{"type":"way","id":426768972,"tags":{"addr:city":"Pokhara Lekhnath Metropolitan City","addr:street":"Srijana Chowk","amenity":"college","contact:phone":"061531738","establish":"2056","name":"Pokhara Multimodel Campus","name:ne":"पोखरा मल्टिमोडल क्याम्पस","operator:type":"private","source":"DEO, Kaski"},"relations":[],"meta":{"timestamp":"2017-08-13T08:32:03Z","version":5,"changeset":51075235,"user":"Sanjeev brl","uid":6447910}},"geometry":{"type":"Point","coordinates":[83.97961469166667,28.212395533333336]}},{"type":"Feature","id":"way/433833933","properties":{"type":"way","id":433833933,"tags":{"amenity":"college","name":"Novel Academy","name:ne":"नोवेल एकादमी","operator":"private"},"relations":[],"meta":{"timestamp":"2016-08-07T06:28:16Z","version":2,"changeset":41298340,"user":"Parassrest","uid":3569249}},"geometry":{"type":"Point","coordinates":[83.983988775,28.213441349999997]}},{"type":"Feature","id":"way/438251710","properties":{"type":"way","id":438251710,"tags":{"amenity":"college","contact:phone":"061-527903; 061-526458; 061-431678; 061-432333","name":"Nepal Tourism And Hotel Management Collage","name:ne":"नेपाल टुरिजम एड होटल म्यानेजमेन्ट कलेज","opening_hours":"06:00-15:00","operator":"private","operator:type":"private","phone":"061-527903; 061-526458; 061-431678; 061-432333","source":"2C_Pokhara Field Visit 2018"},"relations":[],"meta":{"timestamp":"2018-06-04T10:05:35Z","version":3,"changeset":59531382,"user":"Manoj Thapa","uid":781054}},"geometry":{"type":"Point","coordinates":[83.98801622500001,28.226319008333334]}},{"type":"Feature","id":"way/488844239","properties":{"type":"way","id":488844239,"tags":{"amenity":"college","name":"Machhapuchchre Campus"},"relations":[],"meta":{"timestamp":"2017-04-28T07:05:47Z","version":2,"changeset":48218344,"user":"Manoj Thapa","uid":781054}},"geometry":{"type":"Point","coordinates":[83.85318096666667,28.284069975000005]}},{"type":"Feature","id":"way/548940977","properties":{"type":"way","id":548940977,"tags":{"amenity":"college","name":"Kalika College","name:ne":"कालिका क्याम्पस"},"relations":[],"meta":{"timestamp":"2017-12-25T07:06:42Z","version":1,"changeset":54900824,"user":"Ro Sun","uid":3112087}},"geometry":{"type":"Point","coordinates":[84.00335138571428,28.192863471428574]}},{"type":"Feature","id":"way/563982895","properties":{"type":"way","id":563982895,"tags":{"amenity":"college","name":"Gaurishankar Multiple Campus","name:ne":"गौरीशंकर बहुमुखी क्याम्पस","opening_hours":"Su-Fr 10:00-16:00","operator":"government","operator:type":"government","phone":"061-400059","source":"2C_Pokhara Field Visit 2018","wheelchair":"yes"},"relations":[],"meta":{"timestamp":"2018-06-04T06:02:42Z","version":3,"changeset":59524083,"user":"Manoj Thapa","uid":781054}},"geometry":{"type":"Point","coordinates":[83.9342848125,28.284664624999998]}},{"type":"Feature","id":"way/566711569","properties":{"type":"way","id":566711569,"tags":{"addr:street":"Sidhartha Highway","alt_name":"Gupteshwor College","amenity":"college","email":"gupteshwormmc@gmail.com","name":"Gupteshwor Mahadev Multiple Campus","name:ne":"गुप्तेश्वर महादेव बहुमुखी क्याम्पस","operator:type":"government","phone":"97761465677","source":"2C_Pokhara Field Visit 2018"},"relations":[],"meta":{"timestamp":"2018-06-04T06:02:42Z","version":2,"changeset":59524083,"user":"Manoj Thapa","uid":781054}},"geometry":{"type":"Point","coordinates":[83.96047767499999,28.1912191125]}},{"type":"Feature","id":"way/570635916","properties":{"type":"way","id":570635916,"tags":{"amenity":"college","name":"Gandaki Medical Collage","name:ne":"गण्डकी मेडिकल कलेज","operator:type":"private","source":"2C_Pokhara Field Visit 2018"},"relations":[],"meta":{"timestamp":"2018-06-04T08:50:59Z","version":2,"changeset":59528842,"user":"Manoj Thapa","uid":781054}},"geometry":{"type":"Point","coordinates":[84.04311797058824,28.171230970588237]}},{"type":"Feature","id":"way/584864586","properties":{"type":"way","id":584864586,"tags":{"amenity":"college","name":"Fab School Of Hotel Management","name:ne":"फ्याब स्कूल अफ होटेल म्यानेजमेन्ट","opening_hours":"Su-Fr 10:00-16:00","operator":"private","operator:type":"private","personnel:count":"5","phone":"061620364","source":"2C_Pokhara Field Visit 2018","student:count":"40","wheelchair":"yes"},"relations":[],"meta":{"timestamp":"2018-06-04T08:58:17Z","version":4,"changeset":59529050,"user":"Manoj Thapa","uid":781054}},"geometry":{"type":"Point","coordinates":[83.93720297000002,28.187468799999998]}},{"type":"Feature","id":"way/591309605","properties":{"type":"way","id":591309605,"tags":{"amenity":"college","name":"Pokhara Technical School","name:ne":"पोखरा प्राविधिक शिक्षालय"},"relations":[],"meta":{"timestamp":"2018-05-27T06:26:59Z","version":1,"changeset":59306961,"user":"Ro Sun","uid":3112087}},"geometry":{"type":"Point","coordinates":[84.00125235555555,28.221938833333333]}},{"type":"Feature","id":"way/591829986","properties":{"type":"way","id":591829986,"tags":{"amenity":"college","building":"yes","name":"Manipal Teaching Hospital","name:ne":"मणिपाल शिक्षण अस्पताल","source":"2C_Pokhara Field Visit 2018"},"relations":[],"meta":{"timestamp":"2018-06-04T09:48:26Z","version":2,"changeset":59530740,"user":"Manoj Thapa","uid":781054}},"geometry":{"type":"Point","coordinates":[83.99753816500001,28.236022984999998]}},{"type":"Feature","id":"node/4245899401","properties":{"type":"node","id":4245899401,"tags":{"amenity":"college","name":"Mount Valley Collage","name:ne":"मौन्ट भ्याली कलेज"},"relations":[],"meta":{"timestamp":"2016-10-28T06:42:48Z","version":3,"changeset":43238109,"user":"Ro Sun","uid":3112087}},"geometry":{"type":"Point","coordinates":[83.9885516,28.2383658]}},{"type":"Feature","id":"node/4246232877","properties":{"type":"node","id":4246232877,"tags":{"amenity":"college","name":"Sublime Higher Secondary School","name:ne":"सब्लामी उच्च माध्यमिक स्कूल","operator:type":"government","source":"DEO, Kaski"},"relations":[],"meta":{"timestamp":"2018-03-15T10:31:06Z","version":4,"changeset":57206102,"user":"Ro Sun","uid":3112087}},"geometry":{"type":"Point","coordinates":[83.975617,28.2049961]}},{"type":"Feature","id":"node/4296155914","properties":{"type":"node","id":4296155914,"tags":{"addr:city":"Pokhara Lekhnath Metropolitan City","addr:street":"Srijana Chowk","amenity":"college","contact:phone":"061525183","name":"Heritage College","name:ne":"हेरिटेज कलेज"},"relations":[],"meta":{"timestamp":"2017-08-13T08:32:03Z","version":3,"changeset":51075235,"user":"Sanjeev brl","uid":6447910}},"geometry":{"type":"Point","coordinates":[83.9788319,28.2122835]}},{"type":"Feature","id":"node/4297497638","properties":{"type":"node","id":4297497638,"tags":{"addr:street":"Gairapatan","amenity":"college","contact:phone":"061522376,061541324","fixme":"A level","internet_access":"yes","name":"Cosmos International College","name:ne":"कस्मस ईटरनेश्नल कलेज","operator":"private","personnel:count":"22","start_date":"2065BS","student:count":"90"},"relations":[],"meta":{"timestamp":"2018-03-01T18:56:02Z","version":6,"changeset":56798163,"user":"mueschel","uid":616774}},"geometry":{"type":"Point","coordinates":[83.9905121,28.2260661]}},{"type":"Feature","id":"node/4297508811","properties":{"type":"node","id":4297508811,"tags":{"amenity":"college","name":"InfoMax College","name:en":"Infomatics Collage Pokhara","name:ne":"इन्फो म्याक्स कलेज","operator":"Private"},"relations":[],"meta":{"timestamp":"2017-03-31T10:53:41Z","version":3,"changeset":47321324,"user":"Ro Sun","uid":3112087}},"geometry":{"type":"Point","coordinates":[84.0021435,28.2141475]}},{"type":"Feature","id":"node/4297546093","properties":{"type":"node","id":4297546093,"tags":{"amenity":"college","name":"Mahendra Multiple Campus","name:ne":"महेन्द्र मल्टिपल क्याम्पस","operator":"government"},"relations":[],"meta":{"timestamp":"2016-08-09T11:55:48Z","version":3,"changeset":41343777,"user":"Alisha12","uid":4204463}},"geometry":{"type":"Point","coordinates":[83.9905129,28.2196235]}},{"type":"Feature","id":"node/4297575494","properties":{"type":"node","id":4297575494,"tags":{"amenity":"college","name":"Bhadrakali Multiple Campus","name:ne":"भद्रकालि बहुमुखी क्याम्पस"},"relations":[],"meta":{"timestamp":"2018-05-27T05:48:24Z","version":3,"changeset":59306511,"user":"Ro Sun","uid":3112087}},"geometry":{"type":"Point","coordinates":[84.0122044,28.2137445]}},{"type":"Feature","id":"node/4597736290","properties":{"type":"node","id":4597736290,"tags":{"addr:city":"Pokhara Lekhnath Metropolitan City","addr:place":"Laxmi Adarsha Tole","amenity":"college","name":"Laxmi Adarsha College","name:ne":"लक्ष्मी आदर्स कलेज","operator:type":"private","source":"2C_Pokhara Field Visit 2018"},"relations":[],"meta":{"timestamp":"2018-06-04T09:48:26Z","version":4,"changeset":59530740,"user":"Manoj Thapa","uid":781054}},"geometry":{"type":"Point","coordinates":[84.0634299,28.1712576]}},{"type":"Feature","id":"node/5027784617","properties":{"type":"node","id":5027784617,"tags":{"addr:city":"Pokhara Lekhnath M.City","addr:place":"Puranchar","addr:street":"Bharati Bhawan Marg","amenity":"college","name":"Prakritik Swrot Baybasthapan College","name:ne":"प्राकृतिक स्रोत ब्वास्थापन क्याम्पस","opening_hours":"Su-Fr 10:00-16:00","operator":"Community"},"relations":[],"meta":{"timestamp":"2018-05-31T10:23:27Z","version":2,"changeset":59425167,"user":"Manoj Thapa","uid":781054}},"geometry":{"type":"Point","coordinates":[83.9470214,28.2917458]}},{"type":"Feature","id":"node/5649299511","properties":{"type":"node","id":5649299511,"tags":{"amenity":"college","name":"Kalika Multiple Campus","name:ne":"कालिका बहुमुखीक्याम्पस"},"relations":[],"meta":{"timestamp":"2018-05-29T10:43:01Z","version":1,"changeset":59363762,"user":"Ro Sun","uid":3112087}},"geometry":{"type":"Point","coordinates":[83.9983776,28.2013281]}}],"createdOn":1528366595624}