{"type":"FeatureCollection","features":[{"type":"Feature","id":"way/398657501","properties":{"type":"way","id":398657501,"tags":{"amenity":"bank","building":"yes","name":"Shree Janasewa Saving & Credit Cooperative","name:ne":"श्री जनसेवा बचत तथा ऋण सहकारी संस्था","nrb_class":"co-operative","source":"2cpokhara"},"relations":[],"meta":{"timestamp":"2018-06-18T11:13:16Z","version":7,"changeset":59940318,"user":"Gaurav Thapa","uid":4212590}},"geometry":{"type":"Point","coordinates":[83.9441455,28.292478283333335]}},{"type":"Feature","id":"way/407084816","properties":{"type":"way","id":407084816,"tags":{"addr:housenumber":"13","addr:place":"Hospital Chowk, Pokhara-10","addr:street":"Gita Shanti Marga","amenity":"bank","building":"yes","building:levels":"3","name":"Shree Briddhi Saving & Credit Cooperative","nrb_class":"co-operative","phone":"061-533477"},"relations":[],"meta":{"timestamp":"2018-06-19T06:13:17Z","version":8,"changeset":59965427,"user":"Gaurav Thapa","uid":4212590}},"geometry":{"type":"Point","coordinates":[83.99926658333334,28.2115648]}},{"type":"Feature","id":"way/408736066","properties":{"type":"way","id":408736066,"tags":{"addr:city":"pokhara lekhnath-16","addr:street":"Jogimadi","amenity":"bank","building":"yes","name":"Hitaishi Saving & Credit Cooperative","name:ne":"हितैषी बचत तथा ऋण सहकारी संस्था","nrb_class":"co-operative"},"relations":[],"meta":{"timestamp":"2018-06-19T06:14:18Z","version":6,"changeset":59965459,"user":"Gaurav Thapa","uid":4212590}},"geometry":{"type":"Point","coordinates":[83.99322005,28.287702775]}},{"type":"Feature","id":"way/413550209","properties":{"type":"way","id":413550209,"tags":{"addr:street":"Simalchaur-8, Pokhara","amenity":"bank","building":"yes","contact:website":"www.sdc.com","name":"Srijana Mahila Saving & Credit Cooperative","name:en":"Srijana Mahila Bachat Tatha Rin Sahakari Sastha","nrb_class":"co-operative","phone":"061-522851","social_facility":"group_home","social_facility:for":"child;women","source":"GPS","start_date":"2037"},"relations":[],"meta":{"timestamp":"2018-06-22T15:11:50Z","version":9,"changeset":60078978,"user":"thetornado76","uid":1624486}},"geometry":{"type":"Point","coordinates":[83.98349895,28.21462563333333]}},{"type":"Feature","id":"way/414831854","properties":{"type":"way","id":414831854,"tags":{"amenity":"bank","building":"yes","email":"Pokhara@ncbl.com","name":"National Cooperative Bank","nrb_class":"co-operative","phone":"061-539404","website":"www.ncbl.com"},"relations":[],"meta":{"timestamp":"2018-06-18T11:13:16Z","version":7,"changeset":59940318,"user":"Gaurav Thapa","uid":4212590}},"geometry":{"type":"Point","coordinates":[83.98647691666667,28.21541815]}},{"type":"Feature","id":"way/415195411","properties":{"type":"way","id":415195411,"tags":{"amenity":"bank","email":"sangamsaving@gmail.com","name":"Sangam Saving and Credit Cooperative","name:ne":"संगम बचत तथा ऋण सहकारी सस्थां","nrb_class":"co-operative","phone":"061-432133"},"relations":[],"meta":{"timestamp":"2018-06-19T05:59:46Z","version":8,"changeset":59965131,"user":"Gaurav Thapa","uid":4212590}},"geometry":{"type":"Point","coordinates":[83.996851475,28.20055165]}},{"type":"Feature","id":"way/417824651","properties":{"type":"way","id":417824651,"tags":{"addr:place":"Nayabajar, Pokhara-9","amenity":"bank","building":"yes","name":"Unnati Saving & Credit Cooperative","nrb_class":"co-operative","phone":"061-524858,061-535203"},"relations":[],"meta":{"timestamp":"2018-06-18T09:04:31Z","version":5,"changeset":59936045,"user":"Gaurav Thapa","uid":4212590}},"geometry":{"type":"Point","coordinates":[83.99040413333331,28.217816133333333]}},{"type":"Feature","id":"way/418466543","properties":{"type":"way","id":418466543,"tags":{"amenity":"bank","building":"yes","name":"Dhanus Sahakari","nrb_class":"co-operative"},"relations":[],"meta":{"timestamp":"2017-11-14T06:33:47Z","version":2,"changeset":53761978,"user":"nishaadhikari","uid":3481073}},"geometry":{"type":"Point","coordinates":[83.867343875,28.281387474999995]}},{"type":"Feature","id":"way/418879437","properties":{"type":"way","id":418879437,"tags":{"addr:street":"Gairapatan","amenity":"bank","contact:phone":"061524183; 061524178","name":"Nabin Saving & Credit Cooperative","nrb_class":"co-operative","opening_hours":"10:00-15:00","source":"2C_Pokhara Field Visit 2018"},"relations":[],"meta":{"timestamp":"2018-06-18T09:40:39Z","version":7,"changeset":59937293,"user":"Gaurav Thapa","uid":4212590}},"geometry":{"type":"Point","coordinates":[83.987660625,28.226571975]}},{"type":"Feature","id":"way/419627266","properties":{"type":"way","id":419627266,"tags":{"amenity":"bank","building":"yes","name":"Dhanlaxmi Saving & Credit Cooperative","nrb_class":"co-operative","phone":"061-530582,061-530579","source":"2c pokhara"},"relations":[],"meta":{"timestamp":"2018-06-18T09:40:39Z","version":6,"changeset":59937293,"user":"Gaurav Thapa","uid":4212590}},"geometry":{"type":"Point","coordinates":[83.98568965,28.230051275]}},{"type":"Feature","id":"way/420576970","properties":{"type":"way","id":420576970,"tags":{"addr:place":"Anuman Marga, Nayabajar, Pokhara-9","amenity":"bank","atm":"no","building":"yes","email":"munalsaving@gmail.com","name":"Munal Saving & Credit Cooperative","nrb_class":"co-operative","phone":"061-541691,061-531491","source":"2cpokhara"},"relations":[],"meta":{"timestamp":"2018-06-18T10:12:52Z","version":4,"changeset":59938324,"user":"Gaurav Thapa","uid":4212590}},"geometry":{"type":"Point","coordinates":[83.9882731,28.21770175]}},{"type":"Feature","id":"way/421489660","properties":{"type":"way","id":421489660,"tags":{"Estd":"2064","amenity":"bank","building":"yes","name":"Safal Saving & Credit Cooperative","nrb_class":"co-operative","source":"2cpokhara"},"relations":[],"meta":{"timestamp":"2018-06-18T08:42:58Z","version":4,"changeset":59935339,"user":"Gaurav Thapa","uid":4212590}},"geometry":{"type":"Point","coordinates":[83.9783516,28.1936612]}},{"type":"Feature","id":"way/422597795","properties":{"type":"way","id":422597795,"tags":{"amenity":"bank","building":"yes","name":"Deurali Organic Agriculture Cooperative","nrb_class":"co-operative","operator:type":"community","source":"2cpokhara"},"relations":[],"meta":{"timestamp":"2018-06-18T09:40:39Z","version":3,"changeset":59937293,"user":"Gaurav Thapa","uid":4212590}},"geometry":{"type":"Point","coordinates":[84.00940075,28.247805325]}},{"type":"Feature","id":"way/428407909","properties":{"type":"way","id":428407909,"tags":{"amenity":"bank","building":"yes","name":"Audhogik Majdur Tatha Rin Sahakari","name:ne":"औधोगिक मजदुर तथा ऋण सहकारी संस्था","nrb_class":"co-operative","source":"2cpokhara"},"relations":[],"meta":{"timestamp":"2018-06-19T06:01:03Z","version":6,"changeset":59965164,"user":"Gaurav Thapa","uid":4212590}},"geometry":{"type":"Point","coordinates":[84.009590575,28.2019527]}},{"type":"Feature","id":"way/437408158","properties":{"type":"way","id":437408158,"tags":{"amenity":"bank","atm":"no","name":"Valam Dadakhor Cooperative","name:ne":"श्री भलाम डाडाखोर बहुउददेशीय सहकारी संस्था लिमिटेड","nrb_class":"co-operative","phone":"061-621618","source":"2cpokhara"},"relations":[],"meta":{"timestamp":"2018-06-19T06:03:18Z","version":7,"changeset":59965210,"user":"Gaurav Thapa","uid":4212590}},"geometry":{"type":"Point","coordinates":[84.009248575,28.25457585]}},{"type":"Feature","id":"way/438939818","properties":{"type":"way","id":438939818,"tags":{"addr:city":"Pokhara Lekhnath Metropolitan City","addr:place":"Lakeside","addr:street":"Khapaudi","amenity":"bank","atm":"no","building":"yes","name":"Harpan Fewa Matsya Sahakari","nrb_class":"co-operative","opening_hours":"Su-Th 10:00-16:00; Fr10:00-13:00","operator:type":"community","phone":"9806572712"},"relations":[],"meta":{"timestamp":"2018-06-18T08:37:39Z","version":5,"changeset":59935173,"user":"Gaurav Thapa","uid":4212590}},"geometry":{"type":"Point","coordinates":[83.93658475000001,28.227805875]}},{"type":"Feature","id":"way/485276350","properties":{"type":"way","id":485276350,"tags":{"amenity":"bank","building":"yes","name":"Sana Kisan Cooperative","nrb_class":"co-operative","source":"2cpokhara"},"relations":[],"meta":{"timestamp":"2018-06-19T06:12:08Z","version":3,"changeset":59965353,"user":"Gaurav Thapa","uid":4212590}},"geometry":{"type":"Point","coordinates":[84.10492745,28.2107839]}},{"type":"Feature","id":"way/541678925","properties":{"type":"way","id":541678925,"tags":{"amenity":"bank","building":"yes","name":"Hamro Gaurav Saving & Credit Cooperative","nrb_class":"co-operative","phone":"061561739","source":"2cpokhara"},"relations":[],"meta":{"timestamp":"2018-06-18T09:56:13Z","version":4,"changeset":59937811,"user":"Gaurav Thapa","uid":4212590}},"geometry":{"type":"Point","coordinates":[84.08128645000001,28.147473625]}},{"type":"Feature","id":"node/2480095263","properties":{"type":"node","id":2480095263,"tags":{"amenity":"bank","name":"Manakamana Saving & Credit Cooperative","name:ne":"मनकामना ऋण तथा सहकारी सस्था","nrb_class":"co-operative","source":"2cpokhara"},"relations":[],"meta":{"timestamp":"2018-06-18T09:56:09Z","version":10,"changeset":59937811,"user":"Gaurav Thapa","uid":4212590}},"geometry":{"type":"Point","coordinates":[83.9721695,28.2617605]}},{"type":"Feature","id":"node/4040381449","properties":{"type":"node","id":4040381449,"tags":{"amenity":"bank","atm":"no","name":"Chamero Gufa Saving & Credit Cooperative","name:ne":"चमेरो गुफा सहकारी संस्था","nrb_class":"co-operative","office":"yes","operator":"Chamere gufa sahakari santha","phone":"061441009","source":"2cpokhara"},"relations":[],"meta":{"timestamp":"2018-06-18T09:56:09Z","version":11,"changeset":59937811,"user":"Gaurav Thapa","uid":4212590}},"geometry":{"type":"Point","coordinates":[83.9788139,28.2682055]}},{"type":"Feature","id":"node/4040403901","properties":{"type":"node","id":4040403901,"tags":{"amenity":"bank","name":"Anjuli Saving & Credit Cooperative","name:ne":"अन्जुली सेभिंग एंड क्रेडिट को-अपरेटिभ लि.","nrb_class":"co-operative","office":"yes","phone":"061441712","source":"2cpokhara"},"relations":[],"meta":{"timestamp":"2018-06-18T10:12:49Z","version":8,"changeset":59938324,"user":"Gaurav Thapa","uid":4212590}},"geometry":{"type":"Point","coordinates":[83.9808724,28.2593543]}},{"type":"Feature","id":"node/4063122754","properties":{"type":"node","id":4063122754,"tags":{"amenity":"bank","name":"Sahayatri Sahakari","name:ne":"सहयात्री सहकारी","nrb_class":"co-operative","source":"2cpokhara"},"relations":[],"meta":{"timestamp":"2017-04-26T05:02:00Z","version":4,"changeset":48149441,"user":"Alisha12","uid":4204463}},"geometry":{"type":"Point","coordinates":[83.9809394,28.2113026]}},{"type":"Feature","id":"node/4148608371","properties":{"type":"node","id":4148608371,"tags":{"amenity":"bank","atm":"no","name":"Khudra Saving & Credit Cooperative","nrb_class":"co-operative","phone":"061-531482"},"relations":[],"meta":{"timestamp":"2018-06-18T11:14:42Z","version":5,"changeset":59940379,"user":"Gaurav Thapa","uid":4212590}},"geometry":{"type":"Point","coordinates":[83.9753537,28.2139909]}},{"type":"Feature","id":"node/4148608744","properties":{"type":"node","id":4148608744,"tags":{"amenity":"bank","atm":"yes","name":"Kanchan Saving & Credit Cooperative","nrb_class":"co-operative","phone":"061-531117"},"relations":[],"meta":{"timestamp":"2018-06-19T06:17:42Z","version":7,"changeset":59965549,"user":"Gaurav Thapa","uid":4212590}},"geometry":{"type":"Point","coordinates":[83.9760729,28.2155002]}},{"type":"Feature","id":"node/4170744674","properties":{"type":"node","id":4170744674,"tags":{"addr:place":"Ram Ghat, Pokhara-10","amenity":"bank","name":"Ramghat Women Saving & Credit Cooperative","name:ne":"राम घाट माहिला वचत तथा क्रेडित सहकारी संस्था","nrb_class":"co-operative","phone":"061-533769"},"relations":[],"meta":{"timestamp":"2018-06-18T09:04:25Z","version":6,"changeset":59936045,"user":"Gaurav Thapa","uid":4212590}},"geometry":{"type":"Point","coordinates":[83.9959078,28.2109777]}},{"type":"Feature","id":"node/4176490124","properties":{"type":"node","id":4176490124,"tags":{"amenity":"bank","name":"Triveni Saving & Credit Cooperative","name:ne":"त्रिभेणी सेविंग एंड क्रेडिट को-ओपेरेतिभ","nrb_class":"co-operative","source":"2cpokhara"},"relations":[],"meta":{"timestamp":"2018-06-18T09:04:25Z","version":4,"changeset":59936045,"user":"Gaurav Thapa","uid":4212590}},"geometry":{"type":"Point","coordinates":[83.9829884,28.2109757]}},{"type":"Feature","id":"node/4180609141","properties":{"type":"node","id":4180609141,"tags":{"addr:housenumber":"175","amenity":"bank","name":"Dharmasthali Saving & Credit Cooperative","name:ne":"धर्मस्थली बचत तथा ऋण सहकारी संस्था","nrb_class":"co-operative","phone":"061-524179","source":"2cpokhara"},"relations":[],"meta":{"timestamp":"2018-06-18T11:14:42Z","version":6,"changeset":59940379,"user":"Gaurav Thapa","uid":4212590}},"geometry":{"type":"Point","coordinates":[83.9782977,28.22133]}},{"type":"Feature","id":"node/4182894379","properties":{"type":"node","id":4182894379,"tags":{"amenity":"bank","name":"Samarpan Saving & Credit Cooperative","name:ne":"समर्पन बचत तथा क्रेडित को-ओपेरेतिभ","nrb_class":"co-operative","source":"2cpokhara"},"relations":[],"meta":{"timestamp":"2018-06-18T10:12:50Z","version":5,"changeset":59938324,"user":"Gaurav Thapa","uid":4212590}},"geometry":{"type":"Point","coordinates":[83.990688,28.2210512]}},{"type":"Feature","id":"node/4199833468","properties":{"type":"node","id":4199833468,"tags":{"amenity":"bank","name":"Kundahar Saving & Credit Cooperative","name:ne":"कुन्दाहर बचत एंड सहकारी संस्था प्राइभेट लिमिटेड","nrb_class":"co-operative"},"relations":[],"meta":{"timestamp":"2018-06-18T10:12:50Z","version":5,"changeset":59938324,"user":"Gaurav Thapa","uid":4212590}},"geometry":{"type":"Point","coordinates":[84.0058804,28.2046267]}},{"type":"Feature","id":"node/4225166646","properties":{"type":"node","id":4225166646,"tags":{"amenity":"bank","email":"info@royalcooperative.com","name":"Royal Saving & Credit Cooperative","name:ne":"रोयल बचत तथा ऋण सहकारी संस्था","nrb_class":"co-operative","opening_hours":"10:00-17:00","phone":"061 538833, 061 537833, 061 520933","website":"royalcooperative.com","wheelchair":"limited"},"relations":[],"meta":{"timestamp":"2018-06-18T09:04:26Z","version":8,"changeset":59936045,"user":"Gaurav Thapa","uid":4212590}},"geometry":{"type":"Point","coordinates":[83.9972182,28.2059546]}},{"type":"Feature","id":"node/4225182397","properties":{"type":"node","id":4225182397,"tags":{"amenity":"bank","name":"Shree Briddhi Saving & Credit Cooperative","name:ne":"श्री बृधि ऋण तथा सहकारी संस्था","nrb_class":"co-operative","opening_hours":"10:00- 4:00","wheelchair":"no"},"relations":[],"meta":{"timestamp":"2018-06-18T09:04:26Z","version":6,"changeset":59936045,"user":"Gaurav Thapa","uid":4212590}},"geometry":{"type":"Point","coordinates":[83.9998163,28.2121315]}},{"type":"Feature","id":"node/4227844695","properties":{"type":"node","id":4227844695,"tags":{"amenity":"bank","atm":"no","name":"Kaliksthan Krisi Sahakari","nrb_class":"co-operative","source":"2cpokhara"},"relations":[],"meta":{"timestamp":"2018-06-19T06:18:36Z","version":4,"changeset":59965574,"user":"Gaurav Thapa","uid":4212590}},"geometry":{"type":"Point","coordinates":[84.0437616,28.1436642]}},{"type":"Feature","id":"node/4246132189","properties":{"type":"node","id":4246132189,"tags":{"amenity":"bank","name":"Rupatal Punarsthapana Tahta Matshya Palnal Sahakari","name:ne":"रुपाताल पुर्नस्थापना तथा मत्छेपालन सहकारी संस्थान लि","nrb_class":"co-operative"},"relations":[],"meta":{"timestamp":"2018-06-18T11:03:35Z","version":3,"changeset":59939941,"user":"Gaurav Thapa","uid":4212590}},"geometry":{"type":"Point","coordinates":[84.1108453,28.1446088]}},{"type":"Feature","id":"node/4247962410","properties":{"type":"node","id":4247962410,"tags":{"amenity":"bank","atm":"no","name":"Kalika Saving & Credit Cooperative","name:ne":"कालिका क्रेडिट देवेलोप्मेंट","nrb_class":"co-operative","source":"2cpokhara"},"relations":[],"meta":{"timestamp":"2018-06-18T09:04:26Z","version":6,"changeset":59936045,"user":"Gaurav Thapa","uid":4212590}},"geometry":{"type":"Point","coordinates":[83.9943277,28.2065306]}},{"type":"Feature","id":"node/4297669276","properties":{"type":"node","id":4297669276,"tags":{"amenity":"bank","name":"Maheshor Consumers Cooperative","name:ne":"महेस्शोर उपभोक्ता सहकारी संस्था","nrb_class":"co-operative"},"relations":[],"meta":{"timestamp":"2018-06-18T09:04:26Z","version":5,"changeset":59936045,"user":"Gaurav Thapa","uid":4212590}},"geometry":{"type":"Point","coordinates":[84.0025372,28.2052543]}},{"type":"Feature","id":"node/4306300293","properties":{"type":"node","id":4306300293,"tags":{"addr:street":"Sidhartha Highway","amenity":"bank","atm":"no","email":"amalebachat@gmail.com","name":"Amale Saving & Credit Cooperative","name:ne":"आम्ले बचत तथा ऋण सहकरी संस्था लिमिटेड","nrb_class":"co-operative","opening_hours":"Su-Th 10:00-16:00, Fr 10:00-15:00","operator:type":"Community","phone":"061-466643","source":"2cpokhara"},"relations":[],"meta":{"timestamp":"2018-06-18T08:42:54Z","version":6,"changeset":59935339,"user":"Gaurav Thapa","uid":4212590}},"geometry":{"type":"Point","coordinates":[83.9578458,28.190313]}},{"type":"Feature","id":"node/4425067790","properties":{"type":"node","id":4425067790,"tags":{"addr:postcode":"33700","addr:street":"Simalchaur","amenity":"bank","name":"Shreejana Banking Program","nrb_class":"co-operative","opening_hours":"Su-Fr 09:00-17:00"},"relations":[],"meta":{"timestamp":"2017-07-09T10:18:57Z","version":4,"changeset":50149261,"user":"Ro Sun","uid":3112087}},"geometry":{"type":"Point","coordinates":[83.9828024,28.215838]}},{"type":"Feature","id":"node/4503763502","properties":{"type":"node","id":4503763502,"tags":{"amenity":"bank","atm":"no","name":"Majheri Saving & Credit Cooperative","name:ne":"मझेरी बचत तथा ऋण सहकारी संस्था लि.","nrb_class":"co-operative","opening_hours":"10:00-16:00","source":"2cpokhara"},"relations":[],"meta":{"timestamp":"2018-06-18T11:03:35Z","version":6,"changeset":59939941,"user":"Gaurav Thapa","uid":4212590}},"geometry":{"type":"Point","coordinates":[84.0229663,28.1777007]}},{"type":"Feature","id":"node/4514789591","properties":{"type":"node","id":4514789591,"tags":{"amenity":"bank","name":"Danfe Saving & Credit Cooperative","name:ne":"डाँफे बचत तथा ऋण सहकरी संस्था लिमिटेड","nrb_class":"co-operative","phone":"61524299","source":"2cpokhara"},"relations":[],"meta":{"timestamp":"2018-06-18T09:40:36Z","version":7,"changeset":59937293,"user":"Gaurav Thapa","uid":4212590}},"geometry":{"type":"Point","coordinates":[83.9888903,28.2412624]}},{"type":"Feature","id":"node/4515454393","properties":{"type":"node","id":4515454393,"tags":{"amenity":"bank","name":"Kalash Saving & Credit Cooperative","name:ne":"कलास बचत तथा ऋण सहकरी संस्था लिमिटेड","nrb_class":"co-operative","phone":"061-551949,061-535965","source":"2cpokhara"},"relations":[],"meta":{"timestamp":"2018-06-18T09:04:26Z","version":8,"changeset":59936045,"user":"Gaurav Thapa","uid":4212590}},"geometry":{"type":"Point","coordinates":[83.9861287,28.2171717]}},{"type":"Feature","id":"node/4515479189","properties":{"type":"node","id":4515479189,"tags":{"amenity":"bank","name":"Surachha Paluwa Saving & Credit Cooperative","name:ne":"सुरक्षा पालुवा बचत तथा ऋण सहकरी संस्था लिमिटेड","nrb_class":"co-operative","phone":"061522373","source":"2cpokhara"},"relations":[],"meta":{"timestamp":"2018-06-18T09:04:26Z","version":7,"changeset":59936045,"user":"Gaurav Thapa","uid":4212590}},"geometry":{"type":"Point","coordinates":[83.9860729,28.2170329]}},{"type":"Feature","id":"node/4568441792","properties":{"type":"node","id":4568441792,"tags":{"addr:street":"Pokhara Baglung Rajmarg","amenity":"bank","name":"Bhumeshwor Saving & Credit Cooperative","name:hi":"भुमेश्वोर बचत तथा ऋण सहकारी संस्था","nrb_class":"co-operative"},"relations":[],"meta":{"timestamp":"2018-06-18T11:14:42Z","version":4,"changeset":59940379,"user":"Gaurav Thapa","uid":4212590}},"geometry":{"type":"Point","coordinates":[83.9757496,28.2134482]}},{"type":"Feature","id":"node/4571467982","properties":{"type":"node","id":4571467982,"tags":{"addr:place":"Gauri Marga, Buddha Chowk, Pokhara-10","amenity":"bank","email":"ghardailo69@gmail.com","name":"Ghar Dailo Saving & Credit Cooperative","nrb_class":"co-operative","phone":"061-432610","source":"2cpokhara"},"relations":[],"meta":{"timestamp":"2018-06-18T09:04:26Z","version":5,"changeset":59936045,"user":"Gaurav Thapa","uid":4212590}},"geometry":{"type":"Point","coordinates":[83.9948745,28.2049575]}},{"type":"Feature","id":"node/4571467987","properties":{"type":"node","id":4571467987,"tags":{"amenity":"bank","name":"Shree Alakapur Saving & Credit Cooperative","nrb_class":"co-operative","phone":"061-432141","source":"2cpokhara"},"relations":[],"meta":{"timestamp":"2018-06-19T06:19:44Z","version":4,"changeset":59965607,"user":"Gaurav Thapa","uid":4212590}},"geometry":{"type":"Point","coordinates":[83.9948624,28.2019603]}},{"type":"Feature","id":"node/4579370622","properties":{"type":"node","id":4579370622,"tags":{"addr:city":"Pokhara","addr:street":"Sabhagriha Chowk-8, Pokhara","amenity":"bank","name":"Bhrikuti Saving & Credit Cooperative","name:ne":"भिर्कुटी बचत तथा ऋण सहकरी संस्था लिमिटेड","nrb_class":"co-operative","phone":"+977 61 536406","source":"2cpokhara"},"relations":[],"meta":{"timestamp":"2018-06-18T11:13:14Z","version":6,"changeset":59940318,"user":"Gaurav Thapa","uid":4212590}},"geometry":{"type":"Point","coordinates":[83.9851482,28.2100497]}},{"type":"Feature","id":"node/4579370626","properties":{"type":"node","id":4579370626,"tags":{"amenity":"bank","name":"Parijat Saving & Credit Cooperative","name:ne":"पारिजात बचत तथा ऋण सहकारी संस्था लिमिटेड","nrb_class":"co-operative","source":"2cpokhara"},"relations":[],"meta":{"timestamp":"2018-06-18T09:04:26Z","version":5,"changeset":59936045,"user":"Gaurav Thapa","uid":4212590}},"geometry":{"type":"Point","coordinates":[83.9849319,28.2115296]}},{"type":"Feature","id":"node/4579370637","properties":{"type":"node","id":4579370637,"tags":{"amenity":"bank","name":"Bihanil Saving & Credit Cooperative","name:ne":"बिहानी बचत तथा सहकारी संस्था लिमिटेड","nrb_class":"co-operative","source":"2cpokhara"},"relations":[],"meta":{"timestamp":"2018-06-18T09:04:26Z","version":5,"changeset":59936045,"user":"Gaurav Thapa","uid":4212590}},"geometry":{"type":"Point","coordinates":[83.9847101,28.2109998]}},{"type":"Feature","id":"node/4579370655","properties":{"type":"node","id":4579370655,"tags":{"amenity":"bank","name":"Karmasil Saving & Credit Cooperative","name:ne":"कर्मसिल बचत तथा सहकारी संस्था लिमिटेड","nrb_class":"co-operative","source":"2cpokhara"},"relations":[],"meta":{"timestamp":"2018-06-19T05:42:04Z","version":5,"changeset":59964433,"user":"Gaurav Thapa","uid":4212590}},"geometry":{"type":"Point","coordinates":[83.9846746,28.2109272]}},{"type":"Feature","id":"node/4579370656","properties":{"type":"node","id":4579370656,"tags":{"amenity":"bank","name":"Janamukti Saving & Credit Cooperative","name:ne":"जनमुक्ति बचत तथा सहकारी संस्था लिमिटेड","nrb_class":"co-operative","source":"2cpokhara"},"relations":[],"meta":{"timestamp":"2018-06-19T06:21:08Z","version":6,"changeset":59965627,"user":"Gaurav Thapa","uid":4212590}},"geometry":{"type":"Point","coordinates":[83.9846478,28.2108745]}},{"type":"Feature","id":"node/4579370658","properties":{"type":"node","id":4579370658,"tags":{"amenity":"bank","atm":"no","name":"Ujwal Saving & Credit Cooperative","name:ne":"उज्जल बचत तथा ऋण सहकरी संस्था लिमिटेड","nrb_class":"co-operative","source":"2cpokhara"},"relations":[],"meta":{"timestamp":"2018-06-18T09:04:27Z","version":4,"changeset":59936045,"user":"Gaurav Thapa","uid":4212590}},"geometry":{"type":"Point","coordinates":[83.9843471,28.211016]}},{"type":"Feature","id":"node/4579370659","properties":{"type":"node","id":4579370659,"tags":{"amenity":"bank","name":"Suryadarshan Saving & Credit Cooperative","name:ne":"सुर्यदर्सन बचत तथा ऋण सहकरी संस्था लिमिटेड","nrb_class":"co-operative","source":"2cpokhara"},"relations":[],"meta":{"timestamp":"2018-06-18T09:04:27Z","version":5,"changeset":59936045,"user":"Gaurav Thapa","uid":4212590}},"geometry":{"type":"Point","coordinates":[83.9841355,28.2107303]}},{"type":"Feature","id":"node/4579378962","properties":{"type":"node","id":4579378962,"tags":{"amenity":"bank","email":"www.subhamcooperative@gmail.com","name":"Subham Saving & Credit Cooperative","name:ne":"सुभम बचत तथा ऋण सहकरी संस्था लिमिटेड","nrb_class":"co-operative","operator":"Subham Saving and Credit Co-operative Society Limited","phone":"061-535246, 535247","source":"2cpokhara"},"relations":[],"meta":{"timestamp":"2018-06-18T09:04:27Z","version":7,"changeset":59936045,"user":"Gaurav Thapa","uid":4212590}},"geometry":{"type":"Point","coordinates":[83.9853087,28.2134969]}},{"type":"Feature","id":"node/4579378964","properties":{"type":"node","id":4579378964,"tags":{"amenity":"bank","name":"Shikhar Multipurpose Saving & Credit Cooperative","name:ne":"श्री शिखर बहुउदेश्य बचत तथा ऋण सहकारी संस्था","nrb_class":"co-operative","source":"2cpokhara"},"relations":[],"meta":{"timestamp":"2018-06-18T09:04:27Z","version":5,"changeset":59936045,"user":"Gaurav Thapa","uid":4212590}},"geometry":{"type":"Point","coordinates":[83.985703,28.2135784]}},{"type":"Feature","id":"node/4579378966","properties":{"type":"node","id":4579378966,"tags":{"amenity":"bank","name":"Lamjung Pokhara Saving & Credit Cooperative","name:ne":"लमजुंग पोखरा बचत तथा ऋण सहकरी संस्था लिमिटेड","nrb_class":"co-operative","phone":"061-538625","source":"2cpokhara"},"relations":[],"meta":{"timestamp":"2018-06-18T09:04:27Z","version":7,"changeset":59936045,"user":"Gaurav Thapa","uid":4212590}},"geometry":{"type":"Point","coordinates":[83.9854522,28.2140499]}},{"type":"Feature","id":"node/4579452345","properties":{"type":"node","id":4579452345,"tags":{"addr:city":"Pokhara","addr:street":"New Road-8, Pokhara","amenity":"bank","email":"metrocoop@outlook.com","name":"Metro Multipurpose Cooperative","name:ne":"मेट्रो बहुउदेश्य बचत तथा ऋण सहकारी संस्था","nrb_class":"co-operative","operator":"Metro Multipurpose Co-operative Society","phone":"061532002","source":"2cpokhara"},"relations":[],"meta":{"timestamp":"2018-06-18T09:40:36Z","version":6,"changeset":59937293,"user":"Gaurav Thapa","uid":4212590}},"geometry":{"type":"Point","coordinates":[83.9870628,28.2212522]}},{"type":"Feature","id":"node/4579452357","properties":{"type":"node","id":4579452357,"tags":{"amenity":"bank","name":"United Nepal Multipurpose Cooperative","name:ne":"युनाईटेड नेपाल बहुउदेश्य बचत तथा ऋण सहकारी संस्था","nrb_class":"co-operative","operator":"United Nepal Multipurpose Co-operative Society","source":"2cpokhara"},"relations":[],"meta":{"timestamp":"2018-06-18T09:40:36Z","version":4,"changeset":59937293,"user":"Gaurav Thapa","uid":4212590}},"geometry":{"type":"Point","coordinates":[83.9869562,28.2193949]}},{"type":"Feature","id":"node/4586787606","properties":{"type":"node","id":4586787606,"tags":{"amenity":"bank","name":"Darpan Saving & Credit Cooperative","name:ne":"दर्पण बचत तथा ऋण सहकरी संस्था लिमिटेड","nrb_class":"co-operative","source":"2cpokhara"},"relations":[],"meta":{"timestamp":"2018-06-18T09:04:27Z","version":6,"changeset":59936045,"user":"Gaurav Thapa","uid":4212590}},"geometry":{"type":"Point","coordinates":[83.986646,28.2178718]}},{"type":"Feature","id":"node/4586787611","properties":{"type":"node","id":4586787611,"tags":{"addr:place":"Newroad, Pokhara-8","amenity":"bank","name":"Parichaya Saving & Credit Cooperative","name:ne":"परिछ्या बचत तथा ऋण सहकरी संस्था लिमिटेड","nrb_class":"co-operative","phone":"061-539215,061-539233","source":"2cpokhara"},"relations":[],"meta":{"timestamp":"2018-06-18T09:04:27Z","version":8,"changeset":59936045,"user":"Gaurav Thapa","uid":4212590}},"geometry":{"type":"Point","coordinates":[83.986092,28.2152052]}},{"type":"Feature","id":"node/4590509451","properties":{"type":"node","id":4590509451,"tags":{"amenity":"bank","name":"Anupam Saving & Credit Cooperative","name:ne":"अनुपम बचत तथा ऋण सहकरी संस्था लिमिटेड","nrb_class":"co-operative","phone":"061-522840, 061-522841","source":"2cpokhara"},"relations":[],"meta":{"timestamp":"2018-06-18T09:40:36Z","version":7,"changeset":59937293,"user":"Gaurav Thapa","uid":4212590}},"geometry":{"type":"Point","coordinates":[83.9856944,28.2243581]}},{"type":"Feature","id":"node/4590509453","properties":{"type":"node","id":4590509453,"tags":{"amenity":"bank","name":"Kailash Saving & Credit Cooperative","name:ne":"कैलाश बचत तथा ऋण सहकरी संस्था लिमिटेड","nrb_class":"co-operative","source":"2cpokhara"},"relations":[],"meta":{"timestamp":"2018-06-18T09:40:36Z","version":5,"changeset":59937293,"user":"Gaurav Thapa","uid":4212590}},"geometry":{"type":"Point","coordinates":[83.98608,28.2242677]}},{"type":"Feature","id":"node/4590509457","properties":{"type":"node","id":4590509457,"tags":{"amenity":"bank","name":"Saral Namuna Saving & Credit Cooperative","nrb_class":"co-operative","source":"2cpokhara"},"relations":[],"meta":{"timestamp":"2018-06-18T09:40:36Z","version":4,"changeset":59937293,"user":"Gaurav Thapa","uid":4212590}},"geometry":{"type":"Point","coordinates":[83.9867382,28.2238315]}},{"type":"Feature","id":"node/4590509466","properties":{"type":"node","id":4590509466,"tags":{"amenity":"bank","name":"Deepjyoti Saving & Credit Cooperative","nrb_class":"co-operative","phone":"061-522615, 061-522616","source":"2cpokhara"},"relations":[],"meta":{"timestamp":"2018-06-18T09:40:36Z","version":6,"changeset":59937293,"user":"Gaurav Thapa","uid":4212590}},"geometry":{"type":"Point","coordinates":[83.9873677,28.2231219]}},{"type":"Feature","id":"node/4590509468","properties":{"type":"node","id":4590509468,"tags":{"amenity":"bank","name":"City Saving & Credit Cooperative","name:ne":"सिटि बचत तथा ऋण सहकरी संस्था लिमिटेड","nrb_class":"co-operative","phone":"061-534882, 061-534883","source":"2cpokhara"},"relations":[],"meta":{"timestamp":"2018-06-18T09:40:36Z","version":7,"changeset":59937293,"user":"Gaurav Thapa","uid":4212590}},"geometry":{"type":"Point","coordinates":[83.9877563,28.2229257]}},{"type":"Feature","id":"node/4597653691","properties":{"type":"node","id":4597653691,"tags":{"amenity":"bank","name":"Sworojgar Agriculture Cooperative","name:ne":"स्वोरोजगार बचत तथा ऋण सहकरी संस्था लिमिटेड","nrb_class":"co-operative","opening_hours":"Su-Fr 10:00-16:00, Fr 10:00-15:00","operator":"Sworojgar Agriculture co Operative Society","phone":"061-463978","source":"2cpokhara"},"relations":[],"meta":{"timestamp":"2018-06-18T11:13:14Z","version":7,"changeset":59940318,"user":"Gaurav Thapa","uid":4212590}},"geometry":{"type":"Point","coordinates":[83.9717231,28.192076]}},{"type":"Feature","id":"node/4599132828","properties":{"type":"node","id":4599132828,"tags":{"addr:city":"Birauta-17, Pokhara","amenity":"bank","name":"Puime Saving & Credit Cooperative","name:ne":"पुइमे बचत तथा ऋण सहकरी संस्था लिमिटेड","nrb_class":"co-operative","phone":"061-465447","source":"2cpokhara"},"relations":[],"meta":{"timestamp":"2018-06-18T08:42:55Z","version":5,"changeset":59935339,"user":"Gaurav Thapa","uid":4212590}},"geometry":{"type":"Point","coordinates":[83.9735966,28.1946919]}},{"type":"Feature","id":"node/4599306671","properties":{"type":"node","id":4599306671,"tags":{"addr:city":"Simalchaur-8, Pokhara","amenity":"bank","name":"Pokhara Multipurpose Cooperative","nrb_class":"co-operative","source":"2C Pokhara Field Data Collection"},"relations":[],"meta":{"timestamp":"2018-06-19T05:25:14Z","version":3,"changeset":59964400,"user":"Gaurav Thapa","uid":4212590}},"geometry":{"type":"Point","coordinates":[83.979453,28.2097294]}},{"type":"Feature","id":"node/4599484430","properties":{"type":"node","id":4599484430,"tags":{"amenity":"bank","name":"Gandaki Machhapuchchre Sanchar Sahakari","nrb_class":"co-operative","source":"2C Pokhara Field Data Collection"},"relations":[],"meta":{"timestamp":"2018-06-18T09:04:27Z","version":4,"changeset":59936045,"user":"Gaurav Thapa","uid":4212590}},"geometry":{"type":"Point","coordinates":[83.9896685,28.2166356]}},{"type":"Feature","id":"node/4599484431","properties":{"type":"node","id":4599484431,"tags":{"amenity":"bank","name":"Mahalaxmi Aarthik Saving & Credit Cooperative","nrb_class":"co-operative","phone":"061-539537, 061-539391","source":"2cpokhara"},"relations":[],"meta":{"timestamp":"2018-06-18T09:04:28Z","version":5,"changeset":59936045,"user":"Gaurav Thapa","uid":4212590}},"geometry":{"type":"Point","coordinates":[83.988901,28.2138639]}},{"type":"Feature","id":"node/4601187126","properties":{"type":"node","id":4601187126,"tags":{"addr:city":"Pokhara","addr:street":"New Road-8, Pokhara","amenity":"bank","name":"Civil Saving & Credit Cooperative","name:ne":"सिभिल बचत तथा ऋण सहकरी संस्था लिमिटेड","nrb_class":"co-operative","phone":"061-535261","source":"2C Pokhara Field Data Collection","start_date":"2066"},"relations":[],"meta":{"timestamp":"2018-06-18T09:05:28Z","version":6,"changeset":59936090,"user":"Gaurav Thapa","uid":4212590}},"geometry":{"type":"Point","coordinates":[83.985934,28.2183304]}},{"type":"Feature","id":"node/4601383664","properties":{"type":"node","id":4601383664,"tags":{"amenity":"bank","name":"Ghampani Sahakari","name:ne":"घामपानी बचत तथा ऋण सहकरी संस्था लिमिटेड","nrb_class":"co-operative","source":"2cpokhara"},"relations":[],"meta":{"timestamp":"2018-06-18T09:40:36Z","version":5,"changeset":59937293,"user":"Gaurav Thapa","uid":4212590}},"geometry":{"type":"Point","coordinates":[83.9879039,28.2240997]}},{"type":"Feature","id":"node/4601383667","properties":{"type":"node","id":4601383667,"tags":{"amenity":"bank","name":"Mega Saving & Credit Cooperative","name:ne":"मेघा बचत तथा ऋण सहकरी संस्था लिमिटेड","nrb_class":"co-operative","phone":"061-527288","source":"2cpokhara"},"relations":[],"meta":{"timestamp":"2018-06-18T09:40:37Z","version":5,"changeset":59937293,"user":"Gaurav Thapa","uid":4212590}},"geometry":{"type":"Point","coordinates":[83.9873032,28.2207056]}},{"type":"Feature","id":"node/4674651326","properties":{"type":"node","id":4674651326,"tags":{"amenity":"bank","atm":"no","name":"Shree Amardeep Saving & Credit Cooperative","name:ne":"श्री अमरदीप बचत तथा ऋण सहकरी संस्था लिमिटेड","nrb_class":"co-operative","source":"2cpokhara"},"relations":[],"meta":{"timestamp":"2018-06-18T10:12:50Z","version":4,"changeset":59938324,"user":"Gaurav Thapa","uid":4212590}},"geometry":{"type":"Point","coordinates":[83.9785216,28.2555797]}},{"type":"Feature","id":"node/4778236047","properties":{"type":"node","id":4778236047,"tags":{"amenity":"bank","name":"Pame Saving & Credit Cooperative","nrb_class":"co-operative","source":"2cpokhara"},"relations":[],"meta":{"timestamp":"2018-06-18T08:37:38Z","version":3,"changeset":59935173,"user":"Gaurav Thapa","uid":4212590}},"geometry":{"type":"Point","coordinates":[83.9096205,28.2358945]}},{"type":"Feature","id":"node/4780413704","properties":{"type":"node","id":4780413704,"tags":{"amenity":"bank","atm":"yes","name":"Shree Gogan Saving Cooperative","nrb_class":"co-operative"},"relations":[],"meta":{"timestamp":"2018-06-18T11:03:35Z","version":4,"changeset":59939941,"user":"Gaurav Thapa","uid":4212590}},"geometry":{"type":"Point","coordinates":[84.0925596,28.1150822]}},{"type":"Feature","id":"node/4785999321","properties":{"type":"node","id":4785999321,"tags":{"amenity":"bank","name":"Kaskikot Saving & Credit Cooperative","nrb_class":"co-operative","source":"2cpokhara"},"relations":[],"meta":{"timestamp":"2018-06-18T08:37:38Z","version":4,"changeset":59935173,"user":"Gaurav Thapa","uid":4212590}},"geometry":{"type":"Point","coordinates":[83.9137113,28.2666029]}},{"type":"Feature","id":"node/4786007124","properties":{"type":"node","id":4786007124,"tags":{"amenity":"bank","name":"Prime Saving & Credit Cooperative","nrb_class":"co-operative","phone":"061 534770","source":"2cpokhara"},"relations":[],"meta":{"timestamp":"2018-06-18T09:40:37Z","version":5,"changeset":59937293,"user":"Gaurav Thapa","uid":4212590}},"geometry":{"type":"Point","coordinates":[83.9874008,28.2268501]}},{"type":"Feature","id":"node/4786024921","properties":{"type":"node","id":4786024921,"tags":{"amenity":"bank","name":"Deurali Samudaya Saving & Credit Cooperative","name:ne":"श्री देउराली सामुदायिक बचत तथा ऋण शहकारी संस्था","nrb_class":"co-operative"},"relations":[],"meta":{"timestamp":"2018-06-18T11:13:14Z","version":5,"changeset":59940318,"user":"Gaurav Thapa","uid":4212590}},"geometry":{"type":"Point","coordinates":[83.9658883,28.2992012]}},{"type":"Feature","id":"node/4786024925","properties":{"type":"node","id":4786024925,"tags":{"amenity":"bank","name":"Sampurna Sana Kishan Krishi","name:en":"Sampurna Sana Kishan Krishi","nrb_class":"co-operative","source":"2cpokhara"},"relations":[],"meta":{"timestamp":"2017-04-28T08:27:57Z","version":3,"changeset":48220607,"user":"Ro Sun","uid":3112087}},"geometry":{"type":"Point","coordinates":[83.9548332,28.2905383]}},{"type":"Feature","id":"node/4786024926","properties":{"type":"node","id":4786024926,"tags":{"amenity":"bank","name":"Jayalaxmi Krishi Sahakari","nrb_class":"co-operative","source":"2cpokhara"},"relations":[],"meta":{"timestamp":"2018-06-18T09:56:09Z","version":3,"changeset":59937811,"user":"Gaurav Thapa","uid":4212590}},"geometry":{"type":"Point","coordinates":[83.9713803,28.2621435]}},{"type":"Feature","id":"node/4786025021","properties":{"type":"node","id":4786025021,"tags":{"amenity":"bank","name":"Shrdikhola Saving and Credit Co-operative Ltd","name:ne":"शर्दिखोला बचत तथा ऋण सहकारी संस्था","nrb_class":"co-operative"},"relations":[],"meta":{"timestamp":"2017-07-09T10:26:49Z","version":3,"changeset":50149422,"user":"Ro Sun","uid":3112087}},"geometry":{"type":"Point","coordinates":[83.9649487,28.3304131]}},{"type":"Feature","id":"node/4788190930","properties":{"type":"node","id":4788190930,"tags":{"amenity":"bank","name":"Seven Lake Saving & Credit Cooperative","nrb_class":"co-operative","opening_hours":"09:30-17:30","operator:type":"private","phone":"061-411316","source":"2cpokhara"},"relations":[],"meta":{"timestamp":"2018-06-18T10:12:50Z","version":8,"changeset":59938324,"user":"Gaurav Thapa","uid":4212590}},"geometry":{"type":"Point","coordinates":[84.0376496,28.1838696]}},{"type":"Feature","id":"node/4788190933","properties":{"type":"node","id":4788190933,"tags":{"amenity":"bank","name":"Janahit Upabhokta Saving & Credit Cooperative","nrb_class":"co-operative","source":"2cpokhara"},"relations":[],"meta":{"timestamp":"2018-06-18T09:56:09Z","version":3,"changeset":59937811,"user":"Gaurav Thapa","uid":4212590}},"geometry":{"type":"Point","coordinates":[84.0500137,28.1755341]}},{"type":"Feature","id":"node/4788190935","properties":{"type":"node","id":4788190935,"tags":{"amenity":"bank","email":"tripatheesantosh@gmail.com","name":"Nayan Saving & Credit Cooperative","name:ne":"नयन बचत तथा ऋण सहकारी लि.","nrb_class":"co-operative","phone":"061-561143","source":"2cpokhara"},"relations":[],"meta":{"timestamp":"2018-06-19T06:22:40Z","version":6,"changeset":59965671,"user":"Gaurav Thapa","uid":4212590}},"geometry":{"type":"Point","coordinates":[84.0499169,28.1751087]}},{"type":"Feature","id":"node/4788203627","properties":{"type":"node","id":4788203627,"tags":{"amenity":"bank","email":"jaldare123@gmail.com","name":"Jaldhare Saving & Credit Cooperative","nrb_class":"co-operative","opening_hours":"9:30-16:30","operator:type":"public","phone":"061411764","source":"2cpokhara"},"relations":[],"meta":{"timestamp":"2018-06-18T10:12:50Z","version":8,"changeset":59938324,"user":"Gaurav Thapa","uid":4212590}},"geometry":{"type":"Point","coordinates":[84.0375724,28.18394]}},{"type":"Feature","id":"node/4788226021","properties":{"type":"node","id":4788226021,"tags":{"amenity":"bank","name":"Janapriya Saving & Credit Cooperative","nrb_class":"co-operative","source":"2cpokhara"},"relations":[],"meta":{"timestamp":"2018-06-18T10:12:50Z","version":5,"changeset":59938324,"user":"Gaurav Thapa","uid":4212590}},"geometry":{"type":"Point","coordinates":[84.0368817,28.1838449]}},{"type":"Feature","id":"node/4788226023","properties":{"type":"node","id":4788226023,"tags":{"amenity":"bank","name":"Lekhnath Saving & Credit Cooperative","name:ne":"लेखनाथ बचत तथा ऋण सहकारी संस्था","nrb_class":"co-operative","source":"2cpokhara"},"relations":[],"meta":{"timestamp":"2018-06-18T09:56:09Z","version":5,"changeset":59937811,"user":"Gaurav Thapa","uid":4212590}},"geometry":{"type":"Point","coordinates":[84.0499679,28.1754504]}},{"type":"Feature","id":"node/4788226024","properties":{"type":"node","id":4788226024,"tags":{"amenity":"bank","name":"Swornim Krishi Saving & Credit Cooperative","nrb_class":"co-operative","phone":"061-561552","source":"2cpokhara"},"relations":[],"meta":{"timestamp":"2018-06-18T09:56:09Z","version":5,"changeset":59937811,"user":"Gaurav Thapa","uid":4212590}},"geometry":{"type":"Point","coordinates":[84.0575923,28.1626885]}},{"type":"Feature","id":"node/4788226425","properties":{"type":"node","id":4788226425,"tags":{"amenity":"bank","name":"Gautam Rishi Saving & Credit Cooperative","name:ne":"गौतम रिसी बचत तथा ऋण सहकारी संस्था","nrb_class":"co-operative","phone":"061560406","source":"2cpokhara"},"relations":[],"meta":{"timestamp":"2018-06-18T09:56:09Z","version":8,"changeset":59937811,"user":"Gaurav Thapa","uid":4212590}},"geometry":{"type":"Point","coordinates":[84.0688831,28.1637065]}},{"type":"Feature","id":"node/4796053653","properties":{"type":"node","id":4796053653,"tags":{"amenity":"bank","email":"silingesahakari@gmail.com","name":"Shree Silinge Krisi Utpadak Sahakari","nrb_class":"co-operative","opening_hours":"10:00-16:00","phone":"061411601","source":"2cpokhara"},"relations":[],"meta":{"timestamp":"2018-06-18T10:12:50Z","version":7,"changeset":59938324,"user":"Gaurav Thapa","uid":4212590}},"geometry":{"type":"Point","coordinates":[84.0350385,28.1857352]}},{"type":"Feature","id":"node/4796314060","properties":{"type":"node","id":4796314060,"tags":{"amenity":"bank","name":"Jana Priya Sahakari","nrb_class":"co-operative","phone":"9846602215","source":"2cpokhara"},"relations":[],"meta":{"timestamp":"2018-06-18T10:12:50Z","version":4,"changeset":59938324,"user":"Gaurav Thapa","uid":4212590}},"geometry":{"type":"Point","coordinates":[84.0311985,28.1950586]}},{"type":"Feature","id":"node/4797716917","properties":{"type":"node","id":4797716917,"tags":{"amenity":"bank","name":"Shree Ta Patnary Krishi Sahakari","nrb_class":"co-operative","source":"2cpokhara"},"relations":[],"meta":{"timestamp":"2018-06-18T09:56:09Z","version":3,"changeset":59937811,"user":"Gaurav Thapa","uid":4212590}},"geometry":{"type":"Point","coordinates":[84.0498646,28.1751641]}},{"type":"Feature","id":"node/4798636086","properties":{"type":"node","id":4798636086,"tags":{"amenity":"bank","name":"Prime Multipurpose Cooperative","nrb_class":"co-operative","source":"2cpokhara"},"relations":[],"meta":{"timestamp":"2018-06-18T09:40:37Z","version":3,"changeset":59937293,"user":"Gaurav Thapa","uid":4212590}},"geometry":{"type":"Point","coordinates":[83.9883137,28.2416431]}},{"type":"Feature","id":"node/4798646978","properties":{"type":"node","id":4798646978,"tags":{"amenity":"bank","name":"Sewa Saving & Credit Cooperative","nrb_class":"co-operative","phone":"61442080","source":"2cpokhara"},"relations":[],"meta":{"timestamp":"2018-06-18T10:12:50Z","version":5,"changeset":59938324,"user":"Gaurav Thapa","uid":4212590}},"geometry":{"type":"Point","coordinates":[83.9771534,28.2576504]}},{"type":"Feature","id":"node/4798646979","properties":{"type":"node","id":4798646979,"tags":{"amenity":"bank","name":"Mahima Saving & Credit Cooperative","name:ne":"महिमा बचत तथा ऋण सहकरी संस्था लिमिटेड","nrb_class":"co-operative","source":"2cpokhara"},"relations":[],"meta":{"timestamp":"2018-06-18T09:56:09Z","version":4,"changeset":59937811,"user":"Gaurav Thapa","uid":4212590}},"geometry":{"type":"Point","coordinates":[83.9726659,28.2613691]}},{"type":"Feature","id":"node/4798646980","properties":{"type":"node","id":4798646980,"tags":{"amenity":"bank","name":"Sajilo Saving & Credit Cooperative","name:ne":"सजिलो बचत तथा ऋण सहकरी संस्था लिमिटेड","nrb_class":"co-operative","source":"2cpokhara"},"relations":[],"meta":{"timestamp":"2018-06-18T09:56:10Z","version":4,"changeset":59937811,"user":"Gaurav Thapa","uid":4212590}},"geometry":{"type":"Point","coordinates":[83.9718402,28.2614076]}},{"type":"Feature","id":"node/4798646982","properties":{"type":"node","id":4798646982,"tags":{"amenity":"bank","name":"Sarara Dhara Saving & Credit Cooperative","nrb_class":"co-operative","source":"2cpokhara"},"relations":[],"meta":{"timestamp":"2018-06-18T09:56:10Z","version":3,"changeset":59937811,"user":"Gaurav Thapa","uid":4212590}},"geometry":{"type":"Point","coordinates":[83.9719725,28.2615964]}},{"type":"Feature","id":"node/4798646983","properties":{"type":"node","id":4798646983,"tags":{"amenity":"bank","name":"Jana Uthan Cooperative","nrb_class":"co-operative","source":"2cpokhara"},"relations":[],"meta":{"timestamp":"2018-06-18T09:56:10Z","version":3,"changeset":59937811,"user":"Gaurav Thapa","uid":4212590}},"geometry":{"type":"Point","coordinates":[83.973141,28.2634525]}},{"type":"Feature","id":"node/4798646984","properties":{"type":"node","id":4798646984,"tags":{"amenity":"bank","name":"Batulechaur Kalilek Cooperative","nrb_class":"co-operative","source":"2cpokhara"},"relations":[],"meta":{"timestamp":"2018-06-18T11:13:14Z","version":3,"changeset":59940318,"user":"Gaurav Thapa","uid":4212590}},"geometry":{"type":"Point","coordinates":[83.9799516,28.2649871]}},{"type":"Feature","id":"node/4798690051","properties":{"type":"node","id":4798690051,"tags":{"amenity":"bank","name":"Ahviyan Saving & Credit Cooperative","name:ne":"अभियान बचत तथा ऋण सहकरी संस्था लिमिटेड","nrb_class":"co-operative","source":"2cpokhara"},"relations":[],"meta":{"timestamp":"2018-06-18T09:40:37Z","version":4,"changeset":59937293,"user":"Gaurav Thapa","uid":4212590}},"geometry":{"type":"Point","coordinates":[83.987171,28.2202274]}},{"type":"Feature","id":"node/4798697906","properties":{"type":"node","id":4798697906,"tags":{"amenity":"bank","name":"Hamro Sahayogi Saving & Credit Cooperative","name:ne":"हाम्रो सहयोगी बचत तथा ऋण सहकरी संस्था लिमिटेड","nrb_class":"co-operative","source":"2cpokhara"},"relations":[],"meta":{"timestamp":"2018-06-18T11:13:14Z","version":6,"changeset":59940318,"user":"Gaurav Thapa","uid":4212590}},"geometry":{"type":"Point","coordinates":[83.9860061,28.2097001]}},{"type":"Feature","id":"node/4798697908","properties":{"type":"node","id":4798697908,"tags":{"amenity":"bank","name":"Trisul Saving & Credit Cooperative","name:ne":"त्रिसुल बचत तथा ऋण सहकरी संस्था लिमिटेड","nrb_class":"co-operative","phone":"061-539235, 061-539263","source":"2cpokhara"},"relations":[],"meta":{"timestamp":"2018-06-18T11:13:15Z","version":6,"changeset":59940318,"user":"Gaurav Thapa","uid":4212590}},"geometry":{"type":"Point","coordinates":[83.9852985,28.2089961]}},{"type":"Feature","id":"node/4798697909","properties":{"type":"node","id":4798697909,"tags":{"amenity":"bank","name":"Sunshine Saving & Credit Cooperative","name:ne":"सनसाईं बचत तथा ऋण सहकारी सांस्थ","nrb_class":"co-operative"},"relations":[],"meta":{"timestamp":"2018-06-18T11:13:15Z","version":3,"changeset":59940318,"user":"Gaurav Thapa","uid":4212590}},"geometry":{"type":"Point","coordinates":[83.9841896,28.2082524]}},{"type":"Feature","id":"node/4805349936","properties":{"type":"node","id":4805349936,"tags":{"amenity":"bank","name":"Birauta Saving & Credit Cooperative","name:ne":"बिरौटा बचत तथा ऋण सहकरी संस्था लिमिटेड","nrb_class":"co-operative","source":"2cpokhara"},"relations":[],"meta":{"timestamp":"2018-06-18T08:42:55Z","version":4,"changeset":59935339,"user":"Gaurav Thapa","uid":4212590}},"geometry":{"type":"Point","coordinates":[83.9694744,28.1917642]}},{"type":"Feature","id":"node/4805349940","properties":{"type":"node","id":4805349940,"tags":{"amenity":"bank","name":"Sitalaa Saving & Credit Cooperative","name:ne":"सीताला बचत तथा ऋण सहकरी संस्था लिमिटेड","nrb_class":"co-operative","source":"2cpokhara"},"relations":[],"meta":{"timestamp":"2018-06-18T08:42:55Z","version":4,"changeset":59935339,"user":"Gaurav Thapa","uid":4212590}},"geometry":{"type":"Point","coordinates":[83.9708322,28.1914297]}},{"type":"Feature","id":"node/4805349946","properties":{"type":"node","id":4805349946,"tags":{"amenity":"bank","name":"Barahi Saving & Credit Cooperative","name:ne":"बाराही बचत तथा ऋण सहकरी संस्था लिमिटेड","nrb_class":"co-operative","opening_hours":"Su-Th 10:00-16:00, Fr 10:00-15:00","phone":"061-463187","source":"2cpokhara"},"relations":[],"meta":{"timestamp":"2018-06-18T11:13:15Z","version":6,"changeset":59940318,"user":"Gaurav Thapa","uid":4212590}},"geometry":{"type":"Point","coordinates":[83.9710626,28.1915054]}},{"type":"Feature","id":"node/4805349952","properties":{"type":"node","id":4805349952,"tags":{"amenity":"bank","name":"Taksar Saving & Credit Cooperative","name:ne":"टक्सार बचत तथा ऋण सहकरी संस्था लिमिटेड","nrb_class":"co-operative","source":"2cpokhara"},"relations":[],"meta":{"timestamp":"2018-06-18T08:42:55Z","version":4,"changeset":59935339,"user":"Gaurav Thapa","uid":4212590}},"geometry":{"type":"Point","coordinates":[83.9719918,28.1920959]}},{"type":"Feature","id":"node/4805382924","properties":{"type":"node","id":4805382924,"tags":{"amenity":"bank","name":"Sital Saving & Credit Cooperative","name:ne":"सितल बचत तथा ऋण सहकरी संस्था लिमिटेड","nrb_class":"co-operative","opening_hours":"Su-Th 10:00-04:00, Fr 10:00-15:00","phone":"061-465325","source":"2cpokhara"},"relations":[],"meta":{"timestamp":"2018-06-18T08:42:55Z","version":6,"changeset":59935339,"user":"Gaurav Thapa","uid":4212590}},"geometry":{"type":"Point","coordinates":[83.9551429,28.1911293]}},{"type":"Feature","id":"node/4805382926","properties":{"type":"node","id":4805382926,"tags":{"amenity":"bank","name":"Chorepatan Saving & Credit Cooperative","name:ne":"छोरेपाटन बचत तथा ऋण सहकरी संस्था लिमिटेड","nrb_class":"co-operative","opening_hours":"Su-Th 10:00-04:00, Fr 10:00-15:00","phone":"061-462148","source":"2cpokhara"},"relations":[],"meta":{"timestamp":"2018-06-18T11:13:15Z","version":7,"changeset":59940318,"user":"Gaurav Thapa","uid":4212590}},"geometry":{"type":"Point","coordinates":[83.9526174,28.1917208]}},{"type":"Feature","id":"node/4805411463","properties":{"type":"node","id":4805411463,"tags":{"amenity":"bank","name":"Indreni Saving & Credit Cooperative","name:ne":"इन्द्रेणी बचत तथा ऋण सहकरी संस्था लिमिटेड","nrb_class":"co-operative","source":"2cpokhara"},"relations":[],"meta":{"timestamp":"2018-06-29T06:06:33Z","version":5,"changeset":60267359,"user":"marek kleciak","uid":338611}},"geometry":{"type":"Point","coordinates":[83.958739,28.1891548]}},{"type":"Feature","id":"node/4805411464","properties":{"type":"node","id":4805411464,"tags":{"amenity":"bank","name":"Gupteshwor Mahila Saving & Credit Cooperative","name:ne":"गुप्तेशोर महिला बचत तथा ऋण सहकरी संस्था लिमिटेड","nrb_class":"co-operative","opening_hours":"Su-Th 10:00-16:00, Fr 10:00-15:00","phone":"061-462076","source":"2cpokhara"},"relations":[],"meta":{"timestamp":"2018-06-19T06:23:46Z","version":7,"changeset":59965701,"user":"Gaurav Thapa","uid":4212590}},"geometry":{"type":"Point","coordinates":[83.958479,28.1892888]}},{"type":"Feature","id":"node/4805411472","properties":{"type":"node","id":4805411472,"tags":{"amenity":"bank","name":"Kristi Pokhara Milan Saving & Credit Cooperative","name:ne":"कृस्ति पोखरा मिलन बचत तथा ऋण सहकरी संस्था लिमिटेड","nrb_class":"co-operative","phone":"061464221","source":"2cpokhara"},"relations":[],"meta":{"timestamp":"2018-06-18T08:42:56Z","version":6,"changeset":59935339,"user":"Gaurav Thapa","uid":4212590}},"geometry":{"type":"Point","coordinates":[83.9577262,28.1899125]}},{"type":"Feature","id":"node/4805429555","properties":{"type":"node","id":4805429555,"tags":{"amenity":"bank","atm":"no","name":"Bihani Saving & Credit Cooperative","name:ne":"बिहानी बचत तथा ऋण सहकरी संस्था लिमिटेड","nrb_class":"co-operative","opening_hours":"Su-Fr 10:00-16:00, Fr 10:00-03:00 Sa,PH closed","phone":"061467182","source":"2cpokhara"},"relations":[],"meta":{"timestamp":"2018-06-18T08:42:56Z","version":5,"changeset":59935339,"user":"Gaurav Thapa","uid":4212590}},"geometry":{"type":"Point","coordinates":[83.9704474,28.192006]}},{"type":"Feature","id":"node/4805429557","properties":{"type":"node","id":4805429557,"tags":{"amenity":"bank","name":"Saptarangi Saving & Credit Cooperative","name:ne":"सप्तरंगी बचत तथा ऋण सहकरी संस्था लिमिटेड","nrb_class":"co-operative","opening_hours":"Su-Fr 10:00-16:00, Fr 10:00-15:00","source":"2cpokhara"},"relations":[],"meta":{"timestamp":"2018-06-18T08:42:56Z","version":6,"changeset":59935339,"user":"Gaurav Thapa","uid":4212590}},"geometry":{"type":"Point","coordinates":[83.9667256,28.1910657]}},{"type":"Feature","id":"node/4805438801","properties":{"type":"node","id":4805438801,"tags":{"amenity":"bank","email":"ranibansavingpkr@gmail.com","name":"Raniban Saving & Credit Cooperative","nrb_class":"co-operative","source":"2cpokhara"},"relations":[],"meta":{"timestamp":"2018-06-18T08:42:56Z","version":5,"changeset":59935339,"user":"Gaurav Thapa","uid":4212590}},"geometry":{"type":"Point","coordinates":[83.9708157,28.2006158]}},{"type":"Feature","id":"node/4805458660","properties":{"type":"node","id":4805458660,"tags":{"amenity":"bank","name":"Chapapani Saving & Credit Cooperative","nrb_class":"co-operative","phone":"061-522577","source":"2cpokhara"},"relations":[],"meta":{"timestamp":"2018-06-18T10:12:51Z","version":4,"changeset":59938324,"user":"Gaurav Thapa","uid":4212590}},"geometry":{"type":"Point","coordinates":[84.0000363,28.2185081]}},{"type":"Feature","id":"node/4805458661","properties":{"type":"node","id":4805458661,"tags":{"amenity":"bank","name":"Siddhartha Cooperative","name:ne":"सिद्धार्थ सहकारी संस्था लिमिटेड","nrb_class":"co-operative","phone":"061-538454","source":"2cpokhara"},"relations":[],"meta":{"timestamp":"2018-06-18T10:12:51Z","version":5,"changeset":59938324,"user":"Gaurav Thapa","uid":4212590}},"geometry":{"type":"Point","coordinates":[84.0015218,28.2176607]}},{"type":"Feature","id":"node/4805458662","properties":{"type":"node","id":4805458662,"tags":{"amenity":"bank","email":"dpsco12@gmail.com","name":"Dudhpokhari Saving & Credit Cooperative","name:ne":"दुधपोखरी बचत तथा ऋण सहकारी संस्था","nrb_class":"co-operative","phone":"061-525066","source":"2cpokhara"},"relations":[],"meta":{"timestamp":"2018-06-18T10:12:51Z","version":4,"changeset":59938324,"user":"Gaurav Thapa","uid":4212590}},"geometry":{"type":"Point","coordinates":[84.0030573,28.2165078]}},{"type":"Feature","id":"node/4805458671","properties":{"type":"node","id":4805458671,"tags":{"amenity":"bank","name":"Kamal Pokhari Saving & Credit Cooperative","nrb_class":"co-operative","source":"2cpokhara"},"relations":[],"meta":{"timestamp":"2018-06-18T11:13:15Z","version":3,"changeset":59940318,"user":"Gaurav Thapa","uid":4212590}},"geometry":{"type":"Point","coordinates":[84.0177339,28.2158072]}},{"type":"Feature","id":"node/4806889122","properties":{"type":"node","id":4806889122,"tags":{"addr:city":"Pokhara Lekhnath Metropolitan city","addr:place":"Buddha Chowk","amenity":"bank","email":"gscclpokhara2009@yahoo.com","name":"The Gurkhas Saving & Credit Cooperative","name:en":"The Gurkhas Saving and Credit Co-operative","nrb_class":"co-operative","opening_hours":"10:00-16:00","phone":"061-524684, 061-531590","source":"2cpokhara"},"relations":[],"meta":{"timestamp":"2018-06-18T09:04:28Z","version":6,"changeset":59936045,"user":"Gaurav Thapa","uid":4212590}},"geometry":{"type":"Point","coordinates":[83.9941169,28.2081285]}},{"type":"Feature","id":"node/4807288125","properties":{"type":"node","id":4807288125,"tags":{"amenity":"bank","name":"Mega Saving & Credit Cooperative","nrb_class":"co-operative","phone":"061 531791","source":"2cpokhara"},"relations":[],"meta":{"timestamp":"2018-06-18T09:56:10Z","version":6,"changeset":59937811,"user":"Gaurav Thapa","uid":4212590}},"geometry":{"type":"Point","coordinates":[84.0500051,28.1743469]}},{"type":"Feature","id":"node/4807288724","properties":{"type":"node","id":4807288724,"tags":{"amenity":"bank","name":"Welcome Saving & Credit Cooperative","nrb_class":"co-operative","source":"2cpokhara"},"relations":[],"meta":{"timestamp":"2018-06-18T10:12:51Z","version":4,"changeset":59938324,"user":"Gaurav Thapa","uid":4212590}},"geometry":{"type":"Point","coordinates":[84.0205247,28.1944472]}},{"type":"Feature","id":"node/4807395856","properties":{"type":"node","id":4807395856,"tags":{"amenity":"bank","name":"Satya Saving & Credit Cooperative","nrb_class":"co-operative","source":"2cpokhara"},"relations":[],"meta":{"timestamp":"2018-06-18T10:12:51Z","version":3,"changeset":59938324,"user":"Gaurav Thapa","uid":4212590}},"geometry":{"type":"Point","coordinates":[84.029678,28.1911553]}},{"type":"Feature","id":"node/4813407221","properties":{"type":"node","id":4813407221,"tags":{"amenity":"bank","name":"Dhungesangu Saving & Credit Cooperative","nrb_class":"co-operative","phone":"061-402013","source":"2cpokhara"},"relations":[],"meta":{"timestamp":"2018-06-19T06:24:36Z","version":7,"changeset":59965724,"user":"Gaurav Thapa","uid":4212590}},"geometry":{"type":"Point","coordinates":[83.9900358,28.1781699]}},{"type":"Feature","id":"node/4814718462","properties":{"type":"node","id":4814718462,"tags":{"amenity":"bank","name":"Sishuwa Women Saving & Credit Cooperative","name:ne":"सिसुवा महिला तथा ऋण सहकारी संस्था लि.","nrb_class":"co-operative","phone":"061-560903","source":"2cpokhara"},"relations":[],"meta":{"timestamp":"2018-06-18T11:03:36Z","version":4,"changeset":59939941,"user":"Gaurav Thapa","uid":4212590}},"geometry":{"type":"Point","coordinates":[84.0838751,28.1646339]}},{"type":"Feature","id":"node/4814743954","properties":{"type":"node","id":4814743954,"tags":{"amenity":"bank","name":"Taal Nagari Krisi Saving and Credit Cooperative","nrb_class":"co-operative","source":"2cpokhara"},"relations":[],"meta":{"timestamp":"2018-06-18T11:03:36Z","version":3,"changeset":59939941,"user":"Gaurav Thapa","uid":4212590}},"geometry":{"type":"Point","coordinates":[84.0893372,28.1642307]}},{"type":"Feature","id":"node/4814808327","properties":{"type":"node","id":4814808327,"tags":{"amenity":"bank","name":"Shree Indra Baraha Agriculture Cooperative","name:ne":"श्री इन्द्र बराह कृषि सहकारी संस्था लिमिटेड","nrb_class":"co-operative","source":"2cpokhara"},"relations":[],"meta":{"timestamp":"2018-06-18T09:56:10Z","version":4,"changeset":59937811,"user":"Gaurav Thapa","uid":4212590}},"geometry":{"type":"Point","coordinates":[84.0955336,28.1310997]}},{"type":"Feature","id":"node/4815059480","properties":{"type":"node","id":4815059480,"tags":{"amenity":"bank","name":"Gagangaunda Saving & Credit Cooperative","name:ne":"गगनगौडा बचत तथा ऋण सहकारी संस्था लिमिटेड","nrb_class":"co-operative","source":"2C_Pokhara Field Data Collection 2018"},"relations":[],"meta":{"timestamp":"2018-06-18T11:03:36Z","version":7,"changeset":59939941,"user":"Gaurav Thapa","uid":4212590}},"geometry":{"type":"Point","coordinates":[84.0921496,28.1158291]}},{"type":"Feature","id":"node/4836017197","properties":{"type":"node","id":4836017197,"tags":{"amenity":"bank","name":"Phoolbari Saving & Credit Cooperative","name:ne":"फूलबारी बचत तथा ऋण सहकारी संस्था","nrb_class":"co-operative"},"relations":[],"meta":{"timestamp":"2018-06-19T06:25:22Z","version":4,"changeset":59965747,"user":"Gaurav Thapa","uid":4212590}},"geometry":{"type":"Point","coordinates":[83.9986012,28.2332522]}},{"type":"Feature","id":"node/4929972537","properties":{"type":"node","id":4929972537,"tags":{"addr:city":"Pokhara lekthnath municipility","amenity":"bank","name":"Setimadi Cooperative","name:ne":"सेतीमडी सहकारी संस्था","nrb_class":"co-operative","opening_hours":"Su-Fr 10:00-17:00","phone":"061-528519"},"relations":[],"meta":{"timestamp":"2018-06-18T09:40:37Z","version":5,"changeset":59937293,"user":"Gaurav Thapa","uid":4212590}},"geometry":{"type":"Point","coordinates":[83.9838849,28.2434925]}},{"type":"Feature","id":"node/4951194621","properties":{"type":"node","id":4951194621,"tags":{"amenity":"bank","name":"Shuva Saugat Saving & Cooperative","name:ne":"शुभ सौगात बचत तथा ऋण सहकारी संस्था","nrb_class":"co-operative"},"relations":[],"meta":{"timestamp":"2018-06-19T06:26:04Z","version":4,"changeset":59965767,"user":"Gaurav Thapa","uid":4212590}},"geometry":{"type":"Point","coordinates":[84.0131746,28.1811393]}},{"type":"Feature","id":"node/4976787934","properties":{"type":"node","id":4976787934,"tags":{"amenity":"bank","name":"Aadhunik Agricultural Cooperative","nrb_class":"co-operative"},"relations":[],"meta":{"timestamp":"2018-06-19T06:27:02Z","version":4,"changeset":59965808,"user":"Gaurav Thapa","uid":4212590}},"geometry":{"type":"Point","coordinates":[84.0224075,28.1683479]}},{"type":"Feature","id":"node/4984234922","properties":{"type":"node","id":4984234922,"tags":{"amenity":"bank","name":"Majheri Saving & Credit Cooperative","name:ne":"मझेरी बचत तथा ऋण सहकारी संस्था लि.","nrb_class":"co-operative"},"relations":[],"meta":{"timestamp":"2018-06-19T06:28:03Z","version":2,"changeset":59965849,"user":"Gaurav Thapa","uid":4212590}},"geometry":{"type":"Point","coordinates":[84.0241335,28.1825365]}},{"type":"Feature","id":"node/5024627805","properties":{"type":"node","id":5024627805,"tags":{"addr:city":"Pokhara Lekhnath M.City","addr:district":"Kaski","addr:place":"Lamachaur","addr:street":"Chaur","amenity":"bank","name":"Shree Lamachaur Mahila Cooperative","nrb_class":"co-operative","opening_hours":"Sa 10:00-17:00","operator":"Community Based"},"relations":[],"meta":{"timestamp":"2018-06-18T09:56:10Z","version":3,"changeset":59937811,"user":"Gaurav Thapa","uid":4212590}},"geometry":{"type":"Point","coordinates":[83.9666082,28.2651969]}},{"type":"Feature","id":"node/5026319640","properties":{"type":"node","id":5026319640,"tags":{"addr:city":"Pokhara Lekhnath Metropolitan City","addr:place":"Sarangkot","addr:street":"Thulo Pokhari","amenity":"bank","name":"Bhawana Community Agriculture","nrb_class":"co-operative","opening_hours":"Su-Fr 10:00-16:00"},"relations":[],"meta":{"timestamp":"2018-06-08T05:29:58Z","version":3,"changeset":59655535,"user":"marek kleciak","uid":338611}},"geometry":{"type":"Point","coordinates":[83.9561697,28.2442203]}},{"type":"Feature","id":"node/5072613121","properties":{"type":"node","id":5072613121,"tags":{"addr:housenumber":"1257","addr:postcode":"9876","addr:street":"hamal chowk street","amenity":"bank","name":"Hamal Cooperative Finance","nrb_class":"co-operative"},"relations":[],"meta":{"timestamp":"2018-06-18T09:56:10Z","version":3,"changeset":59937811,"user":"Gaurav Thapa","uid":4212590}},"geometry":{"type":"Point","coordinates":[84.0572744,28.1659343]}},{"type":"Feature","id":"node/5090928570","properties":{"type":"node","id":5090928570,"tags":{"addr:place":"Sidahartha Chowk, Pokhara","amenity":"bank","email":"info@Kopila.org.np","name":"Kopila Saving & Credit Cooperative","nrb_class":"co-operative","phone":"061-535762, 061-528004","website":"www.Kopila.org.np"},"relations":[],"meta":{"timestamp":"2018-06-18T09:40:37Z","version":3,"changeset":59937293,"user":"Gaurav Thapa","uid":4212590}},"geometry":{"type":"Point","coordinates":[83.9850987,28.224483]}},{"type":"Feature","id":"node/5093636707","properties":{"type":"node","id":5093636707,"tags":{"addr:place":"Chipledhunga, Pokhara","amenity":"bank","email":"madhusaving@gmail.com","name":"Madhu Saving & Credit Cooperative","nrb_class":"co-operative","phone":"061 535136, 061 534435"},"relations":[],"meta":{"timestamp":"2018-06-18T09:40:37Z","version":4,"changeset":59937293,"user":"Gaurav Thapa","uid":4212590}},"geometry":{"type":"Point","coordinates":[83.9880578,28.2236727]}},{"type":"Feature","id":"node/5096897277","properties":{"type":"node","id":5096897277,"tags":{"amenity":"bank","name":"Kolpatan Saving and Credit Cooperative","name:ne":"कोलपाटन बचत तथा ऋण सहकारी संस्था","nrb_class":"co-operative","phone":"061431590","source":"2cpokhara"},"relations":[],"meta":{"timestamp":"2018-06-19T06:29:06Z","version":5,"changeset":59965881,"user":"Gaurav Thapa","uid":4212590}},"geometry":{"type":"Point","coordinates":[83.9963707,28.1938423]}},{"type":"Feature","id":"node/5097008859","properties":{"type":"node","id":5097008859,"tags":{"amenity":"bank","name":"Nawa Siddhartha Mahila Saving & Credit Cooperative","nrb_class":"co-operative","phone":"061 538725"},"relations":[],"meta":{"timestamp":"2018-06-18T11:13:15Z","version":4,"changeset":59940318,"user":"Gaurav Thapa","uid":4212590}},"geometry":{"type":"Point","coordinates":[83.9846782,28.223761]}},{"type":"Feature","id":"node/5097023281","properties":{"type":"node","id":5097023281,"tags":{"addr:place":"Ranipauwa, Pokhara-12","amenity":"bank","name":"Purano Dhara Saving & Credit Cooperative","nrb_class":"co-operative","phone":"061 527916"},"relations":[],"meta":{"timestamp":"2018-06-18T10:12:51Z","version":3,"changeset":59938324,"user":"Gaurav Thapa","uid":4212590}},"geometry":{"type":"Point","coordinates":[83.9994632,28.2184478]}},{"type":"Feature","id":"node/5099947372","properties":{"type":"node","id":5099947372,"tags":{"amenity":"bank","name":"Shree Chahuthe Krishi Sahakari","nrb_class":"co-operative"},"relations":[],"meta":{"timestamp":"2018-06-18T10:12:51Z","version":2,"changeset":59938324,"user":"Gaurav Thapa","uid":4212590}},"geometry":{"type":"Point","coordinates":[84.023113,28.1915684]}},{"type":"Feature","id":"node/5100139927","properties":{"type":"node","id":5100139927,"tags":{"amenity":"bank","name":"Birat Krishi Sahakari","nrb_class":"co-operative"},"relations":[],"meta":{"timestamp":"2018-06-18T09:56:10Z","version":2,"changeset":59937811,"user":"Gaurav Thapa","uid":4212590}},"geometry":{"type":"Point","coordinates":[84.0559056,28.1695621]}},{"type":"Feature","id":"node/5100170784","properties":{"type":"node","id":5100170784,"tags":{"amenity":"bank","name":"Xetrasakti Saving & Credit Cooperative","nrb_class":"co-operative"},"relations":[],"meta":{"timestamp":"2018-06-18T09:56:10Z","version":2,"changeset":59937811,"user":"Gaurav Thapa","uid":4212590}},"geometry":{"type":"Point","coordinates":[84.0568585,28.1626652]}},{"type":"Feature","id":"node/5100170790","properties":{"type":"node","id":5100170790,"tags":{"amenity":"bank","name":"Lekhnath Samudayik Krishi Sahakari","nrb_class":"co-operative"},"relations":[],"meta":{"timestamp":"2018-06-18T09:56:10Z","version":2,"changeset":59937811,"user":"Gaurav Thapa","uid":4212590}},"geometry":{"type":"Point","coordinates":[84.0570288,28.1644274]}},{"type":"Feature","id":"node/5100226179","properties":{"type":"node","id":5100226179,"tags":{"addr:city":"Pokhara Lekhnath Metropolitan City","addr:place":"Tal Chowk","addr:street":"Prithvi Highway","amenity":"bank","building":"yes","name":"Prime Multipurpose Cooperative","nrb_class":"co-operative","opening_hours":"Su-Fr 09:30-17:30","operator":"Private","phone":"061-561022"},"relations":[],"meta":{"timestamp":"2018-06-18T09:56:10Z","version":3,"changeset":59937811,"user":"Gaurav Thapa","uid":4212590}},"geometry":{"type":"Point","coordinates":[84.0572347,28.1634411]}},{"type":"Feature","id":"node/5100226191","properties":{"type":"node","id":5100226191,"tags":{"amenity":"bank","name":"Bihani Saving & Credit Cooperative","nrb_class":"co-operative","phone":"061 560271"},"relations":[],"meta":{"timestamp":"2018-06-18T11:03:36Z","version":3,"changeset":59939941,"user":"Gaurav Thapa","uid":4212590}},"geometry":{"type":"Point","coordinates":[84.0574184,28.1625635]}},{"type":"Feature","id":"node/5100233605","properties":{"type":"node","id":5100233605,"tags":{"amenity":"bank","name":"Talchowk Krishi Sahakari","nrb_class":"co-operative"},"relations":[],"meta":{"timestamp":"2018-06-18T09:56:11Z","version":2,"changeset":59937811,"user":"Gaurav Thapa","uid":4212590}},"geometry":{"type":"Point","coordinates":[84.0587126,28.1628106]}},{"type":"Feature","id":"node/5100274835","properties":{"type":"node","id":5100274835,"tags":{"amenity":"bank","name":"Shree Chandradevi Multipurpose Cooperative","nrb_class":"co-operative","phone":"061-560396, 061-561446","source":"2cpokhara"},"relations":[],"meta":{"timestamp":"2018-06-22T07:50:25Z","version":5,"changeset":60066648,"user":"Gaurav Thapa","uid":4212590}},"geometry":{"type":"Point","coordinates":[84.0690066,28.1642379]}},{"type":"Feature","id":"node/5100358854","properties":{"type":"node","id":5100358854,"tags":{"amenity":"bank","name":"Lekhnath Saving & Credit Cooperative","nrb_class":"co-operative","phone":"9804120503, 9846205373"},"relations":[],"meta":{"timestamp":"2018-06-18T11:03:36Z","version":3,"changeset":59939941,"user":"Gaurav Thapa","uid":4212590}},"geometry":{"type":"Point","coordinates":[84.0879191,28.16352]}},{"type":"Feature","id":"node/5102457349","properties":{"type":"node","id":5102457349,"tags":{"amenity":"bank","name":"United Nepal Multipurpose Cooperative","nrb_class":"co-operative","phone":"061 521010"},"relations":[],"meta":{"timestamp":"2018-06-18T09:04:28Z","version":3,"changeset":59936045,"user":"Gaurav Thapa","uid":4212590}},"geometry":{"type":"Point","coordinates":[83.9929388,28.2067482]}},{"type":"Feature","id":"node/5102810022","properties":{"type":"node","id":5102810022,"tags":{"amenity":"bank","name":"Shanipatan Saving & Credit Cooperative","nrb_class":"co-operative"},"relations":[],"meta":{"timestamp":"2018-06-19T08:48:31Z","version":2,"changeset":59970014,"user":"Gaurav Thapa","uid":4212590}},"geometry":{"type":"Point","coordinates":[83.968235,28.2058654]}},{"type":"Feature","id":"node/5107348821","properties":{"type":"node","id":5107348821,"tags":{"amenity":"bank","name":"Ujwal Saving & Credit Cooperative","nrb_class":"co-operative"},"relations":[],"meta":{"timestamp":"2018-06-18T09:05:28Z","version":3,"changeset":59936090,"user":"Gaurav Thapa","uid":4212590}},"geometry":{"type":"Point","coordinates":[83.9860534,28.2183094]}},{"type":"Feature","id":"node/5157261867","properties":{"type":"node","id":5157261867,"tags":{"amenity":"bank","name":"Ramdarshi Saving & Credit Cooperative","nrb_class":"co-operative"},"relations":[],"meta":{"timestamp":"2018-06-18T09:40:38Z","version":2,"changeset":59937293,"user":"Gaurav Thapa","uid":4212590}},"geometry":{"type":"Point","coordinates":[83.9823075,28.2321159]}},{"type":"Feature","id":"node/5158199673","properties":{"type":"node","id":5158199673,"tags":{"amenity":"bank","name":"Sirjanshil Swawalamban Krishi Sahakari","nrb_class":"co-operative"},"relations":[],"meta":{"timestamp":"2018-06-18T09:40:38Z","version":2,"changeset":59937293,"user":"Gaurav Thapa","uid":4212590}},"geometry":{"type":"Point","coordinates":[83.98901,28.2300673]}},{"type":"Feature","id":"node/5158253613","properties":{"type":"node","id":5158253613,"tags":{"amenity":"bank","name":"Sayapatri Saving & Credit Cooperative","nrb_class":"co-operative"},"relations":[],"meta":{"timestamp":"2018-06-18T11:13:15Z","version":4,"changeset":59940318,"user":"Gaurav Thapa","uid":4212590}},"geometry":{"type":"Point","coordinates":[83.9972568,28.2204479]}},{"type":"Feature","id":"node/5159147934","properties":{"type":"node","id":5159147934,"tags":{"amenity":"bank","name":"Toda Saving & Credit Cooperative","nrb_class":"co-operative","phone":"061 537340"},"relations":[],"meta":{"timestamp":"2018-06-18T11:13:15Z","version":4,"changeset":59940318,"user":"Gaurav Thapa","uid":4212590}},"geometry":{"type":"Point","coordinates":[83.9965973,28.2206768]}},{"type":"Feature","id":"node/5207516064","properties":{"type":"node","id":5207516064,"tags":{"amenity":"bank","email":"suvechya56@yahoo.com","name":"Shuvechya Saving & Credit Cooperative","nrb_class":"co-operative","phone":"061 534615,061 528900"},"relations":[],"meta":{"timestamp":"2018-06-18T09:40:38Z","version":4,"changeset":59937293,"user":"Gaurav Thapa","uid":4212590}},"geometry":{"type":"Point","coordinates":[83.9864716,28.2297486]}},{"type":"Feature","id":"node/5207516068","properties":{"type":"node","id":5207516068,"tags":{"amenity":"bank","name":"Karuna Saving & Credit Cooperative","nrb_class":"co-operative"},"relations":[],"meta":{"timestamp":"2018-06-18T09:40:38Z","version":2,"changeset":59937293,"user":"Gaurav Thapa","uid":4212590}},"geometry":{"type":"Point","coordinates":[83.9859694,28.2351829]}},{"type":"Feature","id":"node/5207516069","properties":{"type":"node","id":5207516069,"tags":{"addr:place":"Adhakari Tole","amenity":"bank","name":"Shree Manakamana Mahila Bikas Sahakari","nrb_class":"co-operative"},"relations":[],"meta":{"timestamp":"2017-11-03T02:21:20Z","version":1,"changeset":53467162,"user":"Ashish Thapa","uid":4039113}},"geometry":{"type":"Point","coordinates":[83.9869249,28.2366161]}},{"type":"Feature","id":"node/5242257329","properties":{"type":"node","id":5242257329,"tags":{"amenity":"bank","name":"Sana Kisan Sahakari","nrb_class":"co-operative"},"relations":[],"meta":{"timestamp":"2018-06-18T09:56:11Z","version":2,"changeset":59937811,"user":"Gaurav Thapa","uid":4212590}},"geometry":{"type":"Point","coordinates":[84.0888655,28.1674509]}},{"type":"Feature","id":"node/5242353949","properties":{"type":"node","id":5242353949,"tags":{"amenity":"bank","name":"Lekhnath Saving & Credit Cooperative","nrb_class":"co-operative","operator:type":"public","phone":"061561734","source":"2cpokhara"},"relations":[],"meta":{"timestamp":"2018-06-18T09:56:11Z","version":6,"changeset":59937811,"user":"Gaurav Thapa","uid":4212590}},"geometry":{"type":"Point","coordinates":[84.0496127,28.1753729]}},{"type":"Feature","id":"node/5242353950","properties":{"type":"node","id":5242353950,"tags":{"amenity":"bank","name":"Macchapucchre Sahakari","nrb_class":"co-operative"},"relations":[],"meta":{"timestamp":"2017-11-26T06:38:27Z","version":2,"changeset":54087785,"user":"Ro Sun","uid":3112087}},"geometry":{"type":"Point","coordinates":[84.0556215,28.170353]}},{"type":"Feature","id":"node/5242393908","properties":{"type":"node","id":5242393908,"tags":{"amenity":"bank","name":"Chayawan Saving & Credit Cooperative","nrb_class":"co-operative"},"relations":[],"meta":{"timestamp":"2018-06-18T09:56:11Z","version":3,"changeset":59937811,"user":"Gaurav Thapa","uid":4212590}},"geometry":{"type":"Point","coordinates":[84.115008,28.1657492]}},{"type":"Feature","id":"node/5424161123","properties":{"type":"node","id":5424161123,"tags":{"addr:street":"नयाँ बजार","amenity":"bank","name":"Pokhara Saving & Credit Coperative","name:en":"Pokhara Saving & Credit Coperative","nrb_class":"co-operative"},"relations":[],"meta":{"timestamp":"2018-06-17T09:57:34Z","version":3,"changeset":59911072,"user":"Ro Sun","uid":3112087}},"geometry":{"type":"Point","coordinates":[83.9909406,28.2188771]}},{"type":"Feature","id":"node/5431497046","properties":{"type":"node","id":5431497046,"tags":{"amenity":"bank","name":"Shree Safal Kripa Saving & Loan Cooperative","nrb_class":"co-operative"},"relations":[],"meta":{"timestamp":"2018-06-18T09:56:11Z","version":4,"changeset":59937811,"user":"Gaurav Thapa","uid":4212590}},"geometry":{"type":"Point","coordinates":[83.9495105,28.2688975]}},{"type":"Feature","id":"node/5431594929","properties":{"type":"node","id":5431594929,"tags":{"amenity":"bank","atm":"yes","name":"Shree Bihani Saving & Loan Cooperative","nrb_class":"co-operative","phone":"061-403028,400533"},"relations":[],"meta":{"timestamp":"2018-06-18T10:15:20Z","version":3,"changeset":59938457,"user":"Gaurav Thapa","uid":4212590}},"geometry":{"type":"Point","coordinates":[83.9354061,28.2777181]}},{"type":"Feature","id":"node/5431594938","properties":{"type":"node","id":5431594938,"tags":{"amenity":"bank","atm":"yes","name":"Gaurishankar Saving & Loan Cooperative","nrb_class":"co-operative"},"relations":[],"meta":{"timestamp":"2018-06-18T09:56:11Z","version":3,"changeset":59937811,"user":"Gaurav Thapa","uid":4212590}},"geometry":{"type":"Point","coordinates":[83.9362322,28.2780157]}},{"type":"Feature","id":"node/5434552584","properties":{"type":"node","id":5434552584,"tags":{"amenity":"bank","atm":"yes","name":"Amulya Mahila Bikash Cooperative","nrb_class":"co-operative","phone":"9846063376"},"relations":[],"meta":{"timestamp":"2018-06-18T09:56:11Z","version":5,"changeset":59937811,"user":"Gaurav Thapa","uid":4212590}},"geometry":{"type":"Point","coordinates":[83.9315678,28.2805514]}},{"type":"Feature","id":"node/5434552601","properties":{"type":"node","id":5434552601,"tags":{"amenity":"bank","atm":"no","name":"Shree Hemja Saving & Credit Cooperative","nrb_class":"co-operative","opening_hours":"Su-Fr 10:00-16:00","operator":"private","phone":"061-400099","ref":"survey","wheelchair":"yes"},"relations":[],"meta":{"timestamp":"2018-06-18T09:56:11Z","version":3,"changeset":59937811,"user":"Gaurav Thapa","uid":4212590}},"geometry":{"type":"Point","coordinates":[83.9362677,28.2785088]}},{"type":"Feature","id":"node/5434552640","properties":{"type":"node","id":5434552640,"tags":{"amenity":"bank","atm":"no","name":"Hemja Ex-Army Agricultural Cooperative","nrb_class":"co-operative","opening_hours":"Su-Fr 10:00-16:00","operator":"private","ref":"survey","wheelchair":"yes"},"relations":[],"meta":{"timestamp":"2018-06-18T09:56:12Z","version":3,"changeset":59937811,"user":"Gaurav Thapa","uid":4212590}},"geometry":{"type":"Point","coordinates":[83.9479387,28.2725744]}},{"type":"Feature","id":"node/5440501095","properties":{"type":"node","id":5440501095,"tags":{"amenity":"bank","atm":"yes","name":"Shree Mahila Saving & Credit Cooperative","nrb_class":"co-operative","opening_hours":"Sa 10:00-16:00","operator":"private","phone":"061-441163","wheelchair":"yes"},"relations":[],"meta":{"timestamp":"2018-06-18T09:56:12Z","version":3,"changeset":59937811,"user":"Gaurav Thapa","uid":4212590}},"geometry":{"type":"Point","coordinates":[83.9716534,28.2618033]}},{"type":"Feature","id":"node/5440501098","properties":{"type":"node","id":5440501098,"tags":{"amenity":"bank","atm":"no","name":"Jay Ganesh Saving & Credit Cooperative","nrb_class":"co-operative","opening_hours":"Su-Fr 10:00-16:00","operator":"private","phone":"061-441837","ref":"survey","wheelchair":"yes"},"relations":[],"meta":{"timestamp":"2018-06-18T09:56:12Z","version":4,"changeset":59937811,"user":"Gaurav Thapa","uid":4212590}},"geometry":{"type":"Point","coordinates":[83.9694098,28.2676526]}},{"type":"Feature","id":"node/5453806404","properties":{"type":"node","id":5453806404,"tags":{"amenity":"bank","atm":"no","name":"Pokhara Multipurpose Cooperative","nrb_class":"co-operative","phone":"061-540770","source":"2cpokhara"},"relations":[],"meta":{"timestamp":"2018-06-18T11:14:42Z","version":3,"changeset":59940379,"user":"Gaurav Thapa","uid":4212590}},"geometry":{"type":"Point","coordinates":[83.976861,28.2123383]}},{"type":"Feature","id":"node/5453836627","properties":{"type":"node","id":5453836627,"tags":{"amenity":"bank","atm":"no","name":"Naya Krisi Aviyan Sahakari","nrb_class":"co-operative"},"relations":[],"meta":{"timestamp":"2018-06-19T08:49:33Z","version":3,"changeset":59970055,"user":"Gaurav Thapa","uid":4212590}},"geometry":{"type":"Point","coordinates":[83.9763431,28.2149374]}},{"type":"Feature","id":"node/5455883368","properties":{"type":"node","id":5455883368,"tags":{"amenity":"bank","atm":"no","name":"Baharai Krishi Cooperative","nrb_class":"co-operative","opening_hours":"Su-Th 10:00-16:00 ; Fr 10:00-15:00","operator:type":"public","phone":"061540568"},"relations":[],"meta":{"timestamp":"2018-06-19T08:50:40Z","version":3,"changeset":59970098,"user":"Gaurav Thapa","uid":4212590}},"geometry":{"type":"Point","coordinates":[83.9718761,28.2138686]}},{"type":"Feature","id":"node/5456664936","properties":{"type":"node","id":5456664936,"tags":{"amenity":"bank","atm":"no","name":"Nilgiri Saving & Credit Cooperative","name:ne":"निलगिरी बचत तथा ऋण सहकारी संस्था लिमिटेड","nrb_class":"co-operative","opening_hours":"Su-Th 10:00-16:00; Fr 10:00-15:00","operator:type":"Community","phone":"061-460189/061-464117","source":"2cpokhara"},"relations":[],"meta":{"timestamp":"2018-06-18T08:42:57Z","version":4,"changeset":59935339,"user":"Gaurav Thapa","uid":4212590}},"geometry":{"type":"Point","coordinates":[83.9707898,28.1920988]}},{"type":"Feature","id":"node/5456987737","properties":{"type":"node","id":5456987737,"tags":{"amenity":"bank","atm":"no","name":"Ratnapuri Saving & Credit Cooperative","nrb_class":"co-operative","opening_hours":"Su-Th 10:00-16:00 ; Fr 10:00-15:00","operator:type":"private","phone":"061462278"},"relations":[],"meta":{"timestamp":"2018-06-18T08:42:57Z","version":3,"changeset":59935339,"user":"Gaurav Thapa","uid":4212590}},"geometry":{"type":"Point","coordinates":[83.9727069,28.2029361]}},{"type":"Feature","id":"node/5457059143","properties":{"type":"node","id":5457059143,"tags":{"amenity":"bank","name":"Guntechour Dood Udpadan Sahakari","nrb_class":"co-operative","source":"2cpokhara"},"relations":[],"meta":{"timestamp":"2018-06-18T08:37:38Z","version":4,"changeset":59935173,"user":"Gaurav Thapa","uid":4212590}},"geometry":{"type":"Point","coordinates":[83.9003848,28.2650953]}},{"type":"Feature","id":"node/5459645731","properties":{"type":"node","id":5459645731,"tags":{"amenity":"bank","atm":"no","name":"Rahat Krisi Sahakari","nrb_class":"co-operative","phone":"061-419487","source":"2c pokhara"},"relations":[],"meta":{"timestamp":"2018-06-18T11:14:43Z","version":3,"changeset":59940379,"user":"Gaurav Thapa","uid":4212590}},"geometry":{"type":"Point","coordinates":[83.9795878,28.224494]}},{"type":"Feature","id":"node/5459645732","properties":{"type":"node","id":5459645732,"tags":{"amenity":"bank","atm":"no","name":"Bagaicha Saving & Credit Cooperative","nrb_class":"co-operative","source":"2c pokhara"},"relations":[],"meta":{"timestamp":"2018-06-18T11:14:43Z","version":3,"changeset":59940379,"user":"Gaurav Thapa","uid":4212590}},"geometry":{"type":"Point","coordinates":[83.9797694,28.2246579]}},{"type":"Feature","id":"node/5461617920","properties":{"type":"node","id":5461617920,"tags":{"amenity":"bank","atm":"no","name":"Anukul Krishi Sahakari","nrb_class":"co-operative","opening_hours":"Mo-Th 10:00-16:00, Fr 10:00-15:00","operator:type":"community","phone":"061462738"},"relations":[],"meta":{"timestamp":"2018-06-18T09:04:28Z","version":4,"changeset":59936045,"user":"Gaurav Thapa","uid":4212590}},"geometry":{"type":"Point","coordinates":[83.9751752,28.2053666]}},{"type":"Feature","id":"node/5461924079","properties":{"type":"node","id":5461924079,"tags":{"amenity":"bank","atm":"no","name":"Sri Siddhi Vinayak Mahila Saving & Credit Cooperative","nrb_class":"co-operative","source":"2c pokhara"},"relations":[],"meta":{"timestamp":"2018-06-18T09:40:38Z","version":3,"changeset":59937293,"user":"Gaurav Thapa","uid":4212590}},"geometry":{"type":"Point","coordinates":[83.9827334,28.2285709]}},{"type":"Feature","id":"node/5461924088","properties":{"type":"node","id":5461924088,"tags":{"amenity":"bank","atm":"no","name":"Namaste Saving & Credit Cooperative","nrb_class":"co-operative","source":"2c pokhara"},"relations":[],"meta":{"timestamp":"2018-06-18T09:40:38Z","version":3,"changeset":59937293,"user":"Gaurav Thapa","uid":4212590}},"geometry":{"type":"Point","coordinates":[83.9842946,28.2243844]}},{"type":"Feature","id":"node/5462506984","properties":{"type":"node","id":5462506984,"tags":{"amenity":"bank","atm":"no","email":"info@sugamsavings.com","name":"Sugam Saving & Credit Cooperative","nrb_class":"co-operative","phone":"061-521603","source":"2c pokhara","website":"www.sugamsavings.com"},"relations":[],"meta":{"timestamp":"2018-06-18T09:40:38Z","version":3,"changeset":59937293,"user":"Gaurav Thapa","uid":4212590}},"geometry":{"type":"Point","coordinates":[83.9904687,28.2260364]}},{"type":"Feature","id":"node/5462506990","properties":{"type":"node","id":5462506990,"tags":{"amenity":"bank","atm":"no","name":"Dhawalgiri Saving & Credit Cooperative","nrb_class":"co-operative"},"relations":[],"meta":{"timestamp":"2018-06-18T10:12:51Z","version":3,"changeset":59938324,"user":"Gaurav Thapa","uid":4212590}},"geometry":{"type":"Point","coordinates":[83.9898801,28.2240019]}},{"type":"Feature","id":"node/5462506991","properties":{"type":"node","id":5462506991,"tags":{"amenity":"bank","atm":"no","name":"Buddha Saving & Credit Cooperative","nrb_class":"co-operative","phone":"061-532182,061-541183","source":"2c pokhara"},"relations":[],"meta":{"timestamp":"2018-06-18T10:12:51Z","version":3,"changeset":59938324,"user":"Gaurav Thapa","uid":4212590}},"geometry":{"type":"Point","coordinates":[83.9895718,28.2241302]}},{"type":"Feature","id":"node/5462506992","properties":{"type":"node","id":5462506992,"tags":{"amenity":"bank","atm":"no","name":"Uddhami Krisi Sahakari","nrb_class":"co-operative","phone":"061-538154","source":"2c pokhara"},"relations":[],"meta":{"timestamp":"2018-06-18T09:40:38Z","version":4,"changeset":59937293,"user":"Gaurav Thapa","uid":4212590}},"geometry":{"type":"Point","coordinates":[83.9864174,28.2242138]}},{"type":"Feature","id":"node/5462506996","properties":{"type":"node","id":5462506996,"tags":{"amenity":"bank","atm":"no","name":"Shuva Siddhartha Saving & Credit Cooperative","nrb_class":"co-operative"},"relations":[],"meta":{"timestamp":"2018-06-18T09:40:38Z","version":3,"changeset":59937293,"user":"Gaurav Thapa","uid":4212590}},"geometry":{"type":"Point","coordinates":[83.9845911,28.2242162]}},{"type":"Feature","id":"node/5466135759","properties":{"type":"node","id":5466135759,"tags":{"amenity":"bank","name":"Farmer Awareness Multipurpose Cooperative","nrb_class":"co-operative","opening_hours":"Su-Th 10:00-16:00, Fr 10:00-15:00","operator":"community","phone":"061536354"},"relations":[],"meta":{"timestamp":"2018-06-19T08:51:57Z","version":4,"changeset":59970139,"user":"Gaurav Thapa","uid":4212590}},"geometry":{"type":"Point","coordinates":[83.9723619,28.2128099]}},{"type":"Feature","id":"node/5469569848","properties":{"type":"node","id":5469569848,"tags":{"amenity":"bank","atm":"no","name":"Sakshaym Saving & Credit Cooperative","nrb_class":"co-operative","phone":"061-522722","source":"2c pokhara"},"relations":[],"meta":{"timestamp":"2018-06-18T09:40:38Z","version":4,"changeset":59937293,"user":"Gaurav Thapa","uid":4212590}},"geometry":{"type":"Point","coordinates":[83.9909405,28.2288774]}},{"type":"Feature","id":"node/5469573348","properties":{"type":"node","id":5469573348,"tags":{"amenity":"bank","name":"Shree Nawa Durga Women Saving & Credit Cooperative","nrb_class":"co-operative"},"relations":[],"meta":{"timestamp":"2018-06-18T09:56:12Z","version":3,"changeset":59937811,"user":"Gaurav Thapa","uid":4212590}},"geometry":{"type":"Point","coordinates":[84.0836853,28.1470998]}},{"type":"Feature","id":"node/5470221967","properties":{"type":"node","id":5470221967,"tags":{"amenity":"bank","name":"Subha Prabhat Saving & Credit Cooperative","nrb_class":"co-operative","opening_hours":"10:00-16:00","phone":"061534316"},"relations":[],"meta":{"timestamp":"2018-06-18T09:04:28Z","version":4,"changeset":59936045,"user":"Gaurav Thapa","uid":4212590}},"geometry":{"type":"Point","coordinates":[83.9832419,28.2175143]}},{"type":"Feature","id":"node/5470261551","properties":{"type":"node","id":5470261551,"tags":{"amenity":"bank","name":"Nagarik Saving & Credit Cooperative","nrb_class":"co-operative","phone":"061441599","source":"2cpokhara"},"relations":[],"meta":{"timestamp":"2018-06-18T10:12:51Z","version":4,"changeset":59938324,"user":"Gaurav Thapa","uid":4212590}},"geometry":{"type":"Point","coordinates":[83.9805932,28.2623656]}},{"type":"Feature","id":"node/5470300296","properties":{"type":"node","id":5470300296,"tags":{"amenity":"bank","name":"Gaubikash Multipurpose Cooperative","name:ne":"गाउँविकास बहुउदेश्य शहकारी संस्था","nrb_class":"co-operative","source":"2cpokhara"},"relations":[],"meta":{"timestamp":"2018-06-18T11:13:15Z","version":2,"changeset":59940318,"user":"Gaurav Thapa","uid":4212590}},"geometry":{"type":"Point","coordinates":[83.9795941,28.2654993]}},{"type":"Feature","id":"node/5470403020","properties":{"type":"node","id":5470403020,"tags":{"amenity":"bank","name":"Shree Jagat Kalyan Dughdha Utpadak Sahakari","nrb_class":"co-operative","source":"2cpokhara"},"relations":[],"meta":{"timestamp":"2018-06-18T09:56:12Z","version":2,"changeset":59937811,"user":"Gaurav Thapa","uid":4212590}},"geometry":{"type":"Point","coordinates":[84.0823978,28.148057]}},{"type":"Feature","id":"node/5470474228","properties":{"type":"node","id":5470474228,"tags":{"amenity":"bank","name":"Gorakhnath Krishi Sahakari","nrb_class":"co-operative","opening_hours":"10:00-16:00","source":"2cpokhara"},"relations":[],"meta":{"timestamp":"2018-06-18T09:56:12Z","version":3,"changeset":59937811,"user":"Gaurav Thapa","uid":4212590}},"geometry":{"type":"Point","coordinates":[84.0850103,28.1563188]}},{"type":"Feature","id":"node/5470481244","properties":{"type":"node","id":5470481244,"tags":{"amenity":"bank","atm":"yes","name":"Shree Bhandar Saving & Credit Cooperative","nrb_class":"co-operative"},"relations":[],"meta":{"timestamp":"2018-06-18T09:56:12Z","version":3,"changeset":59937811,"user":"Gaurav Thapa","uid":4212590}},"geometry":{"type":"Point","coordinates":[84.0645544,28.1527763]}},{"type":"Feature","id":"node/5470524935","properties":{"type":"node","id":5470524935,"tags":{"amenity":"bank","email":"asalcoop@gmail.com","name":"Asal Chhimeki Saving & Credit Cooperative","nrb_class":"co-operative","opening_hours":"Su-Th 09:45-16:00, Fr 09:45-15:00","phone":"061-460301","source":"2cpokhara"},"relations":[],"meta":{"timestamp":"2018-06-18T08:42:57Z","version":3,"changeset":59935339,"user":"Gaurav Thapa","uid":4212590}},"geometry":{"type":"Point","coordinates":[83.9712431,28.1931467]}},{"type":"Feature","id":"node/5472544150","properties":{"type":"node","id":5472544150,"tags":{"amenity":"bank","atm":"yes","name":"Palua Saving & Credit Cooperative","nrb_class":"co-operative"},"relations":[],"meta":{"timestamp":"2018-06-18T09:56:12Z","version":3,"changeset":59937811,"user":"Gaurav Thapa","uid":4212590}},"geometry":{"type":"Point","coordinates":[84.0643606,28.1508163]}},{"type":"Feature","id":"node/5472544159","properties":{"type":"node","id":5472544159,"tags":{"amenity":"bank","email":"info@royalco-oprative.com","name":"Pokhara Royal Cooperative","nrb_class":"co-operative","opening_hours":"10:00-15:00","operator:type":"public","phone":"561775"},"relations":[],"meta":{"timestamp":"2018-06-18T09:56:12Z","version":5,"changeset":59937811,"user":"Gaurav Thapa","uid":4212590}},"geometry":{"type":"Point","coordinates":[84.0645826,28.1498414]}},{"type":"Feature","id":"node/5475290104","properties":{"type":"node","id":5475290104,"tags":{"amenity":"bank","name":"Rithepani Saving & Credit Cooperative","nrb_class":"co-operative"},"relations":[],"meta":{"timestamp":"2018-06-18T11:03:36Z","version":3,"changeset":59939941,"user":"Gaurav Thapa","uid":4212590}},"geometry":{"type":"Point","coordinates":[84.0450105,28.1613427]}},{"type":"Feature","id":"node/5490535232","properties":{"type":"node","id":5490535232,"tags":{"amenity":"bank","atm":"no","name":"Sarbahit Saving and Credit Cooperative","nrb_class":"co-operative","opening_hours":"Su-Th 10:00-16:00; Fr10:00-13:00"},"relations":[],"meta":{"timestamp":"2018-03-20T09:01:37Z","version":1,"changeset":57343603,"user":"LonelyNarayan","uid":7644124}},"geometry":{"type":"Point","coordinates":[83.9192698,28.2318142]}},{"type":"Feature","id":"node/5504376860","properties":{"type":"node","id":5504376860,"tags":{"amenity":"bank","atm":"yes","email":"bihanisaving@gmail.com","name":"Bihani Saving & Credit Cooperative","nrb_class":"co-operative","opening_hours":"Su-Fr 10:00-17:00","operator":"private","phone":"061-403028","website":"www.nbihani.coop.np","wheelchair":"yes"},"relations":[],"meta":{"timestamp":"2018-06-18T11:23:36Z","version":3,"changeset":59940732,"user":"Gaurav Thapa","uid":4212590}},"geometry":{"type":"Point","coordinates":[83.9031431,28.2853297]}},{"type":"Feature","id":"node/5504979843","properties":{"type":"node","id":5504979843,"tags":{"amenity":"bank","name":"Hamro Samudayik Bachat","nrb_class":"co-operative"},"relations":[],"meta":{"timestamp":"2018-04-26T08:04:02Z","version":3,"changeset":58434260,"user":"Ro Sun","uid":3112087}},"geometry":{"type":"Point","coordinates":[83.9614382,28.2128121]}},{"type":"Feature","id":"node/5509834489","properties":{"type":"node","id":5509834489,"tags":{"amenity":"bank","atm":"no","name":"Urjashil Deposit and loans Cooperative PVT.","nrb_class":"co-operative","opening_hours":"Su-Th 10:00-16:00; Fr10:00-13:00"},"relations":[],"meta":{"timestamp":"2018-03-28T03:26:31Z","version":1,"changeset":57586089,"user":"LonelyNarayan","uid":7644124}},"geometry":{"type":"Point","coordinates":[83.9087234,28.2360906]}},{"type":"Feature","id":"node/5516604637","properties":{"type":"node","id":5516604637,"tags":{"amenity":"bank","atm":"no","contact:fax":"061-522746","name":"Samaya Saving & Credit Cooperative","nrb_class":"co-operative","phone":"061-538675"},"relations":[],"meta":{"timestamp":"2018-06-18T09:40:39Z","version":4,"changeset":59937293,"user":"Gaurav Thapa","uid":4212590}},"geometry":{"type":"Point","coordinates":[83.9882844,28.2216367]}},{"type":"Feature","id":"node/5516604648","properties":{"type":"node","id":5516604648,"tags":{"amenity":"bank","atm":"yes","name":"Dhanush Saving & Credit Cooperative","nrb_class":"co-operative","phone":"061-534509, 061-521455"},"relations":[],"meta":{"timestamp":"2018-06-18T09:40:39Z","version":4,"changeset":59937293,"user":"Gaurav Thapa","uid":4212590}},"geometry":{"type":"Point","coordinates":[83.9875286,28.2213707]}},{"type":"Feature","id":"node/5517954456","properties":{"type":"node","id":5517954456,"tags":{"amenity":"bank","atm":"yes","name":"Janata Multipurpose Cooperative","nrb_class":"co-operative","phone":"061560346","source":"2cpokhara"},"relations":[],"meta":{"timestamp":"2018-06-18T09:56:13Z","version":4,"changeset":59937811,"user":"Gaurav Thapa","uid":4212590}},"geometry":{"type":"Point","coordinates":[84.0828679,28.1328189]}},{"type":"Feature","id":"node/5518792574","properties":{"type":"node","id":5518792574,"tags":{"amenity":"bank","atm":"no","name":"Surakshya Paluwa Bahudasya Sahakari","nrb_class":"co-operative","opening_hours":"Su-Th 10:00-04:00, Fr 10:00-15:00","phone":"061-696455,696493","source":"2cpokhara"},"relations":[],"meta":{"timestamp":"2018-06-19T08:54:21Z","version":4,"changeset":59970210,"user":"Gaurav Thapa","uid":4212590}},"geometry":{"type":"Point","coordinates":[84.0439524,28.1439028]}},{"type":"Feature","id":"node/5518792582","properties":{"type":"node","id":5518792582,"tags":{"amenity":"bank","atm":"no","name":"Bharatpokhari Saving & Credit Co-operative Ltd","nrb_class":"co-operative","opening_hours":"Su-Th 10:00-16:00, Fr 10:00-15:00","phone":"9856035134","source":"2cpokhara"},"relations":[],"meta":{"timestamp":"2018-05-30T09:07:24Z","version":2,"changeset":59391266,"user":"Ro Sun","uid":3112087}},"geometry":{"type":"Point","coordinates":[84.0446606,28.1437522]}},{"type":"Feature","id":"node/5520225188","properties":{"type":"node","id":5520225188,"tags":{"amenity":"bank","atm":"no","email":"baghmarasahakari@gmail.com","name":"Baghmara Multipurpose Saving & Credit Cooperative","nrb_class":"co-operative","source":"2cpokhara"},"relations":[],"meta":{"timestamp":"2018-07-03T16:54:47Z","version":5,"changeset":60384827,"user":"Heinz_V","uid":91490}},"geometry":{"type":"Point","coordinates":[84.0401502,28.1470219]}},{"type":"Feature","id":"node/5520776295","properties":{"type":"node","id":5520776295,"tags":{"amenity":"bank","atm":"no","name":"Shree Bharapokhari Sana Kisan Krishi Sahakari","nrb_class":"co-operative","phone":"061696989"},"relations":[],"meta":{"timestamp":"2018-06-19T08:56:29Z","version":4,"changeset":59970290,"user":"Gaurav Thapa","uid":4212590}},"geometry":{"type":"Point","coordinates":[84.0406801,28.1469514]}},{"type":"Feature","id":"node/5521528090","properties":{"type":"node","id":5521528090,"tags":{"amenity":"bank","atm":"yes","name":"Kalpabrish Saving & Credit Cooperative","nrb_class":"co-operative","phone":"061-531028","source":"2cpokhara"},"relations":[],"meta":{"timestamp":"2018-06-18T09:04:28Z","version":4,"changeset":59936045,"user":"Gaurav Thapa","uid":4212590}},"geometry":{"type":"Point","coordinates":[83.9864129,28.2110212]}},{"type":"Feature","id":"node/5525019690","properties":{"type":"node","id":5525019690,"tags":{"amenity":"bank","name":"Kahun Deurali Multipurpose Cooperative","nrb_class":"co-operative","source":"2cpokhara"},"relations":[],"meta":{"timestamp":"2018-06-19T09:01:44Z","version":2,"changeset":59970444,"user":"Gaurav Thapa","uid":4212590}},"geometry":{"type":"Point","coordinates":[83.9985218,28.2312764]}},{"type":"Feature","id":"node/5531419893","properties":{"type":"node","id":5531419893,"tags":{"amenity":"bank","atm":"no","name":"Shree Kalika Saving and Credit Cooperative","nrb_class":"co-operative","source":"2cpokhara"},"relations":[],"meta":{"timestamp":"2018-06-19T09:05:39Z","version":3,"changeset":59970593,"user":"Gaurav Thapa","uid":4212590}},"geometry":{"type":"Point","coordinates":[84.0737334,28.2138829]}},{"type":"Feature","id":"node/5534029438","properties":{"type":"node","id":5534029438,"tags":{"amenity":"bank","atm":"no","name":"Mirmire Bidhut Vikas Sahakari","nrb_class":"co-operative","phone":"061-526785","source":"2cpokhara"},"relations":[],"meta":{"timestamp":"2018-06-18T09:04:28Z","version":4,"changeset":59936045,"user":"Gaurav Thapa","uid":4212590}},"geometry":{"type":"Point","coordinates":[83.9855819,28.2131039]}},{"type":"Feature","id":"node/5534029448","properties":{"type":"node","id":5534029448,"tags":{"amenity":"bank","atm":"yes","name":"Sanchar Saving & Credit Cooperative","nrb_class":"co-operative","phone":"061-527166, 061-540373","source":"2cpokhara"},"relations":[],"meta":{"timestamp":"2018-06-18T09:04:28Z","version":4,"changeset":59936045,"user":"Gaurav Thapa","uid":4212590}},"geometry":{"type":"Point","coordinates":[83.9851559,28.2119031]}},{"type":"Feature","id":"node/5534095363","properties":{"type":"node","id":5534095363,"tags":{"amenity":"bank","atm":"no","name":"Thulakhet Agriculture Cooperative","nrb_class":"co-operative","source":"2cpokhara"},"relations":[],"meta":{"timestamp":"2018-06-19T09:07:19Z","version":3,"changeset":59970651,"user":"Gaurav Thapa","uid":4212590}},"geometry":{"type":"Point","coordinates":[84.0768322,28.2129964]}},{"type":"Feature","id":"node/5542269322","properties":{"type":"node","id":5542269322,"tags":{"addr:street":"नयाँ बजार","amenity":"bank","name":"Araniko Saving & Credit Cooperative","nrb_class":"co-operative","opening_hours":"Su-Fr 10:00-17:00","phone":"061532461"},"relations":[],"meta":{"timestamp":"2018-06-18T09:04:29Z","version":4,"changeset":59936045,"user":"Gaurav Thapa","uid":4212590}},"geometry":{"type":"Point","coordinates":[83.9891368,28.2148993]}},{"type":"Feature","id":"node/5543097205","properties":{"type":"node","id":5543097205,"tags":{"amenity":"bank","atm":"no","name":"Citizen Saving & Credit Cooperative","nrb_class":"co-operative","phone":"061-537565","source":"2cpokhara"},"relations":[],"meta":{"timestamp":"2018-06-18T09:04:29Z","version":4,"changeset":59936045,"user":"Gaurav Thapa","uid":4212590}},"geometry":{"type":"Point","coordinates":[83.989211,28.2165196]}},{"type":"Feature","id":"node/5544259255","properties":{"type":"node","id":5544259255,"tags":{"amenity":"bank","atm":"no","name":"Phritvi Multipurpose Cooperative","nrb_class":"co-operative","phone":"061-534690, 061-534694","source":"2cpokhara"},"relations":[],"meta":{"timestamp":"2018-06-18T11:13:16Z","version":4,"changeset":59940318,"user":"Gaurav Thapa","uid":4212590}},"geometry":{"type":"Point","coordinates":[83.9850699,28.2092274]}},{"type":"Feature","id":"node/5544259259","properties":{"type":"node","id":5544259259,"tags":{"amenity":"bank","atm":"no","contact:fax":"540065","email":"pokharadugda@gmail.com","name":"Pokhara Dairy Producers Cooperative","nrb_class":"co-operative","phone":"061-522786, 01-522787, 061-527807, 061-537957","source":"2cpokhara"},"relations":[],"meta":{"timestamp":"2018-06-18T09:04:29Z","version":4,"changeset":59936045,"user":"Gaurav Thapa","uid":4212590}},"geometry":{"type":"Point","coordinates":[83.9844001,28.2083988]}},{"type":"Feature","id":"node/5544259262","properties":{"type":"node","id":5544259262,"tags":{"amenity":"bank","atm":"no","name":"Paschimanchal Health Cooperative","nrb_class":"co-operative","phone":"061-535046","source":"2cpokhara"},"relations":[],"meta":{"timestamp":"2018-06-18T09:04:29Z","version":4,"changeset":59936045,"user":"Gaurav Thapa","uid":4212590}},"geometry":{"type":"Point","coordinates":[83.9836748,28.2073065]}},{"type":"Feature","id":"node/5544259266","properties":{"type":"node","id":5544259266,"tags":{"amenity":"bank","atm":"no","name":"Nagdhunga Saving & Credit Cooperative","nrb_class":"co-operative","phone":"061-531349, 061-531397","source":"2cpokhara"},"relations":[],"meta":{"timestamp":"2018-06-18T09:04:29Z","version":5,"changeset":59936045,"user":"Gaurav Thapa","uid":4212590}},"geometry":{"type":"Point","coordinates":[83.982694,28.2049957]}},{"type":"Feature","id":"node/5544259300","properties":{"type":"node","id":5544259300,"tags":{"amenity":"bank","atm":"no","name":"Shree Bangur Breeder Krisi Sahakari","nrb_class":"co-operative","source":"2cpokhara"},"relations":[],"meta":{"timestamp":"2018-06-18T09:04:29Z","version":3,"changeset":59936045,"user":"Gaurav Thapa","uid":4212590}},"geometry":{"type":"Point","coordinates":[83.9886716,28.208789]}},{"type":"Feature","id":"node/5544278183","properties":{"type":"node","id":5544278183,"tags":{"amenity":"bank","atm":"no","name":"Aviral Krisi Sahakari","nrb_class":"co-operative","phone":"061-534309, 061-524310","source":"2cpokhara"},"relations":[],"meta":{"timestamp":"2018-06-18T10:12:52Z","version":4,"changeset":59938324,"user":"Gaurav Thapa","uid":4212590}},"geometry":{"type":"Point","coordinates":[83.9905355,28.2180191]}},{"type":"Feature","id":"node/5544278191","properties":{"type":"node","id":5544278191,"tags":{"amenity":"bank","atm":"no","name":"Sanyukata Saving & Credit Cooperative","nrb_class":"co-operative","source":"2cpokhara"},"relations":[],"meta":{"timestamp":"2018-06-18T09:04:29Z","version":3,"changeset":59936045,"user":"Gaurav Thapa","uid":4212590}},"geometry":{"type":"Point","coordinates":[83.9890714,28.214648]}},{"type":"Feature","id":"node/5544278192","properties":{"type":"node","id":5544278192,"tags":{"amenity":"bank","atm":"no","name":"Mitra Milan Krisi Sahakari","nrb_class":"co-operative","phone":"061-531798","source":"2cpokhara"},"relations":[],"meta":{"timestamp":"2018-06-18T09:04:29Z","version":4,"changeset":59936045,"user":"Gaurav Thapa","uid":4212590}},"geometry":{"type":"Point","coordinates":[83.9890567,28.214454]}},{"type":"Feature","id":"node/5550711336","properties":{"type":"node","id":5550711336,"tags":{"amenity":"bank","atm":"no","name":"Sana Kisan Kirishi Sahakari","nrb_class":"co-operative","phone":"061611491","source":"2cpokhara"},"relations":[],"meta":{"timestamp":"2018-06-19T09:08:21Z","version":4,"changeset":59970689,"user":"Gaurav Thapa","uid":4212590}},"geometry":{"type":"Point","coordinates":[83.985488,28.1589758]}},{"type":"Feature","id":"node/5556007779","properties":{"type":"node","id":5556007779,"tags":{"amenity":"bank","atm":"yes","email":"arghauhnsahakari@gmail.com","name":"Arghaun Agriculture Coopreative","nrb_class":"co-operative","opening_hours":"10:00-16:00","operator":"public","phone":"06161089"},"relations":[],"meta":{"timestamp":"2018-06-18T09:56:13Z","version":4,"changeset":59937811,"user":"Gaurav Thapa","uid":4212590}},"geometry":{"type":"Point","coordinates":[84.0490737,28.1751472]}},{"type":"Feature","id":"node/5572382713","properties":{"type":"node","id":5572382713,"tags":{"amenity":"bank","atm":"no","name":"Himchili Bikas Sahakari","nrb_class":"co-operative","source":"2c peset"},"relations":[],"meta":{"timestamp":"2018-06-19T05:25:14Z","version":3,"changeset":59964400,"user":"Gaurav Thapa","uid":4212590}},"geometry":{"type":"Point","coordinates":[83.9774936,28.2071037]}},{"type":"Feature","id":"node/5579903393","properties":{"type":"node","id":5579903393,"tags":{"amenity":"bank","atm":"no","name":"Jaya Rupa Tal Cooperative","nrb_class":"co-operative"},"relations":[],"meta":{"timestamp":"2018-06-18T11:03:36Z","version":3,"changeset":59939941,"user":"Gaurav Thapa","uid":4212590}},"geometry":{"type":"Point","coordinates":[84.1090494,28.1354065]}},{"type":"Feature","id":"node/5579903405","properties":{"type":"node","id":5579903405,"tags":{"amenity":"bank","atm":"no","name":"Batika Saving & Credit Cooperative","nrb_class":"co-operative","opening_hours":"10:00-17:00","operator:type":"private"},"relations":[],"meta":{"timestamp":"2018-06-18T09:56:13Z","version":3,"changeset":59937811,"user":"Gaurav Thapa","uid":4212590}},"geometry":{"type":"Point","coordinates":[84.0973154,28.1314686]}},{"type":"Feature","id":"node/5580014944","properties":{"type":"node","id":5580014944,"tags":{"amenity":"bank","atm":"no","name":"Masina Tourism Cooperative","nrb_class":"co-operative"},"relations":[],"meta":{"timestamp":"2018-06-18T11:03:36Z","version":3,"changeset":59939941,"user":"Gaurav Thapa","uid":4212590}},"geometry":{"type":"Point","coordinates":[84.0920591,28.1150929]}},{"type":"Feature","id":"node/5580150196","properties":{"type":"node","id":5580150196,"tags":{"amenity":"bank","atm":"yes","name":"Malayan Patan Cooperative","nrb_class":"co-operative","source":"2C_Pokhara Field Visit 2018"},"relations":[],"meta":{"timestamp":"2018-06-19T09:15:06Z","version":5,"changeset":59970895,"user":"Gaurav Thapa","uid":4212590}},"geometry":{"type":"Point","coordinates":[84.1097677,28.1147735]}},{"type":"Feature","id":"node/5580150203","properties":{"type":"node","id":5580150203,"tags":{"amenity":"bank","atm":"yes","name":"Mandali Cooperative","nrb_class":"co-operative"},"relations":[],"meta":{"timestamp":"2018-06-18T11:03:36Z","version":4,"changeset":59939941,"user":"Gaurav Thapa","uid":4212590}},"geometry":{"type":"Point","coordinates":[84.1019954,28.1173876]}},{"type":"Feature","id":"node/5581676379","properties":{"type":"node","id":5581676379,"tags":{"addr:suburb":"Begnas","amenity":"bank","atm":"no","email":"sanakisanbegnas@gmail.com","name":"Small Farmer Begnas Agricultural Cooperative","nrb_class":"co-operative","opening_hours":"Su-Fr 10:00-17:00","operator:type":"private","phone":"061-561555","wheelchair":"yes"},"relations":[],"meta":{"timestamp":"2018-06-18T09:56:13Z","version":4,"changeset":59937811,"user":"Gaurav Thapa","uid":4212590}},"geometry":{"type":"Point","coordinates":[84.0908977,28.1642311]}},{"type":"Feature","id":"node/5581676388","properties":{"type":"node","id":5581676388,"tags":{"amenity":"bank","atm":"no","name":"Leknath Community Agricultural Cooperative","nrb_class":"co-operative","opening_hours":"Su-Fr 10:00-16:00","operator:type":"private","wheelchair":"yes"},"relations":[],"meta":{"timestamp":"2018-06-18T11:03:37Z","version":3,"changeset":59939941,"user":"Gaurav Thapa","uid":4212590}},"geometry":{"type":"Point","coordinates":[84.090663,28.1640769]}},{"type":"Feature","id":"node/5581676389","properties":{"type":"node","id":5581676389,"tags":{"amenity":"bank","atm":"no","name":"Begnas Saving & Loan Cooperative","nrb_class":"co-operative","opening_hours":"Su-Fr 10:00-16:00","operator:type":"private","wheelchair":"yes"},"relations":[],"meta":{"timestamp":"2018-06-18T11:03:37Z","version":3,"changeset":59939941,"user":"Gaurav Thapa","uid":4212590}},"geometry":{"type":"Point","coordinates":[84.0903727,28.1641017]}},{"type":"Feature","id":"node/5581851412","properties":{"type":"node","id":5581851412,"tags":{"amenity":"bank","atm":"no","name":"Pratikya Cooperative","nrb_class":"co-operative"},"relations":[],"meta":{"timestamp":"2018-06-03T09:43:31Z","version":3,"changeset":59503665,"user":"Ro Sun","uid":3112087}},"geometry":{"type":"Point","coordinates":[84.1260139,28.1670988]}},{"type":"Feature","id":"node/5588186883","properties":{"type":"node","id":5588186883,"tags":{"amenity":"bank","name":"Banspani Krishi Sahakari","name:ne":"बासपानी कृषि सहकारी","nrb_class":"co-operative","source":"2c peset"},"relations":[],"meta":{"timestamp":"2018-06-03T09:43:31Z","version":2,"changeset":59503665,"user":"Ro Sun","uid":3112087}},"geometry":{"type":"Point","coordinates":[83.917336,28.2020526]}},{"type":"Feature","id":"node/5588251622","properties":{"type":"node","id":5588251622,"tags":{"amenity":"bank","name":"Viewpoint Saving & Credit Cooperative","nrb_class":"co-operative","source":"2c peset"},"relations":[],"meta":{"timestamp":"2018-06-18T08:42:57Z","version":4,"changeset":59935339,"user":"Gaurav Thapa","uid":4212590}},"geometry":{"type":"Point","coordinates":[83.9327768,28.188827]}},{"type":"Feature","id":"node/5596051721","properties":{"type":"node","id":5596051721,"tags":{"addr:street":"Gyan Marga, Nadipur","amenity":"bank","name":"Sakshyam Saving & Credit Cooperative","nrb_class":"co-operative"},"relations":[],"meta":{"timestamp":"2018-06-18T09:40:39Z","version":3,"changeset":59937293,"user":"Gaurav Thapa","uid":4212590}},"geometry":{"type":"Point","coordinates":[83.9909833,28.2278213]}},{"type":"Feature","id":"node/5598345044","properties":{"type":"node","id":5598345044,"tags":{"amenity":"bank","atm":"no","name":"Con Community Saving & Credit Cooperative","nrb_class":"co-operative","operator:type":"private","phone":"061535795"},"relations":[],"meta":{"timestamp":"2018-06-18T11:13:16Z","version":3,"changeset":59940318,"user":"Gaurav Thapa","uid":4212590}},"geometry":{"type":"Point","coordinates":[84.0128683,28.2142007]}},{"type":"Feature","id":"node/5598608596","properties":{"type":"node","id":5598608596,"tags":{"amenity":"bank","atm":"yes","name":"Fafulla Bikapa Saving & Cooperative","nrb_class":"co-operative","phone":"061532015"},"relations":[],"meta":{"timestamp":"2018-06-18T11:13:16Z","version":3,"changeset":59940318,"user":"Gaurav Thapa","uid":4212590}},"geometry":{"type":"Point","coordinates":[84.0092446,28.2097743]}},{"type":"Feature","id":"node/5598643494","properties":{"type":"node","id":5598643494,"tags":{"amenity":"bank","atm":"no","name":"Prabhu Dham Hariyali Agricultural Cooperative","nrb_class":"co-operative"},"relations":[],"meta":{"timestamp":"2018-06-19T09:16:25Z","version":3,"changeset":59970926,"user":"Gaurav Thapa","uid":4212590}},"geometry":{"type":"Point","coordinates":[84.0297098,28.2259726]}},{"type":"Feature","id":"node/5598644136","properties":{"type":"node","id":5598644136,"tags":{"amenity":"bank","atm":"no","email":"ratan60panday@gmail.com","name":"Ratanpanday Saving & Credit Cooperative","nrb_class":"co-operative","operator:type":"private","phone":"061520541"},"relations":[],"meta":{"timestamp":"2018-06-19T09:22:05Z","version":3,"changeset":59971087,"user":"Gaurav Thapa","uid":4212590}},"geometry":{"type":"Point","coordinates":[84.0312628,28.2173051]}},{"type":"Feature","id":"node/5615303780","properties":{"type":"node","id":5615303780,"tags":{"amenity":"bank","atm":"yes","name":"Astalakshmi Bachat Tatha Rin Sahakari","nrb_class":"co-operative","opening_hours":"9:00-16:00","operator":"private","phone":"061-525382","source":"2cpokhara"},"relations":[],"meta":{"timestamp":"2018-05-30T09:07:26Z","version":2,"changeset":59391266,"user":"Ro Sun","uid":3112087}},"geometry":{"type":"Point","coordinates":[83.9966027,28.2208703]}},{"type":"Feature","id":"node/5645140801","properties":{"type":"node","id":5645140801,"tags":{"addr:place":"Upakar MArga","amenity":"bank","email":"amarsinghkrishi@gmail.com","name":"Shree Amarsingh Agricultural Cooperative","name:ne":"श्री अमरसिंह कृषि शहकारी संस्था लिमिटेड","nrb_class":"co-operative","phone":"061523253"},"relations":[],"meta":{"timestamp":"2018-06-18T10:12:52Z","version":4,"changeset":59938324,"user":"Gaurav Thapa","uid":4212590}},"geometry":{"type":"Point","coordinates":[84.0024894,28.2072635]}},{"type":"Feature","id":"node/5645140804","properties":{"type":"node","id":5645140804,"tags":{"amenity":"bank","email":"siddarthagautamcooperative@gmail.com","name":"Siddartha Gautam Saving & Credit Cooperative","nrb_class":"co-operative","phone":"061531010"},"relations":[],"meta":{"timestamp":"2018-06-18T09:04:30Z","version":3,"changeset":59936045,"user":"Gaurav Thapa","uid":4212590}},"geometry":{"type":"Point","coordinates":[84.0025163,28.2055309]}},{"type":"Feature","id":"node/5649162206","properties":{"type":"node","id":5649162206,"tags":{"amenity":"bank","name":"Devshilpee Saving & Credit Cooperative","name:ne":"देभसिल्पी सेभिङ्ग ऐण्ड को-ओपरेटिभ लिमिटेड","nrb_class":"co-operative","opening_hours":"Su-Th 10:00-16:00, Fr 10:00-15:00","phone":"061-430248","source":"2cpokhara Field Visit"},"relations":[],"meta":{"timestamp":"2018-06-18T09:04:30Z","version":4,"changeset":59936045,"user":"Gaurav Thapa","uid":4212590}},"geometry":{"type":"Point","coordinates":[83.9941169,28.2060911]}}],"createdOn":1531387040493}