{"type":"FeatureCollection","features":[{"type":"Feature","id":"way/414297818","properties":{"type":"way","id":414297818,"tags":{"amenity":"dentist","building":"yes","name":"Family Dental Care","name:ne":"फ्यामेली डेण्टल कियर"},"relations":[],"meta":{"timestamp":"2016-08-19T05:41:49Z","version":3,"changeset":41548845,"user":"Parassrest","uid":3569249}},"geometry":{"type":"Point","coordinates":[83.99110015,28.22499905]}},{"type":"Feature","id":"way/414313935","properties":{"type":"way","id":414313935,"tags":{"amenity":"dentist","building":"yes","name":"Orchid Dental and Orthodontic Centre","name:ne":"ओरकिड डेन्टल एंड ओर्थोदेंटिक सेन्टर"},"relations":[],"meta":{"timestamp":"2018-05-13T18:12:05Z","version":4,"changeset":58930764,"user":"Abash Paudel","uid":6677482}},"geometry":{"type":"Point","coordinates":[83.99226189999999,28.222996650000002]}},{"type":"Feature","id":"way/422034695","properties":{"type":"way","id":422034695,"tags":{"amenity":"dentist","building":"yes","contact:phone":"061-46654","name":"Paschimanchal Dental","source":"2cpokhara"},"relations":[],"meta":{"timestamp":"2018-03-11T09:04:05Z","version":3,"changeset":57075740,"user":"Sagarsubedi205","uid":7632456}},"geometry":{"type":"Point","coordinates":[83.971100275,28.193947100000003]}},{"type":"Feature","id":"node/4183083746","properties":{"type":"node","id":4183083746,"tags":{"amenity":"dentist","name":"Madhavi Dental Care","name:en":"Madhavi Dental Care"},"relations":[],"meta":{"timestamp":"2017-07-11T04:23:39Z","version":3,"changeset":50191454,"user":"Ro Sun","uid":3112087}},"geometry":{"type":"Point","coordinates":[83.9813485,28.2244947]}},{"type":"Feature","id":"node/4191244513","properties":{"type":"node","id":4191244513,"tags":{"addr:street":"Sabhagriha Chowk-8, Pokhara","amenity":"dentist","name":"Dolphin Dental Care Center","name:ne":"दोल्फिन डेन्टल सेन्टर","phone":"061-533742","source":"2C Pokhara Field Data Collection"},"relations":[],"meta":{"timestamp":"2018-06-18T05:11:49Z","version":4,"changeset":59929250,"user":"Gaurav Thapa","uid":4212590}},"geometry":{"type":"Point","coordinates":[83.9848158,28.2120516]}},{"type":"Feature","id":"node/4287522929","properties":{"type":"node","id":4287522929,"tags":{"amenity":"dentist","name":"Mata Mankamana Dental","name:ne":"माता मनकामना डेन्टल"},"relations":[],"meta":{"timestamp":"2016-08-21T06:14:18Z","version":2,"changeset":41587356,"user":"Alisha12","uid":4204463}},"geometry":{"type":"Point","coordinates":[83.9867026,28.2181893]}},{"type":"Feature","id":"node/4296138313","properties":{"type":"node","id":4296138313,"tags":{"amenity":"dentist","name":"BB Dental Clinic","name:ne":"बि.बि. डेण्टल क्लिनिक"},"relations":[],"meta":{"timestamp":"2016-08-19T05:13:08Z","version":2,"changeset":41548576,"user":"Parassrest","uid":3569249}},"geometry":{"type":"Point","coordinates":[83.9905203,28.2232981]}},{"type":"Feature","id":"node/4296138318","properties":{"type":"node","id":4296138318,"tags":{"amenity":"dentist","name":"Gandaki Dental Clinic","name:ne":"गण्डकी डेन्टल क्लिनिक"},"relations":[],"meta":{"timestamp":"2016-08-21T10:52:42Z","version":2,"changeset":41591158,"user":"Ro Sun","uid":3112087}},"geometry":{"type":"Point","coordinates":[83.990384,28.2233355]}},{"type":"Feature","id":"node/4296138319","properties":{"type":"node","id":4296138319,"tags":{"amenity":"dentist","name":"New Gandaki Dental Clinic","name:ne":"गण्डकी डेन्टल क्लिनीक","phone":"+977061525660"},"relations":[],"meta":{"timestamp":"2017-03-04T12:53:02Z","version":3,"changeset":46571933,"user":"aanantaa","uid":5427222}},"geometry":{"type":"Point","coordinates":[83.9903038,28.2234123]}},{"type":"Feature","id":"node/4296138321","properties":{"type":"node","id":4296138321,"tags":{"amenity":"dentist","name":"Himal Dental Clinic","name:ne":"हिमाल डेण्टल क्लिनिक"},"relations":[],"meta":{"timestamp":"2016-08-19T05:13:08Z","version":2,"changeset":41548576,"user":"Parassrest","uid":3569249}},"geometry":{"type":"Point","coordinates":[83.9904991,28.2233016]}},{"type":"Feature","id":"node/4296138322","properties":{"type":"node","id":4296138322,"tags":{"amenity":"dentist","name":"Machhapuchre Dental","name:ne":"माछापुच्छ्रे डेन्टल"},"relations":[],"meta":{"timestamp":"2016-08-21T07:05:39Z","version":2,"changeset":41587913,"user":"Alisha12","uid":4204463}},"geometry":{"type":"Point","coordinates":[83.9903296,28.2233447]}},{"type":"Feature","id":"node/4296138323","properties":{"type":"node","id":4296138323,"tags":{"amenity":"dentist","name":"Nice Dental Care","name:ne":"नाइस डेन्टल केएर"},"relations":[],"meta":{"timestamp":"2016-08-21T07:05:39Z","version":2,"changeset":41587913,"user":"Alisha12","uid":4204463}},"geometry":{"type":"Point","coordinates":[83.990104,28.2232189]}},{"type":"Feature","id":"node/4296138327","properties":{"type":"node","id":4296138327,"tags":{"amenity":"dentist","name":"Paropakar Dental Care Center","name:ne":"परोपकार डेन्टल क्लिनिक","phone":"061-522267"},"relations":[],"meta":{"timestamp":"2018-06-18T04:40:30Z","version":3,"changeset":59928751,"user":"Gaurav Thapa","uid":4212590}},"geometry":{"type":"Point","coordinates":[83.9901482,28.2233821]}},{"type":"Feature","id":"node/4296138332","properties":{"type":"node","id":4296138332,"tags":{"amenity":"dentist","name":"The Dental Care","name:ne":"डेण्टल कियर"},"relations":[],"meta":{"timestamp":"2016-08-19T05:13:09Z","version":2,"changeset":41548576,"user":"Parassrest","uid":3569249}},"geometry":{"type":"Point","coordinates":[83.9907113,28.2232443]}},{"type":"Feature","id":"node/4361366697","properties":{"type":"node","id":4361366697,"tags":{"amenity":"dentist","name":"Fewa Dental Clinic","name:ne":"फेवा डेन्टल क्लिनिक","phone":"061-22933, 9856029059"},"relations":[],"meta":{"timestamp":"2018-06-18T05:05:55Z","version":5,"changeset":59929152,"user":"Gaurav Thapa","uid":4212590}},"geometry":{"type":"Point","coordinates":[83.9873774,28.2240161]}},{"type":"Feature","id":"node/4419889492","properties":{"type":"node","id":4419889492,"tags":{"amenity":"dentist","name":"Paschimanchal Dental Home","opening_hours":"09:00-16:00","start_date":"2067"},"relations":[],"meta":{"timestamp":"2016-10-24T08:37:25Z","version":3,"changeset":43117062,"user":"Alisha12","uid":4204463}},"geometry":{"type":"Point","coordinates":[83.9867251,28.2113635]}},{"type":"Feature","id":"node/4511683041","properties":{"type":"node","id":4511683041,"tags":{"amenity":"dentist","name":"Brighter Dental","name:ne":"ब्राईटर डेण्टल"},"relations":[],"meta":{"timestamp":"2016-11-20T08:59:52Z","version":1,"changeset":43817265,"user":"Ro Sun","uid":3112087}},"geometry":{"type":"Point","coordinates":[83.9877172,28.239716]}},{"type":"Feature","id":"node/4511683042","properties":{"type":"node","id":4511683042,"tags":{"amenity":"dentist","name":"Global Dental Care","name:ne":"ग्लोबल डेन्टल कियर"},"relations":[],"meta":{"timestamp":"2016-11-20T08:59:52Z","version":1,"changeset":43817265,"user":"Ro Sun","uid":3112087}},"geometry":{"type":"Point","coordinates":[83.9841123,28.2433666]}},{"type":"Feature","id":"node/4571467981","properties":{"type":"node","id":4571467981,"tags":{"amenity":"dentist","name":"Garima Dental Clinic","phone":"9846113613, 9805812677"},"relations":[],"meta":{"timestamp":"2018-06-18T05:11:49Z","version":4,"changeset":59929250,"user":"Gaurav Thapa","uid":4212590}},"geometry":{"type":"Point","coordinates":[84.0007321,28.2047375]}},{"type":"Feature","id":"node/4586787608","properties":{"type":"node","id":4586787608,"tags":{"amenity":"dentist","name":"Namaste Dental Care Centre","source":"2C Pokhara Field Data Collection"},"relations":[],"meta":{"timestamp":"2017-01-03T10:29:36Z","version":1,"changeset":44867196,"user":"Bishal9841","uid":3573216}},"geometry":{"type":"Point","coordinates":[83.9865104,28.2172837]}},{"type":"Feature","id":"node/4597652681","properties":{"type":"node","id":4597652681,"tags":{"amenity":"dentist","name":"Birauta Dental Clinic","source":"2C Pokhara Field Data Collection"},"relations":[],"meta":{"timestamp":"2017-04-20T09:05:12Z","version":3,"changeset":47964672,"user":"Alisha12","uid":4204463}},"geometry":{"type":"Point","coordinates":[83.9711226,28.1924925]}},{"type":"Feature","id":"node/4599587146","properties":{"type":"node","id":4599587146,"tags":{"amenity":"dentist","name":"Shyam Dental","source":"2C Pokhara Field Data Collection"},"relations":[],"meta":{"timestamp":"2017-01-10T11:00:43Z","version":1,"changeset":45047753,"user":"Alisha12","uid":4204463}},"geometry":{"type":"Point","coordinates":[83.9875687,28.2410969]}},{"type":"Feature","id":"node/4601383671","properties":{"type":"node","id":4601383671,"tags":{"amenity":"dentist","name":"Perfect Dental Care","operator":"Private","phone":"061 522760","source":"2C Pokhara Field Data Collection"},"relations":[],"meta":{"timestamp":"2018-06-18T05:05:55Z","version":4,"changeset":59929152,"user":"Gaurav Thapa","uid":4212590}},"geometry":{"type":"Point","coordinates":[83.9860616,28.224263]}},{"type":"Feature","id":"node/4674651332","properties":{"type":"node","id":4674651332,"tags":{"amenity":"dentist","name":"Dhaulagiri Dental Home","phone":"9819128147","source":"2cpokhara"},"relations":[],"meta":{"timestamp":"2018-06-18T05:05:55Z","version":3,"changeset":59929152,"user":"Gaurav Thapa","uid":4212590}},"geometry":{"type":"Point","coordinates":[83.9715489,28.261074]}},{"type":"Feature","id":"node/4686383769","properties":{"type":"node","id":4686383769,"tags":{"amenity":"dentist","name":"Amarsingh Dental Clinic","name:ne":"अमरसिंह डेंटल क्लिनिक"},"relations":[],"meta":{"timestamp":"2017-09-14T07:40:48Z","version":2,"changeset":52028129,"user":"marek kleciak","uid":338611}},"geometry":{"type":"Point","coordinates":[84.000609,28.2052446]}},{"type":"Feature","id":"node/4790245521","properties":{"type":"node","id":4790245521,"tags":{"amenity":"dentist","name":"Asta Dental Clinic"},"relations":[],"meta":{"timestamp":"2017-04-13T04:22:31Z","version":2,"changeset":47729169,"user":"ayushupreti22","uid":3911278}},"geometry":{"type":"Point","coordinates":[83.9589115,28.2139653]}},{"type":"Feature","id":"node/4798610256","properties":{"type":"node","id":4798610256,"tags":{"amenity":"dentist","name":"Smile Care and Dential Care","phone":"061540606"},"relations":[],"meta":{"timestamp":"2018-06-18T05:05:55Z","version":3,"changeset":59929152,"user":"Gaurav Thapa","uid":4212590}},"geometry":{"type":"Point","coordinates":[83.9896381,28.2260926]}},{"type":"Feature","id":"node/4807395857","properties":{"type":"node","id":4807395857,"tags":{"amenity":"dentist","name":"Yepolo Dental"},"relations":[],"meta":{"timestamp":"2017-04-21T11:16:23Z","version":1,"changeset":47999657,"user":"Alisha12","uid":4204463}},"geometry":{"type":"Point","coordinates":[84.0361941,28.1845465]}},{"type":"Feature","id":"node/4912025610","properties":{"type":"node","id":4912025610,"tags":{"amenity":"dentist","name":"Pokhara Shining Health and Dental Clinic","source":"2cpokhara"},"relations":[],"meta":{"timestamp":"2018-03-02T15:23:57Z","version":2,"changeset":56823290,"user":"Rabin Ojha","uid":6075053}},"geometry":{"type":"Point","coordinates":[83.98331,28.2434484]}},{"type":"Feature","id":"node/4912038293","properties":{"type":"node","id":4912038293,"tags":{"amenity":"dentist","name":"Annapurna Dental Care"},"relations":[],"meta":{"timestamp":"2017-06-13T06:27:49Z","version":1,"changeset":49489135,"user":"Ro Sun","uid":3112087}},"geometry":{"type":"Point","coordinates":[83.9873986,28.2414278]}},{"type":"Feature","id":"node/4912048174","properties":{"type":"node","id":4912048174,"tags":{"amenity":"dentist","name":"Ghandruk Dental Care","phone":"9846023634"},"relations":[],"meta":{"timestamp":"2018-06-18T04:55:06Z","version":3,"changeset":59928975,"user":"Gaurav Thapa","uid":4212590}},"geometry":{"type":"Point","coordinates":[83.9890828,28.2443301]}},{"type":"Feature","id":"node/4912099623","properties":{"type":"node","id":4912099623,"tags":{"amenity":"dentist","name":"Poineer Dental Clinic"},"relations":[],"meta":{"timestamp":"2017-06-13T06:54:30Z","version":1,"changeset":49489866,"user":"Ro Sun","uid":3112087}},"geometry":{"type":"Point","coordinates":[83.9902884,28.2262324]}},{"type":"Feature","id":"node/4912174118","properties":{"type":"node","id":4912174118,"tags":{"amenity":"dentist","name":"Machhapuchchre Dental Clinic"},"relations":[],"meta":{"timestamp":"2018-01-05T08:02:08Z","version":2,"changeset":55179485,"user":"Gaurav Thapa","uid":4212590}},"geometry":{"type":"Point","coordinates":[83.9994277,28.2050653]}},{"type":"Feature","id":"node/4933675024","properties":{"type":"node","id":4933675024,"tags":{"amenity":"dentist","name":"Metrocity Dental Clinic"},"relations":[],"meta":{"timestamp":"2017-06-24T08:14:13Z","version":1,"changeset":49788609,"user":"Ro Sun","uid":3112087}},"geometry":{"type":"Point","coordinates":[83.9816359,28.2117631]}},{"type":"Feature","id":"node/5027636822","properties":{"type":"node","id":5027636822,"tags":{"amenity":"dentist","name":"Star Dental Clinic","name:en":"Star Dental Clinic","phone":"+977-061-465036"},"relations":[],"meta":{"timestamp":"2018-06-18T05:05:55Z","version":4,"changeset":59929152,"user":"Gaurav Thapa","uid":4212590}},"geometry":{"type":"Point","coordinates":[83.9668056,28.2115133]}},{"type":"Feature","id":"node/5100170787","properties":{"type":"node","id":5100170787,"tags":{"amenity":"dentist","name":"32 Dental Care"},"relations":[],"meta":{"timestamp":"2017-09-12T08:47:16Z","version":1,"changeset":51965243,"user":"Ashish Thapa","uid":4039113}},"geometry":{"type":"Point","coordinates":[84.0568323,28.1627722]}},{"type":"Feature","id":"node/5157241890","properties":{"type":"node","id":5157241890,"tags":{"amenity":"dentist","name":"Nice Dental Care Centre"},"relations":[],"meta":{"timestamp":"2017-10-09T15:19:17Z","version":1,"changeset":52763155,"user":"Ashish Thapa","uid":4039113}},"geometry":{"type":"Point","coordinates":[83.9900333,28.2262877]}},{"type":"Feature","id":"node/5240720822","properties":{"type":"node","id":5240720822,"tags":{"amenity":"dentist","facility:x-ray":"yes","name":"Amrit Dental Clinic","name:en":"Amrit Dental Clinic","phone":"9846044312, 9846044313"},"relations":[],"meta":{"timestamp":"2018-06-18T05:05:55Z","version":4,"changeset":59929152,"user":"Gaurav Thapa","uid":4212590}},"geometry":{"type":"Point","coordinates":[84.0683891,28.1636815]}},{"type":"Feature","id":"node/5456766170","properties":{"type":"node","id":5456766170,"tags":{"amenity":"dentist","name":"Bindabasini Dental Care","name:ne":"बिन्दबासिनी डेन्टल केर","opening_hours":"Su-Fr 10:00-17:00","phone":"061-461976","source":"2cpokhara","wheelchair":"yes"},"relations":[],"meta":{"timestamp":"2018-06-18T05:05:55Z","version":3,"changeset":59929152,"user":"Gaurav Thapa","uid":4212590}},"geometry":{"type":"Point","coordinates":[83.9703117,28.1919605]}},{"type":"Feature","id":"node/5462506989","properties":{"type":"node","id":5462506989,"tags":{"addr:city":"Pokhara","addr:housenumber":"14","addr:street":"Mahendrapool","amenity":"dentist","email":"doctortoothdentalcare@gmail.com","name":"Doctor Tooth Dental Care","phone":"061-551106","source":"2c pokhara"},"relations":[],"meta":{"timestamp":"2018-06-18T05:11:50Z","version":3,"changeset":59929250,"user":"Gaurav Thapa","uid":4212590}},"geometry":{"type":"Point","coordinates":[83.9900518,28.2240743]}},{"type":"Feature","id":"node/5463724243","properties":{"type":"node","id":5463724243,"tags":{"amenity":"dentist","name":"Buddha Dental Care","phone":"061-528494","source":"2c pokhara"},"relations":[],"meta":{"timestamp":"2018-03-08T07:05:14Z","version":1,"changeset":56989579,"user":"Active Asmita","uid":7644107}},"geometry":{"type":"Point","coordinates":[83.9883746,28.2262448]}},{"type":"Feature","id":"node/5470524936","properties":{"type":"node","id":5470524936,"tags":{"amenity":"dentist","name":"Birauta Dental Clinic","phone":"98460482199, 9846285830","source":"2cpokhara"},"relations":[],"meta":{"timestamp":"2018-06-18T05:07:24Z","version":2,"changeset":59929171,"user":"Gaurav Thapa","uid":4212590}},"geometry":{"type":"Point","coordinates":[83.9711881,28.1924129]}},{"type":"Feature","id":"node/5472541740","properties":{"type":"node","id":5472541740,"tags":{"amenity":"dentist","name":"Mata Manakamana Dental","opening_hours":"7:00-15:00"},"relations":[],"meta":{"timestamp":"2018-06-18T04:47:01Z","version":2,"changeset":59928845,"user":"Gaurav Thapa","uid":4212590}},"geometry":{"type":"Point","coordinates":[84.0639013,28.1516565]}},{"type":"Feature","id":"node/5491329775","properties":{"type":"node","id":5491329775,"tags":{"amenity":"dentist","name":"Padmashree Dental Home","phone":"061-622191","source":"2cpokhara"},"relations":[],"meta":{"timestamp":"2018-06-18T05:11:50Z","version":3,"changeset":59929250,"user":"Gaurav Thapa","uid":4212590}},"geometry":{"type":"Point","coordinates":[83.9866103,28.2194362]}},{"type":"Feature","id":"node/5491329780","properties":{"type":"node","id":5491329780,"tags":{"amenity":"dentist","name":"Doctors Dental & Implant Centre","phone":"061-696687, 9857622234","source":"2cpokhara"},"relations":[],"meta":{"timestamp":"2018-06-18T05:11:50Z","version":2,"changeset":59929250,"user":"Gaurav Thapa","uid":4212590}},"geometry":{"type":"Point","coordinates":[83.9869456,28.220777]}},{"type":"Feature","id":"node/5510027511","properties":{"type":"node","id":5510027511,"tags":{"addr:street":"Gairapatan","amenity":"dentist","name":"Prime Dental Care Centre","operator":"Private","phone":"06140797"},"relations":[],"meta":{"timestamp":"2018-06-18T05:05:55Z","version":2,"changeset":59929152,"user":"Gaurav Thapa","uid":4212590}},"geometry":{"type":"Point","coordinates":[83.9904638,28.2260667]}},{"type":"Feature","id":"node/5520102854","properties":{"type":"node","id":5520102854,"tags":{"amenity":"dentist","name":"Dental Pokhara Care Centre","phone":"061-539855","source":"2cpokhara"},"relations":[],"meta":{"timestamp":"2018-06-18T05:05:56Z","version":2,"changeset":59929152,"user":"Gaurav Thapa","uid":4212590}},"geometry":{"type":"Point","coordinates":[83.9971793,28.2272743]}},{"type":"Feature","id":"node/5543180999","properties":{"type":"node","id":5543180999,"tags":{"amenity":"dentist","contact:phone":"9856035154","name":"Lotus Dental Home","source":"2cpokhara"},"relations":[],"meta":{"timestamp":"2018-04-10T15:24:44Z","version":1,"changeset":57976594,"user":"Active Asmita","uid":7644107}},"geometry":{"type":"Point","coordinates":[83.9861953,28.2106308]}},{"type":"Feature","id":"node/5544172887","properties":{"type":"node","id":5544172887,"tags":{"amenity":"dentist","name":"Smile Dental Care","phone":"061-531493, 9846083969, 9846482022","source":"2cpokhara"},"relations":[],"meta":{"timestamp":"2018-06-18T05:05:56Z","version":2,"changeset":59929152,"user":"Gaurav Thapa","uid":4212590}},"geometry":{"type":"Point","coordinates":[83.9910493,28.2225911]}},{"type":"Feature","id":"node/5544259256","properties":{"type":"node","id":5544259256,"tags":{"amenity":"dentist","name":"Subidha Dental Clinic","phone":"9846198664","source":"2cpokhara"},"relations":[],"meta":{"timestamp":"2018-06-18T05:11:50Z","version":2,"changeset":59929250,"user":"Gaurav Thapa","uid":4212590}},"geometry":{"type":"Point","coordinates":[83.9851079,28.2092372]}},{"type":"Feature","id":"node/5544259260","properties":{"type":"node","id":5544259260,"tags":{"amenity":"dentist","name":"Prithvi Dental Care","phone":"061-551851, 9856084428","source":"2cpokhara"},"relations":[],"meta":{"timestamp":"2018-06-18T05:11:50Z","version":2,"changeset":59929250,"user":"Gaurav Thapa","uid":4212590}},"geometry":{"type":"Point","coordinates":[83.984162,28.2080102]}},{"type":"Feature","id":"node/5544259277","properties":{"type":"node","id":5544259277,"tags":{"amenity":"dentist","name":"Brighter Dental House","phone":"061-534496, 061-522036","source":"2cpokhara"},"relations":[],"meta":{"timestamp":"2018-06-18T05:11:50Z","version":2,"changeset":59929250,"user":"Gaurav Thapa","uid":4212590}},"geometry":{"type":"Point","coordinates":[83.9838526,28.2069008]}},{"type":"Feature","id":"node/5544259293","properties":{"type":"node","id":5544259293,"tags":{"amenity":"dentist","name":"Dyanamic Dental Clinic","phone":"061-550123","source":"2cpokhara"},"relations":[],"meta":{"timestamp":"2018-06-18T05:11:50Z","version":3,"changeset":59929250,"user":"Gaurav Thapa","uid":4212590}},"geometry":{"type":"Point","coordinates":[83.9855702,28.2093219]}},{"type":"Feature","id":"node/5556007793","properties":{"type":"node","id":5556007793,"tags":{"amenity":"dentist","name":"Himal Dental"},"relations":[],"meta":{"timestamp":"2018-06-18T04:53:43Z","version":2,"changeset":59928945,"user":"Gaurav Thapa","uid":4212590}},"geometry":{"type":"Point","coordinates":[84.0494978,28.1754549]}},{"type":"Feature","id":"node/5598345161","properties":{"type":"node","id":5598345161,"tags":{"amenity":"dentist","name":"Advance Medicine serveice And Dental","opening_hours":"sunrise-sunset","phone":"98560379119"},"relations":[],"meta":{"timestamp":"2018-05-05T09:35:29Z","version":1,"changeset":58703104,"user":"Bijay adhikari","uid":7643850}},"geometry":{"type":"Point","coordinates":[84.0097958,28.2128221]}},{"type":"Feature","id":"node/5611346921","properties":{"type":"node","id":5611346921,"tags":{"addr:housenumber":"129","addr:street":"नयाँ बजार","amenity":"dentist","internet_access":"wlan","name":"Medha Dental House","name:en":"Medha Dental House","name:ne":"मेधा डेन्टल हाउस","opening_hours":"Mo-Su 09:00-19:00","phone":"06-1526700"},"relations":[],"meta":{"timestamp":"2018-06-18T05:11:50Z","version":6,"changeset":59929250,"user":"Gaurav Thapa","uid":4212590}},"geometry":{"type":"Point","coordinates":[83.9897937,28.2170032]}},{"type":"Feature","id":"node/5625464801","properties":{"type":"node","id":5625464801,"tags":{"amenity":"dentist","name":"Smile Dental Care Center"},"relations":[],"meta":{"timestamp":"2018-05-17T21:24:36Z","version":1,"changeset":59062761,"user":"ForstEK","uid":1737608}},"geometry":{"type":"Point","coordinates":[83.9920865,28.2228313]}},{"type":"Feature","id":"node/5649299518","properties":{"type":"node","id":5649299518,"tags":{"amenity":"dentist","name":"Bhadrakali Dental Clinic","name:ne":"भद्रकाली डेन्टल क्लिनिक","phone":"061480143"},"relations":[],"meta":{"timestamp":"2018-05-29T10:43:01Z","version":1,"changeset":59363762,"user":"Ro Sun","uid":3112087}},"geometry":{"type":"Point","coordinates":[83.9958027,28.2005274]}},{"type":"Feature","id":"node/5649299519","properties":{"type":"node","id":5649299519,"tags":{"amenity":"dentist","name":"Safal Dental Clinic","name:ne":"सफल डेन्टल क्लिनिक"},"relations":[],"meta":{"timestamp":"2018-05-29T10:43:01Z","version":1,"changeset":59363762,"user":"Ro Sun","uid":3112087}},"geometry":{"type":"Point","coordinates":[83.9958845,28.2008016]}}],"createdOn":1529471758525}