{"type":"FeatureCollection","features":[{"type":"Feature","id":"way/233077966","properties":{"type":"way","id":233077966,"tags":{"amenity":"fuel","building":"yes","fuel:diesel":"yes","fuel:octane_91":"yes","name":"Jaya Buddha Oil Stores","name:ne":"जया बुद्ध ऑइल स्टोरे","opening_hours":"sunrise-sunset","shop":"no","wheelchair":"yes"},"relations":[],"meta":{"timestamp":"2016-09-15T03:58:03Z","version":4,"changeset":42163481,"user":"ayushupreti22","uid":3911278}},"geometry":{"type":"Point","coordinates":[83.9435656,28.272749725]}},{"type":"Feature","id":"way/417146468","properties":{"type":"way","id":417146468,"tags":{"addr:housenumber":"132","addr:street":"Pokhara Baglung Rajmarg","amenity":"fuel","building":"yes","contact:phone":"061-419288","fuel:diesel":"yes","name":"Bishwash Oil Distibuters","name:ne":"विष्वाश आयल दिस्ट्रिब्युटर्स्","opening_hours":"Mo-Su 06:00-22:00","shop":"no","wheelchair":"yes"},"relations":[],"meta":{"timestamp":"2017-08-09T10:53:18Z","version":5,"changeset":50969283,"user":"kamala123","uid":6447944}},"geometry":{"type":"Point","coordinates":[83.977979025,28.22158585]}},{"type":"Feature","id":"way/417209108","properties":{"type":"way","id":417209108,"tags":{"amenity":"fuel","name":"OM Petrol Pump","name:ne":"ओंम पेट्रोल पम्प"},"relations":[],"meta":{"timestamp":"2016-08-11T10:46:46Z","version":3,"changeset":41386204,"user":"Alisha12","uid":4204463}},"geometry":{"type":"Point","coordinates":[84.01964753333333,28.194950699999996]}},{"type":"Feature","id":"way/417220667","properties":{"type":"way","id":417220667,"tags":{"amenity":"fuel","fuel:diesel":"yes","fuel:octane_91":"yes","name":"Jupiter traders","name:ne":"जुपिटर ट्रेडर्स्","opening_hours":"24/7","operator":"Suman Bhattarai","shop":"convenience","wheelchair":"yes"},"relations":[],"meta":{"timestamp":"2017-04-28T06:03:35Z","version":3,"changeset":48216816,"user":"Ro Sun","uid":3112087}},"geometry":{"type":"Point","coordinates":[84.03100616428571,28.190662971428576]}},{"type":"Feature","id":"way/417517139","properties":{"type":"way","id":417517139,"tags":{"amenity":"fuel","name":"DR Petrol Pump","name:ne":"डि आर पेट्रोल पम्प"},"relations":[],"meta":{"timestamp":"2016-09-14T10:59:50Z","version":4,"changeset":42146603,"user":"Parassrest","uid":3569249}},"geometry":{"type":"Point","coordinates":[84.0223367,28.1940539]}},{"type":"Feature","id":"way/417522894","properties":{"type":"way","id":417522894,"tags":{"amenity":"fuel","name":"Namita Petrol Pump","name:ne":"नमिता पेट्रोल पम्प"},"relations":[],"meta":{"timestamp":"2016-09-23T09:31:38Z","version":3,"changeset":42368777,"user":"Bishal9841","uid":3573216}},"geometry":{"type":"Point","coordinates":[84.00844995,28.20148675]}},{"type":"Feature","id":"way/419437276","properties":{"type":"way","id":419437276,"tags":{"addr:city":"Pokhara","addr:street":"Pokhara Baglung Rajmarg","amenity":"fuel","name":"Kalika Fuel Station","name:ne":"कालिका फियुल स्टेसन","operator":"Armed Police Force (APF)"},"relations":[],"meta":{"timestamp":"2018-06-05T06:17:38Z","version":3,"changeset":59557334,"user":"Gaurav Thapa","uid":4212590}},"geometry":{"type":"Point","coordinates":[83.97763975,28.218694]}},{"type":"Feature","id":"way/423580321","properties":{"type":"way","id":423580321,"tags":{"amenity":"fuel","building":"yes","name":"Indrajyoti Oil Stores","opening_hours":"7:00-20:00","operator:type":"private"},"relations":[],"meta":{"timestamp":"2018-03-27T09:09:56Z","version":4,"changeset":57560154,"user":"Ro Sun","uid":3112087}},"geometry":{"type":"Point","coordinates":[84.037261825,28.18359065]}},{"type":"Feature","id":"way/424914051","properties":{"type":"way","id":424914051,"tags":{"amenity":"fuel","name":"Gandaki Petrol Pump","name:ne":"गण्डकी पेट्रोल पम्प"},"relations":[],"meta":{"timestamp":"2016-09-25T10:24:37Z","version":4,"changeset":42420156,"user":"Ro Sun","uid":3112087}},"geometry":{"type":"Point","coordinates":[84.00036899999999,28.20540645]}},{"type":"Feature","id":"way/427953438","properties":{"type":"way","id":427953438,"tags":{"amenity":"fuel","fuel:diesel":"yes","fuel:octane_91":"yes","name":"Thapa Oil Stores","name:ne":"थापा आयल स्टोर","shop":"no"},"relations":[],"meta":{"timestamp":"2016-09-25T08:03:45Z","version":2,"changeset":42417932,"user":"Parassrest","uid":3569249}},"geometry":{"type":"Point","coordinates":[83.95352472500001,28.26713055]}},{"type":"Feature","id":"way/471051364","properties":{"type":"way","id":471051364,"tags":{"addr:city":"Pokhara Lekhanath Metropolitan City","addr:place":"Dharma Kata","amenity":"fuel","contact:phone":"061560385","name":"Bindabasini Petrol Pump","operator":"Private"},"relations":[],"meta":{"timestamp":"2018-03-11T08:38:26Z","version":3,"changeset":57075349,"user":"sandip parajuli","uid":7668145}},"geometry":{"type":"Point","coordinates":[84.058363125,28.15870915]}},{"type":"Feature","id":"way/513826809","properties":{"type":"way","id":513826809,"tags":{"addr:city":"Pokhara-lekhnath Metropolitian City","addr:place":"Bhagwati Chautara","addr:street":"Bagmara Road","amenity":"fuel","contact:email":"9856036598","name":"Bagmara Fuel Station","opening_hours":"07:00-19:00"},"relations":[],"meta":{"timestamp":"2017-08-09T11:21:11Z","version":2,"changeset":50970057,"user":"ShreeKrishna","uid":6447846}},"geometry":{"type":"Point","coordinates":[84.03923335,28.147453625]}},{"type":"Feature","id":"way/549693720","properties":{"type":"way","id":549693720,"tags":{"amenity":"fuel","name":"Bikash Oil Distributors","name:ne":"विकास आयल डिस्ट्रिब्यटर्स","phone":"9806572009"},"relations":[],"meta":{"timestamp":"2018-06-05T06:16:12Z","version":4,"changeset":59557299,"user":"Gaurav Thapa","uid":4212590}},"geometry":{"type":"Point","coordinates":[83.93799148333333,28.277152149999996]}},{"type":"Feature","id":"node/1350136297","properties":{"type":"node","id":1350136297,"tags":{"amenity":"fuel","name":"Uttam Oil Store","name:ne":"उत्तम अयल स्टोर"},"relations":[],"meta":{"timestamp":"2016-08-12T05:40:43Z","version":5,"changeset":41402886,"user":"Pujan Poudyal","uid":2516487}},"geometry":{"type":"Point","coordinates":[83.9834287,28.2362401]}},{"type":"Feature","id":"node/1654158549","properties":{"type":"node","id":1654158549,"tags":{"amenity":"fuel","contact:phone":"061-520587","name":"Ranipauwa Oil Stores","name:ne":"रानी पौवा आयल पम्प","source":"2cpokhara"},"relations":[],"meta":{"timestamp":"2018-05-14T05:35:36Z","version":3,"changeset":58939594,"user":"Abash Paudel","uid":6677482}},"geometry":{"type":"Point","coordinates":[83.9975123,28.2197133]}},{"type":"Feature","id":"node/3492601745","properties":{"type":"node","id":3492601745,"tags":{"amenity":"fuel"},"relations":[],"meta":{"timestamp":"2015-05-02T04:04:02Z","version":1,"changeset":30710022,"user":"sashazykov","uid":474022}},"geometry":{"type":"Point","coordinates":[83.8605043,28.1355236]}},{"type":"Feature","id":"node/3808120883","properties":{"type":"node","id":3808120883,"tags":{"amenity":"fuel","name":"Baral Petrol Pump","name:ne":"बराल पेट्रोल पम्प"},"relations":[],"meta":{"timestamp":"2018-06-05T06:15:10Z","version":4,"changeset":59557279,"user":"Gaurav Thapa","uid":4212590}},"geometry":{"type":"Point","coordinates":[83.9707853,28.2131093]}},{"type":"Feature","id":"node/4061489855","properties":{"type":"node","id":4061489855,"tags":{"addr:street":"Prithvi Rajmarga","amenity":"fuel","name":"National Trading Limited Petrol Pump","opening_hours":"08:00-17:00","operator":"National Trading Limited","website":"http://www.nationaltrading.com.np/","wikidata":"Q16935552","wikipedia":"en:National Trading Limited"},"relations":[],"meta":{"timestamp":"2017-09-12T07:01:03Z","version":3,"changeset":51962342,"user":"nyuriks","uid":339581}},"geometry":{"type":"Point","coordinates":[83.9890651,28.2088047]}},{"type":"Feature","id":"node/4172777604","properties":{"type":"node","id":4172777604,"tags":{"amenity":"fuel","fuel:diesel":"yes","name":"Sajha Petrol Pump","name:ne":"साझा पेट्रोल पुम्प","opening_hours":"sunrise-sunset"},"relations":[],"meta":{"timestamp":"2016-09-25T05:14:05Z","version":3,"changeset":42415999,"user":"ayushupreti22","uid":3911278}},"geometry":{"type":"Point","coordinates":[83.9959078,28.2062107]}},{"type":"Feature","id":"node/4178426277","properties":{"type":"node","id":4178426277,"tags":{"amenity":"fuel","fuel:GTL_diesel":"yes","fuel:diesel":"yes","fuel:lpg":"no","fuel:octane_100":"yes","name":"Pancharatna Oil Stores"},"relations":[],"meta":{"timestamp":"2018-06-12T06:59:15Z","version":5,"changeset":59764441,"user":"marek kleciak","uid":338611}},"geometry":{"type":"Point","coordinates":[83.9874531,28.2084673]}},{"type":"Feature","id":"node/4180305491","properties":{"type":"node","id":4180305491,"tags":{"addr:city":"Pokhara Lekhnath Metropolitan city","addr:place":"Buddha Chowk","addr:street":"Prithivi Ragmarga","amenity":"fuel","contact:phone":"061-535599","name":"Sharada Oil Store","name:ne":"सारदा ओइल स्टोरे"},"relations":[],"meta":{"timestamp":"2017-08-13T07:22:54Z","version":3,"changeset":51073885,"user":"Sunita Kc","uid":6474777}},"geometry":{"type":"Point","coordinates":[83.9919547,28.2070095]}},{"type":"Feature","id":"node/4180402821","properties":{"type":"node","id":4180402821,"tags":{"addr:street":"Talchowk","amenity":"fuel","internet_access":"wlan","name":"Prithivi Rajmarga Oil Stores","opening_hours":"24/7","operator":"Baburam Jamarkattel","phone":"061560281"},"relations":[],"meta":{"timestamp":"2017-04-28T06:03:35Z","version":3,"changeset":48216816,"user":"Ro Sun","uid":3112087}},"geometry":{"type":"Point","coordinates":[84.0563768,28.1675448]}},{"type":"Feature","id":"node/4180402824","properties":{"type":"node","id":4180402824,"tags":{"amenity":"fuel","name":"Subha Jagdamba Oil Stores","name:ne":"सुभ जगदम्बा आयल स्टोर"},"relations":[],"meta":{"timestamp":"2016-09-25T09:53:24Z","version":2,"changeset":42419665,"user":"Alisha12","uid":4204463}},"geometry":{"type":"Point","coordinates":[84.0539126,28.1713623]}},{"type":"Feature","id":"node/4182894374","properties":{"type":"node","id":4182894374,"tags":{"amenity":"fuel","name":"New Bibek Petrol Pump","name:ne":"न्यु बिबेक पेट्रोल पम्प"},"relations":[],"meta":{"timestamp":"2016-08-23T05:36:21Z","version":3,"changeset":41629662,"user":"Alisha12","uid":4204463}},"geometry":{"type":"Point","coordinates":[83.9909195,28.2195669]}},{"type":"Feature","id":"node/4184923271","properties":{"type":"node","id":4184923271,"tags":{"amenity":"fuel","name":"Sagar Oil Stores","name:ne":"सागर अायल स्टोर"},"relations":[],"meta":{"timestamp":"2016-08-12T05:32:59Z","version":2,"changeset":41402817,"user":"Pujan Poudyal","uid":2516487}},"geometry":{"type":"Point","coordinates":[83.9818873,28.2294686]}},{"type":"Feature","id":"node/4196788262","properties":{"type":"node","id":4196788262,"tags":{"amenity":"fuel","contact:phone":"061-533527","name":"Landruk Petroleum","source":"2cpokhara"},"relations":[],"meta":{"timestamp":"2018-03-02T15:23:57Z","version":4,"changeset":56823290,"user":"Rabin Ojha","uid":6075053}},"geometry":{"type":"Point","coordinates":[83.9841195,28.242987]}},{"type":"Feature","id":"node/4196839715","properties":{"type":"node","id":4196839715,"tags":{"amenity":"fuel","contact:phone":"061-462662","name":"Annapurna Oil Distibuters","name:ne":"अन्नपुर्ण आयल","opening_hours":"Su-Sa 6:30-20:00","source":"2cpokhara"},"relations":[],"meta":{"timestamp":"2018-03-11T09:04:04Z","version":3,"changeset":57075740,"user":"Sagarsubedi205","uid":7632456}},"geometry":{"type":"Point","coordinates":[83.9726484,28.1933784]}},{"type":"Feature","id":"node/4196839716","properties":{"type":"node","id":4196839716,"tags":{"amenity":"fuel","name":"Auto Clean Pvt Ltd","name:ne":"अटो क्लिन प्रा .लि .","source":"GPS survey"},"relations":[],"meta":{"timestamp":"2016-08-09T11:55:47Z","version":2,"changeset":41343777,"user":"Alisha12","uid":4204463}},"geometry":{"type":"Point","coordinates":[83.9905665,28.2189561]}},{"type":"Feature","id":"node/4196839717","properties":{"type":"node","id":4196839717,"tags":{"amenity":"fuel","contact:phone":"061-461318","name":"BS Oil Distibuters","name:ne":"बी.एस.तेल बितरक","opening_hours":"Su-Sa 7:00-19:30","source":"2cpokhara"},"relations":[],"meta":{"timestamp":"2018-03-07T10:08:45Z","version":3,"changeset":56962997,"user":"Sagarsubedi205","uid":7632456}},"geometry":{"type":"Point","coordinates":[83.9554366,28.1910858]}},{"type":"Feature","id":"node/4196839718","properties":{"type":"node","id":4196839718,"tags":{"amenity":"fuel","contact:phone":"061-520648","name":"Brishapati Oil Stores","name:ne":"बृहस्पति ओइल स्टोर्स","source":"GPS survey"},"relations":[],"meta":{"timestamp":"2018-04-10T14:50:57Z","version":3,"changeset":57975078,"user":"Active Asmita","uid":7644107}},"geometry":{"type":"Point","coordinates":[83.9890578,28.2155775]}},{"type":"Feature","id":"node/4196839720","properties":{"type":"node","id":4196839720,"tags":{"amenity":"fuel","name":"Himalayan Petrol Pump","name:ne":"हिमालयन पेट्रोल पम्प","source":"GPS survey"},"relations":[],"meta":{"timestamp":"2016-08-07T10:18:42Z","version":2,"changeset":41301447,"user":"Parassrest","uid":3569249}},"geometry":{"type":"Point","coordinates":[83.9842801,28.208192]}},{"type":"Feature","id":"node/4196839721","properties":{"type":"node","id":4196839721,"tags":{"amenity":"fuel","contact:phone":"०६१४६२२३५","name":"Jagdamba Oil Distibuters","name:ne":"जगदम्बा तेल वितरक","opening_hours":"6:00-20:00","source":"2cpokhara"},"relations":[],"meta":{"timestamp":"2018-03-06T02:47:23Z","version":3,"changeset":56920875,"user":"Sagarsubedi205","uid":7632456}},"geometry":{"type":"Point","coordinates":[83.9689751,28.1916095]}},{"type":"Feature","id":"node/4196839722","properties":{"type":"node","id":4196839722,"tags":{"amenity":"fuel","contact:phone":"061-522681","name":"Kamala Oil Stores","name:ne":"कमला ओइल स्टोर","source":"GPS survey"},"relations":[],"meta":{"timestamp":"2018-04-11T04:29:31Z","version":4,"changeset":57991353,"user":"Active Asmita","uid":7644107}},"geometry":{"type":"Point","coordinates":[83.9835576,28.2065627]}},{"type":"Feature","id":"node/4196839723","properties":{"type":"node","id":4196839723,"tags":{"addr:city":"Pokhara lekthnath municipility","amenity":"fuel","name":"Parajuli Petrol Pump","name:ne":"पराजुली पेट्रोल पुम्प","source":"GPS survey"},"relations":[],"meta":{"timestamp":"2017-08-10T11:11:05Z","version":3,"changeset":50998217,"user":"liladevkota123","uid":6448317}},"geometry":{"type":"Point","coordinates":[83.9808368,28.2452287]}},{"type":"Feature","id":"node/4225164789","properties":{"type":"node","id":4225164789,"tags":{"amenity":"fuel","fuel:diesel":"yes","fuel:octane_91":"yes","name":"Manokamana Oil Store","name:ne":"मनोकामना आयल स्टोर","opening_hours":"sunrise-sunset","wheelchair":"yes"},"relations":[],"meta":{"timestamp":"2016-09-23T09:16:07Z","version":3,"changeset":42368436,"user":"Alisha12","uid":4204463}},"geometry":{"type":"Point","coordinates":[83.9950001,28.2059214]}},{"type":"Feature","id":"node/4255908142","properties":{"type":"node","id":4255908142,"tags":{"amenity":"fuel","fuel:diesel":"yes","fuel:octane_91":"yes","name":"Kalika Petrol Pump","name:ne":"कलिका पेट्रोल पम्प","opening_hours":"sunrise-sunset","shop":"no","wheelchair":"no"},"relations":[],"meta":{"timestamp":"2016-09-21T11:23:48Z","version":2,"changeset":42321307,"user":"Alisha12","uid":4204463}},"geometry":{"type":"Point","coordinates":[83.9757346,28.2138599]}},{"type":"Feature","id":"node/4822036306","properties":{"type":"node","id":4822036306,"tags":{"addr:street":"Talchowk","amenity":"fuel","name":"Paschimanchal Traders"},"relations":[],"meta":{"timestamp":"2017-04-28T06:03:35Z","version":1,"changeset":48216816,"user":"Ro Sun","uid":3112087}},"geometry":{"type":"Point","coordinates":[84.0558882,28.1672063]}},{"type":"Feature","id":"node/5517954471","properties":{"type":"node","id":5517954471,"tags":{"amenity":"fuel","brand":"Nepal Oil Limited","name":"Welcome Traders Petrol Pump","name:ne":"वेल्कम ट्रेदर्स पेट्रोल पम्प","source":"2cpokhara"},"relations":[],"meta":{"timestamp":"2018-06-06T11:34:59Z","version":2,"changeset":59599364,"user":"Gaurav Thapa","uid":4212590}},"geometry":{"type":"Point","coordinates":[84.0831897,28.1319136]}},{"type":"Feature","id":"node/5552007317","properties":{"type":"node","id":5552007317,"tags":{"amenity":"fuel","fuel:biodiesel":"yes","name":"Shanti Kerosene Depo","name:ne":"शान्ति मट्टितेल डिपो","opening_hours":"10:00 - 16:00","operator":"private","phone":"061-526075","shop":"yes"},"relations":[],"meta":{"timestamp":"2018-06-06T11:33:02Z","version":2,"changeset":59599315,"user":"Gaurav Thapa","uid":4212590}},"geometry":{"type":"Point","coordinates":[83.9836178,28.2395124]}}],"createdOn":1528863573934}