{"type":"FeatureCollection","features":[{"type":"Feature","id":"way/108188565","properties":{"type":"way","id":108188565,"tags":{"addr:district":"Kaski","addr:place":"Hospital Chowk","building":"yes","name":"Regional Tuberculosis Centre","name:ne":"क्षेत्रीय क्षेयरोग अनुसन्धान केन्द्र","office":"government","phone":"061-521065"},"relations":[],"meta":{"timestamp":"2016-11-21T05:03:12Z","version":6,"changeset":43837631,"user":"Ro Sun","uid":3112087}},"geometry":{"type":"Point","coordinates":[84.00042983333333,28.212358055555555]}},{"type":"Feature","id":"way/203968690","properties":{"type":"way","id":203968690,"tags":{"barrier":"wall","name":"District Administration Office","name:ne":"जिल्ला प्रशासन कार्यालय","office":"government","opening_hours":"10:00-17:00","phone":"+97761462476, 9856007777"},"relations":[],"meta":{"timestamp":"2017-02-13T04:21:49Z","version":4,"changeset":46035743,"user":"Manoj Thapa","uid":781054}},"geometry":{"type":"Point","coordinates":[83.9700231625,28.2023703125]}},{"type":"Feature","id":"way/203969645","properties":{"type":"way","id":203969645,"tags":{"barrier":"wall","level":"3","name":"Office of Province Chief","name:ne":"प्रदेश प्रमुखको कार्यालय","office":"government","operator":"government"},"relations":[],"meta":{"timestamp":"2018-05-27T07:23:11Z","version":9,"changeset":59307662,"user":"Ro Sun","uid":3112087}},"geometry":{"type":"Point","coordinates":[83.969552575,28.201801]}},{"type":"Feature","id":"way/203969646","properties":{"type":"way","id":203969646,"tags":{"building":"yes","name":"Pokhara Valley City Development Committee","name:ne":"पोखरा उपत्यका नगर विकास समिति","office":"government","opening_hours":"10:00-17:00"},"relations":[],"meta":{"timestamp":"2016-07-27T08:45:17Z","version":4,"changeset":41056994,"user":"Mrnprabhat","uid":3934069}},"geometry":{"type":"Point","coordinates":[83.9690116,28.201689375]}},{"type":"Feature","id":"way/203969647","properties":{"type":"way","id":203969647,"tags":{"building":"yes","name":"Western Regional Administration Office","name:ne":"क्षेत्रीय प्रशासन कार्यालय","office":"government","opening_hours":"10:00-17:00","operator":"government"},"relations":[],"meta":{"timestamp":"2016-07-07T09:45:22Z","version":3,"changeset":40537835,"user":"Mrnprabhat","uid":3934069}},"geometry":{"type":"Point","coordinates":[83.96924705,28.201805224999998]}},{"type":"Feature","id":"way/203971960","properties":{"type":"way","id":203971960,"tags":{"name":"District Statistics office, Kaski","name:ne":"जिल्ला तथ्यांक कार्यालय","office":"government","opening_hours":"10:00-17:00","operator":"government"},"relations":[],"meta":{"timestamp":"2016-08-11T06:20:52Z","version":4,"changeset":41381447,"user":"Bishal9841","uid":3573216}},"geometry":{"type":"Point","coordinates":[83.97252235,28.202089474999998]}},{"type":"Feature","id":"way/203993205","properties":{"type":"way","id":203993205,"tags":{"addr:city":"Pokhara Lekhanath Metropolitan City","addr:place":"Shaidchowk","addr:street":"Santipath B","amenity":"public_office","barrier":"wall","name":"District Coordination Comitee Kaski","name:ne":"जिल्ला विकास समिति","office":"government"},"relations":[],"meta":{"timestamp":"2018-03-19T08:25:20Z","version":6,"changeset":57310014,"user":"Ro Sun","uid":3112087}},"geometry":{"type":"Point","coordinates":[83.96924025,28.20221546666666]}},{"type":"Feature","id":"way/203993209","properties":{"type":"way","id":203993209,"tags":{"addr:city":"Pokhara Lekhanath Metropolitan City","addr:place":"Shaidchowk","addr:street":"Santipath B","amenity":"public_office","building":"yes","name":"Office of Standards And Metrology","name:ne":"नेपाल गुणस्तर तथा नाप तौल","office":"government","opening_hours":"10:00-17:00"},"relations":[],"meta":{"timestamp":"2018-05-27T11:20:50Z","version":6,"changeset":59311451,"user":"Ro Sun","uid":3112087}},"geometry":{"type":"Point","coordinates":[83.9692508,28.203926674999998]}},{"type":"Feature","id":"way/203993210","properties":{"type":"way","id":203993210,"tags":{"building":"yes","name":"Regional Monitoring Office","name:ne":"रिजनल मोनिटोरिंग अफिस","office":"government"},"relations":[],"meta":{"timestamp":"2016-12-27T07:10:14Z","version":4,"changeset":44699447,"user":"Ro Sun","uid":3112087}},"geometry":{"type":"Point","coordinates":[83.968742625,28.20389675]}},{"type":"Feature","id":"way/232757245","properties":{"type":"way","id":232757245,"tags":{"building":"yes","name":"Nepal Bidhut Pradhikaran Pokhara Bitaran Kendra,Kaskikot No Light","office":"government","phone":"061-520321"},"relations":[],"meta":{"timestamp":"2017-12-10T05:02:33Z","version":2,"changeset":54502091,"user":"Ro Sun","uid":3112087}},"geometry":{"type":"Point","coordinates":[83.90763,28.266190375]}},{"type":"Feature","id":"way/232757261","properties":{"type":"way","id":232757261,"tags":{"building":"yes","name":"Ward Office - Ward No. 24","office":"government"},"relations":[],"meta":{"timestamp":"2017-12-10T05:31:59Z","version":4,"changeset":54502351,"user":"Ro Sun","uid":3112087}},"geometry":{"type":"Point","coordinates":[83.908035025,28.266006049999998]}},{"type":"Feature","id":"way/236736455","properties":{"type":"way","id":236736455,"tags":{"addr:city":"Pokhara","addr:street":"Batulechaur 16","contact:phone":"061-440529","level":"9","name":"Ward Office - Ward No. 16","name:ne":"वार्ड कार्यालय - वार्ड न १६","office":"government"},"relations":[],"meta":{"timestamp":"2018-03-11T05:59:02Z","version":8,"changeset":57073512,"user":"Ro Sun","uid":3112087}},"geometry":{"type":"Point","coordinates":[83.97897634,28.26352202]}},{"type":"Feature","id":"way/240397703","properties":{"type":"way","id":240397703,"tags":{"addr:city":"pokhara lekthnath municipility","addr:street":"Bhim Kali Patan","contact:phone":"061-520147","name":"District Education Office","name:ne":"जिल्ला शिक्षा कार्यालय","office":"government","opening_hours":"10:00 - 16:00"},"relations":[],"meta":{"timestamp":"2017-08-09T09:41:23Z","version":6,"changeset":50966938,"user":"cibesh009","uid":6145192}},"geometry":{"type":"Point","coordinates":[83.98808393,28.243499210000003]}},{"type":"Feature","id":"way/277991902","properties":{"type":"way","id":277991902,"tags":{"addr:city":"Putalibazar Municipality","addr:street":"Sidhartha Highway","name":"Compound of DHO Syangja","office":"government"},"relations":[],"meta":{"timestamp":"2014-04-29T10:21:24Z","version":1,"changeset":22019835,"user":"Subhas Shrestha","uid":2052660}},"geometry":{"type":"Point","coordinates":[83.87061425454546,28.09915317272727]}},{"type":"Feature","id":"way/306486967","properties":{"type":"way","id":306486967,"tags":{"addr:city":"Pokhara","addr:street":"New Road","barrier":"wall","name":"Pokhara Lekhnath Metropolitan Office","name:en":"Pokhara Lekhnath Metropolitan Office","name:ne":"पोखरा महानगरपालिका कार्यालय","office":"government","website":"http://pokharamun.gov.np","wheelchair":"limited"},"relations":[],"meta":{"timestamp":"2017-05-23T09:41:10Z","version":8,"changeset":48911768,"user":"Ro Sun","uid":3112087}},"geometry":{"type":"Point","coordinates":[83.98603441999998,28.21787434]}},{"type":"Feature","id":"way/331016361","properties":{"type":"way","id":331016361,"tags":{"addr:city":"Pokhara Lekhanath Metropolitan City","addr:place":"Shaidchowk","addr:street":"Santipath B","amenity":"public_office","barrier":"wall","name":"District Land Revenue Office","name:ne":"मालपोत कार्यलय","office":"government","opening_hours":"10:00-17:00"},"relations":[],"meta":{"timestamp":"2017-08-10T08:21:38Z","version":5,"changeset":50993436,"user":"Ankit Keshav Baral","uid":6447999}},"geometry":{"type":"Point","coordinates":[83.969282475,28.20447965]}},{"type":"Feature","id":"way/331016362","properties":{"type":"way","id":331016362,"tags":{"addr:city":"Pokhara","barrier":"wall","name":"District Survey Office Kaski","name:ne":"जिल्ला नापी कार्यालय, कास्की","office":"government","opening_hours":"10:00-17:00"},"relations":[],"meta":{"timestamp":"2017-01-15T10:05:17Z","version":6,"changeset":45186740,"user":"Ro Sun","uid":3112087}},"geometry":{"type":"Point","coordinates":[83.96926935,28.204887925]}},{"type":"Feature","id":"way/342344892","properties":{"type":"way","id":342344892,"tags":{"amenity":"veterinary","building":"yes","name":"Krishi Tatha Pashu Sewa Kendra, Lekhnath","office":"government","opening_hours":"Mo-Fr 10:00-16:00"},"relations":[],"meta":{"timestamp":"2018-05-27T10:54:33Z","version":5,"changeset":59310990,"user":"Ro Sun","uid":3112087}},"geometry":{"type":"Point","coordinates":[84.081333,28.148223450000003]}},{"type":"Feature","id":"way/343059862","properties":{"type":"way","id":343059862,"tags":{"addr:city":"Kalika","addr:district":"kaski","addr:place":"kalikasthan","addr:province":"western","addr:state":"nepal","addr:street":"kalikasthan","building":"yes","building:levels":"1","name":"Ward Office - Ward no. 28","office":"government","opening_hours":"Su-Fr 10:00-16:00","wheelchair":"no"},"relations":[],"meta":{"timestamp":"2017-12-20T08:48:50Z","version":5,"changeset":54780258,"user":"Ro Sun","uid":3112087}},"geometry":{"type":"Point","coordinates":[84.0747269,28.214340424999996]}},{"type":"Feature","id":"way/363736374","properties":{"type":"way","id":363736374,"tags":{"building":"yes","name":"Ward Office - Ward No. 8","name:ne":"वार्ड कार्यालय - वार्ड न ८","office":"government","opening_hours":"10:00-17:00","operator":"Pokhara Sub-Metropolitian City"},"relations":[],"meta":{"timestamp":"2016-08-24T12:09:21Z","version":4,"changeset":41661717,"user":"Manoj Thapa","uid":781054}},"geometry":{"type":"Point","coordinates":[83.98113550000001,28.210962974999997]}},{"type":"Feature","id":"way/387994875","properties":{"type":"way","id":387994875,"tags":{"contact:phone":"061-520171","name":"District Forest Office","name:ne":"जिल्ला वन कार्यालय","office":"government","opening_hours":"sunrise-sunset"},"relations":[],"meta":{"timestamp":"2017-08-09T09:41:23Z","version":5,"changeset":50966938,"user":"cibesh009","uid":6145192}},"geometry":{"type":"Point","coordinates":[83.98699155,28.242896475000002]}},{"type":"Feature","id":"way/399598421","properties":{"type":"way","id":399598421,"tags":{"level":"9","name":"Ward Office - Ward No. 3","name:ne":"वार्ड कार्यलय - वार्ड न. ३","office":"government","operator":"Pokhara Sub-Metropolitian City","source":"2c pokhara"},"relations":[],"meta":{"timestamp":"2018-05-27T11:20:50Z","version":6,"changeset":59311451,"user":"Ro Sun","uid":3112087}},"geometry":{"type":"Point","coordinates":[83.9906968,28.2293247]}},{"type":"Feature","id":"way/403793880","properties":{"type":"way","id":403793880,"tags":{"amenity":"police","barrier":"wall","contact:phone":"061466637","name":"Western Region Armed Police Force HQ Muktinath Battalion","name:ne":"वेस्टर्न रिजन आर्म्ड फोर्चे एच किव मुकतिनाथ ब्यटोलियों","office":"government","opening_hours":"24/7","operator":"government","website":"www.apf.gov","wheelchair":"yes"},"relations":[],"meta":{"timestamp":"2018-03-20T09:15:48Z","version":9,"changeset":57344010,"user":"Ro Sun","uid":3112087}},"geometry":{"type":"Point","coordinates":[83.96972999375001,28.204918618750003]}},{"type":"Feature","id":"way/403841453","properties":{"type":"way","id":403841453,"tags":{"name":"Ward Office - Ward No. 6","office":"government","opening_hours":"10:00-05:00","operator":"Pokhara Sub-Metropolitian City"},"relations":[],"meta":{"timestamp":"2018-04-14T18:28:12Z","version":6,"changeset":58095196,"user":"mueschel","uid":616774}},"geometry":{"type":"Point","coordinates":[83.96246465,28.209636949999997]}},{"type":"Feature","id":"way/403999148","properties":{"type":"way","id":403999148,"tags":{"addr:city":"Pokhara","addr:place":"Milan Tole","addr:street":"Sugam Marga","amenity":"police","barrier":"wall","level":"3","name":"Province Police Office","office":"government","opening_hours":"10:00-17:00","operator":"government"},"relations":[],"meta":{"timestamp":"2018-05-27T07:23:11Z","version":9,"changeset":59307662,"user":"Ro Sun","uid":3112087}},"geometry":{"type":"Point","coordinates":[83.97173995714286,28.205748914285717]}},{"type":"Feature","id":"way/403999435","properties":{"type":"way","id":403999435,"tags":{"name":"Karmachari Sanchay Kosh","name:ne":"कर्मचारी संचय कोष","office":"government"},"relations":[],"meta":{"timestamp":"2016-08-07T11:02:47Z","version":3,"changeset":41302098,"user":"Manoj Thapa","uid":781054}},"geometry":{"type":"Point","coordinates":[83.9875979,28.211635325]}},{"type":"Feature","id":"way/403999725","properties":{"type":"way","id":403999725,"tags":{"amenity":"prison","barrier":"fence","name":"District Prison, Kaski","name:ne":"कारागार कार्यालय","office":"government","opening_hours":"24/7","operator":"government"},"relations":[],"meta":{"timestamp":"2017-05-22T10:53:36Z","version":6,"changeset":48884618,"user":"Ro Sun","uid":3112087}},"geometry":{"type":"Point","coordinates":[83.97093054,28.204533799999997]}},{"type":"Feature","id":"way/404011885","properties":{"type":"way","id":404011885,"tags":{"amenity":"public_office","name":"Regional NID Office","name:ne":"रिगिओनल एंन आई डि अफिस","office":"government"},"relations":[],"meta":{"timestamp":"2018-04-08T11:08:54Z","version":5,"changeset":57910324,"user":"Ro Sun","uid":3112087}},"geometry":{"type":"Point","coordinates":[83.9729529,28.20531325]}},{"type":"Feature","id":"way/407061383","properties":{"type":"way","id":407061383,"tags":{"building":"yes","name":"Wetern Regional Health Directorate","name:ne":"पस्चिमान्चल क्षेत्रिय स्वास्थ्य निर्देशनालय","office":"government"},"relations":[],"meta":{"timestamp":"2017-02-13T09:53:04Z","version":5,"changeset":46041809,"user":"Manoj Thapa","uid":781054}},"geometry":{"type":"Point","coordinates":[83.99913089999998,28.212096854545454]}},{"type":"Feature","id":"way/407846469","properties":{"type":"way","id":407846469,"tags":{"addr:street":"Machhapuchhre Marga","building":"yes","building:levels":"3","email":"kaskiattorneyoffice@gmail.com","name":"District Government Attorney Office","name:ne":"जिल्ला सरकारी वकिलको कार्यालय","office":"government","opening_hours":"10:00-17:00","phone":"061465196"},"relations":[],"meta":{"timestamp":"2017-04-27T10:59:17Z","version":5,"changeset":48190785,"user":"Office of District Attorney Kaski","uid":5742502}},"geometry":{"type":"Point","coordinates":[83.97363059,28.200701249999998]}},{"type":"Feature","id":"way/408189395","properties":{"type":"way","id":408189395,"tags":{"addr:district":"Kaski","addr:place":"Hospital Chowk","building":"yes","name":"District Public Health Office","name:ne":"जिल्ला जन स्वास्थ्य कार्यालय","office":"government","source":"2cpokhara"},"relations":[],"meta":{"timestamp":"2018-05-14T05:35:37Z","version":3,"changeset":58939594,"user":"Abash Paudel","uid":6677482}},"geometry":{"type":"Point","coordinates":[83.99769984999999,28.21520097]}},{"type":"Feature","id":"way/408189411","properties":{"type":"way","id":408189411,"tags":{"addr:place":"Dumribot","building":"yes","email":"info@ratcpokhara.gov.np","fax":"+977-61-52544","name":"Western Regional Health Training Center","office":"government","phone":"061-523109","source":"2cpokhara"},"relations":[],"meta":{"timestamp":"2018-05-27T11:20:50Z","version":7,"changeset":59311451,"user":"Ro Sun","uid":3112087}},"geometry":{"type":"Point","coordinates":[83.995673,28.21666052222222]}},{"type":"Feature","id":"way/408534802","properties":{"type":"way","id":408534802,"tags":{"addr:city":"Pokhara","amenity":"police","name":"District Police Office, Kaski","name:ne":"जिल्ला प्रहरी कार्यालय, कास्की","office":"government","operator":"government","phone":"+977 61 420033, 9856005555, 9856039599"},"relations":[],"meta":{"timestamp":"2017-02-13T04:23:15Z","version":9,"changeset":46035751,"user":"Manoj Thapa","uid":781054}},"geometry":{"type":"Point","coordinates":[83.98932518181819,28.22573050909091]}},{"type":"Feature","id":"way/414375440","properties":{"type":"way","id":414375440,"tags":{"addr:city":"Pokhara Lekhnath Municipality","addr:housenumber":"34","addr:place":"Siva Mandir Marga 9","addr:street":"Nayabazar","building":"yes","name":"Ward Office - Ward No. 9","name:ne":"वडा कार्यालय - वडा न ९","office":"government","operator":"Pokhara Lekhnath Metropolitan City","phone":"061520523"},"relations":[],"meta":{"timestamp":"2018-05-27T11:26:14Z","version":7,"changeset":59311528,"user":"Ro Sun","uid":3112087}},"geometry":{"type":"Point","coordinates":[83.99182942499999,28.219320275]}},{"type":"Feature","id":"way/414776163","properties":{"type":"way","id":414776163,"tags":{"addr:district":"Kaski","addr:place":"Matepani","building":"yes","email":"rltcpokhara@gmail.com","name":"Regional Directorate of Livestock Services Training Center","name:ne":"क्षेत्रीय पशु सेवा तालीम केन्द्र","office":"government","phone":"061-524195"},"relations":[],"meta":{"timestamp":"2016-06-14T07:55:49Z","version":2,"changeset":40011600,"user":"Ashish Thapa","uid":4039113}},"geometry":{"type":"Point","coordinates":[84.00081957500001,28.212708925]}},{"type":"Feature","id":"way/417446695","properties":{"type":"way","id":417446695,"tags":{"contact:phone":"061-419432","name":"Ward Office - Ward no. 5","name:ne":"वडा न. ५ वडा कार्यालय","office":"government","opening_hours":"10:00-04:00","operator":"Nepal Government"},"relations":[],"meta":{"timestamp":"2018-05-27T11:20:51Z","version":7,"changeset":59311451,"user":"Ro Sun","uid":3112087}},"geometry":{"type":"Point","coordinates":[83.97688741666667,28.218345383333332]}},{"type":"Feature","id":"way/417446765","properties":{"type":"way","id":417446765,"tags":{"amenity":"health_post","building":"yes","name":"Sahari Swasthya Kendra, 5","name:ne":"सहरी स्वास्थ्य केन्द्र वडा नम्बर ५","office":"government","operator:type":"government"},"relations":[],"meta":{"timestamp":"2018-05-14T09:17:42Z","version":4,"changeset":58945321,"user":"Ro Sun","uid":3112087}},"geometry":{"type":"Point","coordinates":[83.97656275,28.21789445]}},{"type":"Feature","id":"way/417814684","properties":{"type":"way","id":417814684,"tags":{"addr:city":"Pokhara Lekhnath Municipality","addr:place":"Darbarthok Marga 9","addr:street":"Nayabazar","barrier":"wall","name":"Office of Commission for Investigation of Abuse of Authority, Pokhara","name:ne":"अख्तियार दुरुपयोग अनुसन्धान आयोग","office":"government"},"relations":[],"meta":{"timestamp":"2017-08-09T14:06:53Z","version":4,"changeset":50974737,"user":"Shirisha Dhakal","uid":6447912}},"geometry":{"type":"Point","coordinates":[83.99066164,28.219296080000003]}},{"type":"Feature","id":"way/417890958","properties":{"type":"way","id":417890958,"tags":{"name":"Kshetriya Krishi Nirdeshanalaya","name:ne":"क्षेत्रिय कृषि निर्देशनालय","office":"government"},"relations":[],"meta":{"timestamp":"2016-08-24T04:04:09Z","version":2,"changeset":41652468,"user":"Alisha12","uid":4204463}},"geometry":{"type":"Point","coordinates":[83.98020675000001,28.21801603]}},{"type":"Feature","id":"way/417912488","properties":{"type":"way","id":417912488,"tags":{"building":"yes","contact:phone":"061-520382","name":"Ward Office - Ward No. 4","name:ne":"वार्ड कार्यालय - वार्ड न ४","office":"government","opening_hours":"10:00-17:00","operator":"Pokhara Sub-Metropolitian City","source":"2c pokhara"},"relations":[],"meta":{"timestamp":"2018-03-08T05:36:17Z","version":4,"changeset":56988025,"user":"Active Asmita","uid":7644107}},"geometry":{"type":"Point","coordinates":[83.98490785,28.227114825]}},{"type":"Feature","id":"way/418530272","properties":{"type":"way","id":418530272,"tags":{"building":"yes","name":"Samaajik Swasthya Suraksha Bikas Samiti Kaski","office":"government"},"relations":[],"meta":{"timestamp":"2018-05-15T04:55:48Z","version":4,"changeset":58970785,"user":"Abash Paudel","uid":6677482}},"geometry":{"type":"Point","coordinates":[83.99916066666667,28.219031983333334]}},{"type":"Feature","id":"way/418581188","properties":{"type":"way","id":418581188,"tags":{"alt_name":"Nepal Doorsanchar Company Limited, Pokhara","barrier":"wall","name":"Nepal Telecom, Pokhara","name:ne":"नेपाल टेलिकम, पोखरा","office":"government","operator":"Nepal Government","source":"2cpokhara"},"relations":[],"meta":{"timestamp":"2018-05-12T18:11:30Z","version":8,"changeset":58908598,"user":"Abash Paudel","uid":6677482}},"geometry":{"type":"Point","coordinates":[83.99594064583333,28.22188355]}},{"type":"Feature","id":"way/418585951","properties":{"type":"way","id":418585951,"tags":{"building":"yes","name":"Nepal Ksharog Nibaran Sanstha","office":"government","opening_hours":"10:00-16:00","source":"2cpokhara"},"relations":[],"meta":{"timestamp":"2018-05-12T03:21:36Z","version":2,"changeset":58893646,"user":"Abash Paudel","uid":6677482}},"geometry":{"type":"Point","coordinates":[83.99937575,28.22192165]}},{"type":"Feature","id":"way/418585958","properties":{"type":"way","id":418585958,"tags":{"building":"yes","contact:phone":"061-520526","name":"Ward Office - Ward No. 11","name:ne":"वार्ड कार्यालय - वार्ड न ११","office":"government","operator":"Pokhara Sub-Metropolitian City","source":"2cpokhara"},"relations":[],"meta":{"timestamp":"2018-05-12T03:21:36Z","version":2,"changeset":58893646,"user":"Abash Paudel","uid":6677482}},"geometry":{"type":"Point","coordinates":[84.0000117,28.221851524999998]}},{"type":"Feature","id":"way/419436055","properties":{"type":"way","id":419436055,"tags":{"name":"Krishi Sewa Kendra","name:ne":"कृषी सेवा केन्द्र पोखरा","office":"government"},"relations":[],"meta":{"timestamp":"2018-05-27T10:47:46Z","version":3,"changeset":59310874,"user":"Ro Sun","uid":3112087}},"geometry":{"type":"Point","coordinates":[83.97719887500001,28.216885325]}},{"type":"Feature","id":"way/419647104","properties":{"type":"way","id":419647104,"tags":{"addr:city":"Pokhara Lekhanath Metropolitan City","addr:place":"Ratnachowk","amenity":"public_office","building":"yes","name":"Kosh Tatha Lekha Niyantran Karayala","name:ne":"कोष तथा लेखा नियनत्रण कार्यालय","office":"government","opening_hours":"10:00-17:00","operator":"government"},"relations":[],"meta":{"timestamp":"2018-05-27T10:47:46Z","version":5,"changeset":59310874,"user":"Ro Sun","uid":3112087}},"geometry":{"type":"Point","coordinates":[83.97341242499999,28.2052862]}},{"type":"Feature","id":"way/419647110","properties":{"type":"way","id":419647110,"tags":{"addr:city":"Pokhara Lekhanath Metropolitan City","addr:place":"Shaidchowk","addr:street":"Santipath B","amenity":"public_office","building":"yes","contact:phone":"061-466401,465321,465700","name":"Distribution And Consumer Service Directorate Pokhara Regional Office","name:ne":"दिस्त्रीबुशन एंड कनजुमेर सर्विस दारेकेट टोरट","office":"government","opening_hours":"10:00-17:00","operator":"Nepal Electricity Authority"},"relations":[],"meta":{"timestamp":"2017-08-10T08:21:39Z","version":5,"changeset":50993436,"user":"Ankit Keshav Baral","uid":6447999}},"geometry":{"type":"Point","coordinates":[83.96956445000001,28.203892375]}},{"type":"Feature","id":"way/419647112","properties":{"type":"way","id":419647112,"tags":{"addr:city":"Pokhara Lekhanath Metropolitan City","addr:place":"Ratnachowk","addr:street":"sugam marg","amenity":"public_office","building":"yes","name":"District Statistics Office Kaski","name:en":"District Statistics Office,Kaski","office":"government","opening_hours":"10:00-17:00"},"relations":[],"meta":{"timestamp":"2017-08-10T08:21:39Z","version":4,"changeset":50993436,"user":"Ankit Keshav Baral","uid":6447999}},"geometry":{"type":"Point","coordinates":[83.973792,28.205774525000002]}},{"type":"Feature","id":"way/419647131","properties":{"type":"way","id":419647131,"tags":{"addr:city":"Pokhara Lekhanath Metropolitan City","addr:place":"Ratnachowk","addr:street":"Sugam Marga","amenity":"public_office","building":"yes","name":"Water and Weather Science Office","name:ne":"जल तथा मौसम बिज्ञान कार्यालय","office":"government","opening_hours":"10:00-17:00","operator":"government"},"relations":[],"meta":{"timestamp":"2017-08-10T07:47:15Z","version":4,"changeset":50992510,"user":"Ankit Keshav Baral","uid":6447999}},"geometry":{"type":"Point","coordinates":[83.9738633,28.205378275]}},{"type":"Feature","id":"way/419647182","properties":{"type":"way","id":419647182,"tags":{"addr:city":"Pokhara Lekhanath Metropolitan City","addr:place":"Milan Tole","addr:street":"Sugam Marga","building":"yes","name":"Ministry of Physical Infrastructure Development","name:ne":"भौतिक पूर्वाधार तथा योजना मन्त्रालय","office":"government"},"relations":[],"meta":{"timestamp":"2018-03-19T08:25:21Z","version":3,"changeset":57310014,"user":"Ro Sun","uid":3112087}},"geometry":{"type":"Point","coordinates":[83.9713417,28.20512205]}},{"type":"Feature","id":"way/419647254","properties":{"type":"way","id":419647254,"tags":{"building":"yes","name":"Tax Invoice Office","name:ne":"आन्तरिक राजस्व कार्यालय","office":"government","opening_hours":"10:00-17:00","operator":"government"},"relations":[],"meta":{"timestamp":"2017-05-22T10:55:20Z","version":3,"changeset":48884670,"user":"Ro Sun","uid":3112087}},"geometry":{"type":"Point","coordinates":[83.97272995,28.2044694]}},{"type":"Feature","id":"way/419656833","properties":{"type":"way","id":419656833,"tags":{"addr:city":"Pokhara Lekhanath Metropolitan City","addr:place":"Ratnachowk","addr:street":"Rastrabank Marga","amenity":"public_office","building":"yes","name":"Sanchar Kendra","office":"government","opening_hours":"10:00-17:00"},"relations":[],"meta":{"timestamp":"2017-08-10T08:21:39Z","version":2,"changeset":50993436,"user":"Ankit Keshav Baral","uid":6447999}},"geometry":{"type":"Point","coordinates":[83.97403692500001,28.204796175]}},{"type":"Feature","id":"way/420741580","properties":{"type":"way","id":420741580,"tags":{"addr:street":"Rastra Bank Chowk","amenity":"bank","barrier":"wall","contact:fax":"061 521561","contact:phone":"061-520459, 532586, 463543, 061 520115","name":"Nepal Rastra Bank Limited","name:ne":"नेपाल राष्ट्र बैंक","nrb_class":"commercial","office":"government","operator":"Nepal Rastra Bank","source":"2cpokhara","website":"www.nrb.com.np"},"relations":[],"meta":{"timestamp":"2017-06-05T07:31:31Z","version":9,"changeset":49260414,"user":"Kshitiz Khanal","uid":977718}},"geometry":{"type":"Point","coordinates":[83.97101366000001,28.20155261]}},{"type":"Feature","id":"way/420741582","properties":{"type":"way","id":420741582,"tags":{"amenity":"police","barrier":"wall","name":"Zonal Police Headquataer","name:ne":"अञ्चल प्रहरी कार्यालय","office":"government","opening_hours":"24/7","operator":"government"},"relations":[],"meta":{"timestamp":"2017-05-22T10:53:36Z","version":4,"changeset":48884618,"user":"Ro Sun","uid":3112087}},"geometry":{"type":"Point","coordinates":[83.97053013333334,28.2024806]}},{"type":"Feature","id":"way/420761331","properties":{"type":"way","id":420761331,"tags":{"building":"yes","level":"0","name":"Immigration Office","office":"government"},"relations":[],"meta":{"timestamp":"2018-04-19T11:18:40Z","version":2,"changeset":58229868,"user":"Tonushka","uid":3419975}},"geometry":{"type":"Point","coordinates":[83.969000675,28.198545125]}},{"type":"Feature","id":"way/421003704","properties":{"type":"way","id":421003704,"tags":{"building":"yes","name":"Jal Utpanna Prakop Niyantran Division Office","name:ne":"जल उत्पन्न प्रकोप नियेन्त्रण डीभीजन","office":"government","opening_hours":"10:00-17:00","operator":"government"},"relations":[],"meta":{"timestamp":"2018-05-27T10:47:46Z","version":4,"changeset":59310874,"user":"Ro Sun","uid":3112087}},"geometry":{"type":"Point","coordinates":[83.991884875,28.2296995]}},{"type":"Feature","id":"way/421122811","properties":{"type":"way","id":421122811,"tags":{"building":"yes","name":"Ward Office - Ward no 17","name:ne":"पोखरा लेखनाथ महानगरपालिका वार्ड कार्यालय - वार्ड न १७","office":"government","opening_hours":"10:00-17:00"},"relations":[],"meta":{"timestamp":"2018-05-27T11:20:51Z","version":7,"changeset":59311451,"user":"Ro Sun","uid":3112087}},"geometry":{"type":"Point","coordinates":[83.9674992,28.19130895]}},{"type":"Feature","id":"way/421130267","properties":{"type":"way","id":421130267,"tags":{"addr:city":"Pokhara Lekhanath Metropolitan City","addr:place":"Annapurna Tole","addr:street":"Annapurna Marga","amenity":"public_office","building":"yes","name":"Truth and Reconiliation Commission","office":"government","opening_hours":"10:00-17:00"},"relations":[],"meta":{"timestamp":"2017-08-10T10:16:52Z","version":2,"changeset":50996798,"user":"gyanendra nepali","uid":6447854}},"geometry":{"type":"Point","coordinates":[83.97533805,28.201437475]}},{"type":"Feature","id":"way/421584420","properties":{"type":"way","id":421584420,"tags":{"building":"yes","name":"Pasu Sewa Bibhag","office":"government","opening_hours":"Su-Fr 10:00-17:00 Sa,PH closed","operator":"government","source":"2cpokhara"},"relations":[],"meta":{"timestamp":"2018-03-06T02:13:50Z","version":4,"changeset":56920552,"user":"Sagarsubedi205","uid":7632456}},"geometry":{"type":"Point","coordinates":[83.9619562,28.18988725]}},{"type":"Feature","id":"way/421800285","properties":{"type":"way","id":421800285,"tags":{"building":"yes","name":"Annapurna Gaupalika ward 2 Office","name:ne":"वडा नं २ को वडा कार्यालय","office":"government"},"relations":[],"meta":{"timestamp":"2017-11-14T05:24:57Z","version":4,"changeset":53760856,"user":"nishaadhikari","uid":3481073}},"geometry":{"type":"Point","coordinates":[83.85611826666667,28.2829083]}},{"type":"Feature","id":"way/422040089","properties":{"type":"way","id":422040089,"tags":{"alt_name":"Ward Office","building":"yes","name":"Ward Office - Ward No. 2","name:ne":"वडा कार्यालय - वडा न २","office":"government","opening_hours":"10:00-05:00","operator":"Pokhara Sub-Metropolitian"},"relations":[],"meta":{"timestamp":"2016-12-30T06:05:55Z","version":5,"changeset":44775939,"user":"Ro Sun","uid":3112087}},"geometry":{"type":"Point","coordinates":[83.982444425,28.23848005]}},{"type":"Feature","id":"way/422183714","properties":{"type":"way","id":422183714,"tags":{"addr:city":"Pokhara Lekhanath Metropolitan City","addr:street":"Machhapuchchre Marga","amenity":"public_office","building":"yes","name":"Pradhanmantri krishi adhunikarand pariyojan","office":"government","opening_hours":"10:00-17:00"},"relations":[],"meta":{"timestamp":"2017-08-10T10:16:52Z","version":2,"changeset":50996798,"user":"gyanendra nepali","uid":6447854}},"geometry":{"type":"Point","coordinates":[83.976537375,28.20430245]}},{"type":"Feature","id":"way/424692640","properties":{"type":"way","id":424692640,"tags":{"alt_name":"Ward Office","building":"yes","name":"Ward Office - Ward No. 25","name:ne":"वार्ड कार्यालय - वार्ड न २५","office":"government","operator":"Pokhara Sub-Metropolitian"},"relations":[],"meta":{"timestamp":"2017-12-10T05:31:59Z","version":6,"changeset":54502351,"user":"Ro Sun","uid":3112087}},"geometry":{"type":"Point","coordinates":[83.932573375,28.27864985]}},{"type":"Feature","id":"way/424692656","properties":{"type":"way","id":424692656,"tags":{"addr:place":"Hanumaan chowk","addr:street":"Pokhara Baglung Highway","amenity":"post_office","building":"yes","name":"Hemja Atrikta Hulak","office":"government","opening_hours":"6:00-18:00"},"relations":[],"meta":{"timestamp":"2017-08-11T05:27:52Z","version":2,"changeset":51020677,"user":"suneeel","uid":6447856}},"geometry":{"type":"Point","coordinates":[83.932145775,28.27876705]}},{"type":"Feature","id":"way/425466841","properties":{"type":"way","id":425466841,"tags":{"alt_name":"Ward Office","name":"Ward Office - Ward No. 19","name:ne":"वार्ड कार्यालय - १९","office":"government","operator":"Pokhara Sub-Metropolitian"},"relations":[],"meta":{"timestamp":"2017-12-10T05:32:00Z","version":7,"changeset":54502351,"user":"Ro Sun","uid":3112087}},"geometry":{"type":"Point","coordinates":[83.9671544,28.26587912]}},{"type":"Feature","id":"way/426062265","properties":{"type":"way","id":426062265,"tags":{"alt_name":"Ward Office","building":"yes","contact:phone":"061-520520","name":"Ward Office - Ward No. 1","name:ne":"वडा कार्यालय - वडा न १","office":"government","opening_hours":"10:00-05:00","operator":"Pokhara Sub-Metropolitian","source":"2cpokhara"},"relations":[],"meta":{"timestamp":"2018-03-02T15:23:58Z","version":6,"changeset":56823290,"user":"Rabin Ojha","uid":6075053}},"geometry":{"type":"Point","coordinates":[83.9863489,28.2417211]}},{"type":"Feature","id":"way/426963793","properties":{"type":"way","id":426963793,"tags":{"building":"yes","name":"VDC Office Rivan","office":"government"},"relations":[],"meta":{"timestamp":"2016-10-26T11:07:51Z","version":2,"changeset":43189916,"user":"Dev Narayan Paudel","uid":3715290}},"geometry":{"type":"Point","coordinates":[83.8997523,28.3221329]}},{"type":"Feature","id":"way/427564869","properties":{"type":"way","id":427564869,"tags":{"barrier":"wall","name":"Ward Office - Ward No. 14","name:ne":"वार्ड कार्यालय - वार्ड न १८","office":"government","operator":"Pokhara Sub-Metropolitian City"},"relations":[],"meta":{"timestamp":"2017-12-25T07:31:54Z","version":4,"changeset":54901116,"user":"Ro Sun","uid":3112087}},"geometry":{"type":"Point","coordinates":[84.01364827500001,28.1815842]}},{"type":"Feature","id":"way/428414617","properties":{"type":"way","id":428414617,"tags":{"name":"Sector Forest Office, Kundhar","office":"government"},"relations":[],"meta":{"timestamp":"2018-05-27T11:20:51Z","version":3,"changeset":59311451,"user":"Ro Sun","uid":3112087}},"geometry":{"type":"Point","coordinates":[84.003634975,28.20417785]}},{"type":"Feature","id":"way/429586618","properties":{"type":"way","id":429586618,"tags":{"addr:city":"Pokhara Lekhanath Metropolitan City","addr:place":"Shaidchowk","addr:street":"Santipath B","amenity":"public_office","barrier":"wall","name":"Department Of Water Supply And Sanitation, Regional Office For Investigation And Supervision","name:ne":"खानेपानी तथा ढल निकास विभाग सुपरिवेक्षण तथा अनुगमन कार्यालय","office":"government","opening_hours":"10:00-17:00"},"relations":[],"meta":{"timestamp":"2017-08-10T08:21:40Z","version":4,"changeset":50993436,"user":"Ankit Keshav Baral","uid":6447999}},"geometry":{"type":"Point","coordinates":[83.96869262499999,28.204042275]}},{"type":"Feature","id":"way/429586620","properties":{"type":"way","id":429586620,"tags":{"addr:city":"Pokhara Lekhanath Metropolitan City","addr:place":"Shaidchowk","addr:street":"Santipath B","amenity":"public_office","barrier":"wall","level":"3","name":"Ministry of Socail Development","name:ne":"सामाजिक विकास मन्त्रालय","office":"government","opening_hours":"10:00-17:00","source":"2cpokhara"},"relations":[],"meta":{"timestamp":"2018-05-27T07:23:12Z","version":7,"changeset":59307662,"user":"Ro Sun","uid":3112087}},"geometry":{"type":"Point","coordinates":[83.96887365,28.2034252375]}},{"type":"Feature","id":"way/429586621","properties":{"type":"way","id":429586621,"tags":{"addr:city":"Pokhara Lekhanath Metropolitan City","addr:place":"Shaidchowk","addr:street":"Santipath B","amenity":"public_office","barrier":"wall","name":"Western Postal Directorate","name:ne":"पश्चिमाञ्चल क्षेत्रिय हुलाक निर्देशानलय","office":"government","opening_hours":"10:00-17:00"},"relations":[],"meta":{"timestamp":"2017-08-10T08:21:40Z","version":5,"changeset":50993436,"user":"Ankit Keshav Baral","uid":6447999}},"geometry":{"type":"Point","coordinates":[83.96926318,28.203457659999998]}},{"type":"Feature","id":"way/429595779","properties":{"type":"way","id":429595779,"tags":{"amenity":"courthouse","name":"Kaski District Court","name:ne":"कास्की जिल्ला अदालत","office":"government","opening_hours":"10:00-17:00"},"relations":[],"meta":{"timestamp":"2016-07-27T08:45:17Z","version":3,"changeset":41056994,"user":"Mrnprabhat","uid":3934069}},"geometry":{"type":"Point","coordinates":[83.968218525,28.201868474999998]}},{"type":"Feature","id":"way/429595784","properties":{"type":"way","id":429595784,"tags":{"building":"yes","name":"Regional Administrative Office","name:ne":"क्षेत्रीय प्रशासन कार्यालय","office":"government"},"relations":[],"meta":{"timestamp":"2016-12-27T07:10:14Z","version":2,"changeset":44699447,"user":"Ro Sun","uid":3112087}},"geometry":{"type":"Point","coordinates":[83.96975805,28.202607450000002]}},{"type":"Feature","id":"way/429595785","properties":{"type":"way","id":429595785,"tags":{"building":"yes","name":"District Technical Assistance Office","name:ne":"जिल्ला प्राविधिक कार्यालय","office":"government","opening_hours":"10:00-17:00"},"relations":[],"meta":{"timestamp":"2017-02-14T07:30:33Z","version":4,"changeset":46070632,"user":"Ro Sun","uid":3112087}},"geometry":{"type":"Point","coordinates":[83.968869225,28.2023336]}},{"type":"Feature","id":"way/429606362","properties":{"type":"way","id":429606362,"tags":{"amenity":"police","barrier":"fence","name":"Zonal Armed Police Brigade,Gandaki","name:ne":"अञ्चल सशस्त्र प्रहरी गुल्म ,गण्डकी","office":"government","opening_hours":"24/7","operator":"government"},"relations":[],"meta":{"timestamp":"2017-05-22T10:53:36Z","version":5,"changeset":48884618,"user":"Ro Sun","uid":3112087}},"geometry":{"type":"Point","coordinates":[83.97007272631578,28.203714173684208]}},{"type":"Feature","id":"way/429614223","properties":{"type":"way","id":429614223,"tags":{"name":"District Land Conservation Office","name:ne":"जिल्ला भुसंरक्षण कार्यालय","office":"government","opening_hours":"10:00-17:00","operator":"government"},"relations":[],"meta":{"timestamp":"2016-07-27T10:02:03Z","version":2,"changeset":41058664,"user":"gaurab basnet","uid":3120057}},"geometry":{"type":"Point","coordinates":[83.973212425,28.205796524999997]}},{"type":"Feature","id":"way/429614224","properties":{"type":"way","id":429614224,"tags":{"barrier":"wall","name":"Division Road Office","name:ne":"डिभिजन सडक कार्यालय","office":"government","opening_hours":"10:00-17:00","operator":"government"},"relations":[],"meta":{"timestamp":"2018-03-20T09:15:48Z","version":4,"changeset":57344010,"user":"Ro Sun","uid":3112087}},"geometry":{"type":"Point","coordinates":[83.97294746666665,28.203770355555555]}},{"type":"Feature","id":"way/429614226","properties":{"type":"way","id":429614226,"tags":{"barrier":"wall","name":"Heavy Equipment Division","name:ne":"हेभीइक्युपमेन्त डिभिजन, पोखरा","office":"government","opening_hours":"10:00-17:00","operator":"government"},"relations":[],"meta":{"timestamp":"2018-03-20T09:15:48Z","version":6,"changeset":57344010,"user":"Ro Sun","uid":3112087}},"geometry":{"type":"Point","coordinates":[83.97207241,28.20357714]}},{"type":"Feature","id":"way/429614230","properties":{"type":"way","id":429614230,"tags":{"addr:city":"Pokhara Lekhanath Metropolitan City","addr:place":"Masbar Pokharipatan","addr:street":"Gahan Marga","amenity":"public_office","name":"Office of Cottage and Small Industry","name:ne":"घरेलु तथा साना उद्योग कार्यालय","office":"government","opening_hours":"10:00-17:00","operator":"government"},"relations":[],"meta":{"timestamp":"2018-05-27T11:20:51Z","version":3,"changeset":59311451,"user":"Ro Sun","uid":3112087}},"geometry":{"type":"Point","coordinates":[83.97312767058824,28.211268370588236]}},{"type":"Feature","id":"way/429614234","properties":{"type":"way","id":429614234,"tags":{"barrier":"wall","name":"Western Regional Road Office Pokhara","name:ne":"पस्चिमान्चल क्षेत्रीय सडक निर्देसनालय","office":"government","opening_hours":"10:00-17:00","operator":"government"},"relations":[],"meta":{"timestamp":"2017-08-10T08:21:40Z","version":4,"changeset":50993436,"user":"Ankit Keshav Baral","uid":6447999}},"geometry":{"type":"Point","coordinates":[83.97163788,28.20220796]}},{"type":"Feature","id":"way/429637124","properties":{"type":"way","id":429637124,"tags":{"name":"Public Service Commission (Western Regional Directorate)","name:ne":"लोक सेवा आयोग","office":"government","opening_hours":"10:00-17:00"},"relations":[],"meta":{"timestamp":"2016-11-04T09:57:56Z","version":5,"changeset":43397742,"user":"Manoj Thapa","uid":781054}},"geometry":{"type":"Point","coordinates":[83.9729722875,28.2005009375]}},{"type":"Feature","id":"way/429637125","properties":{"type":"way","id":429637125,"tags":{"name":"Punarabedan Adalat (Repeal Court)","name:ne":"पुनरावेदन अदालत","office":"government","opening_hours":"10:00-17:00"},"relations":[],"meta":{"timestamp":"2016-11-03T09:05:05Z","version":2,"changeset":43373733,"user":"Heinz_V","uid":91490}},"geometry":{"type":"Point","coordinates":[83.973390525,28.200163337499998]}},{"type":"Feature","id":"way/429637127","properties":{"type":"way","id":429637127,"tags":{"addr:city":"Pokhara Lekhanath Metropolitan City","addr:place":"Rastra Bank Chowk","addr:street":"Dhaulagiri marga","name":"Regional Election Office","name:ne":"क्षेत्रीय निर्वाचन आयोग","office":"government","opening_hours":"10:00-17:00"},"relations":[],"meta":{"timestamp":"2017-08-10T10:16:52Z","version":3,"changeset":50996798,"user":"gyanendra nepali","uid":6447854}},"geometry":{"type":"Point","coordinates":[83.973948275,28.200521325]}},{"type":"Feature","id":"way/429637129","properties":{"type":"way","id":429637129,"tags":{"contact:email":"kaski.wrid@doi.gov.np","contact:phone":"061-465053,061-462502","name":"Regional Irrigation Office","name:ne":"क्षेत्रीय सिंचाई कार्यालय","office":"government","opening_hours":"10:00-17:00","source":"2cpokhara"},"relations":[],"meta":{"timestamp":"2018-03-07T15:00:51Z","version":3,"changeset":56971521,"user":"Sagarsubedi205","uid":7632456}},"geometry":{"type":"Point","coordinates":[83.96873017142858,28.195384442857144]}},{"type":"Feature","id":"way/429637130","properties":{"type":"way","id":429637130,"tags":{"contact:email":"tmo.gandaki@dotm.gov.np","contact:phone":"061-464111,464906","name":"Yatayat Office","name:ne":"भौतिक पुर्बधार तथा यातायात मन्त्रालय -सवारी चालक अनुमति पत्रको कार्यालय","office":"government","opening_hours":"10:00-17:00","source":"2cpokhara"},"relations":[],"meta":{"timestamp":"2018-03-11T06:41:21Z","version":3,"changeset":57073996,"user":"Sagarsubedi205","uid":7632456}},"geometry":{"type":"Point","coordinates":[83.97152857777776,28.195283733333337]}},{"type":"Feature","id":"way/435430211","properties":{"type":"way","id":435430211,"tags":{"barrier":"wall","name":"Nagar Bikash Tatha Prasikshan Kendra","name:ne":"नगर बिकाश तथा प्रशिक्षण केन्द्र","office":"government"},"relations":[],"meta":{"timestamp":"2018-03-20T10:50:11Z","version":4,"changeset":57346796,"user":"Ro Sun","uid":3112087}},"geometry":{"type":"Point","coordinates":[83.98847514761903,28.237204880952373]}},{"type":"Feature","id":"way/436509072","properties":{"type":"way","id":436509072,"tags":{"name":"Ward Office - Ward No. 12","name:ne":"वार्ड कार्यालय - वार्ड न १२","office":"government","operator":"Pokhara Sub-Metropolitian City"},"relations":[],"meta":{"timestamp":"2018-05-27T05:48:27Z","version":4,"changeset":59306511,"user":"Ro Sun","uid":3112087}},"geometry":{"type":"Point","coordinates":[84.00367692857142,28.215253985714288]}},{"type":"Feature","id":"way/436694674","properties":{"type":"way","id":436694674,"tags":{"name":"Ward Office - Ward No. 13","name:ne":"वार्ड कार्यालय - वार्ड न १३","office":"government","opening_hours":"10:00-17:00","operator":"Pokhara Sub-Metropolitian City"},"relations":[],"meta":{"timestamp":"2018-05-24T12:17:16Z","version":5,"changeset":59239938,"user":"marek kleciak","uid":338611}},"geometry":{"type":"Point","coordinates":[84.01176811,28.21180577]}},{"type":"Feature","id":"way/437284677","properties":{"type":"way","id":437284677,"tags":{"building":"yes","government":"goverment","name":"Ward Office - Ward No. 22","office":"government","opening_hours":"10:00-17:00","operator":"Pokhara Lekhnath Metropolitian City"},"relations":[],"meta":{"timestamp":"2018-04-30T11:14:35Z","version":7,"changeset":58551599,"user":"Kshitizraj Sharma","uid":7004124}},"geometry":{"type":"Point","coordinates":[83.91246939999999,28.206994549999997]}},{"type":"Feature","id":"way/437408159","properties":{"type":"way","id":437408159,"tags":{"amenity":"health_post","name":"Valam Health Post","name:ne":"भलाम स्वास्थ्य चौकी","office":"government","operator:type":"government"},"relations":[],"meta":{"timestamp":"2018-05-14T07:38:08Z","version":3,"changeset":58942408,"user":"Ro Sun","uid":3112087}},"geometry":{"type":"Point","coordinates":[84.0093557,28.254459075]}},{"type":"Feature","id":"way/437408160","properties":{"type":"way","id":437408160,"tags":{"addr:place":"Valam","alt_name":"Ward Office","contact:phone":"061-621614","level":"9","name":"Ward Office - Ward No. 20","name:ne":"वडा कार्यालय - वडा न 20","office":"government","operator":"Pokhara lekthnath Meteropolitian City"},"relations":[],"meta":{"timestamp":"2018-03-11T07:17:11Z","version":6,"changeset":57074377,"user":"Madan Acharya","uid":7707025}},"geometry":{"type":"Point","coordinates":[84.00944170000001,28.2547157]}},{"type":"Feature","id":"way/438259596","properties":{"type":"way","id":438259596,"tags":{"name":"Ward Office - Ward No. 21 (Kristi)","office":"government","opening_hours":"Su,Mo,Tu 10:00-17:00","source":"2cpokhara"},"relations":[],"meta":{"timestamp":"2018-05-27T11:20:51Z","version":5,"changeset":59311451,"user":"Ro Sun","uid":3112087}},"geometry":{"type":"Point","coordinates":[83.95629069999998,28.1600457]}},{"type":"Feature","id":"way/438786216","properties":{"type":"way","id":438786216,"tags":{"name":"Ward Office - Ward no. 21 (NIrmal Pokhari)","name:ne":"वडा कार्यालाय -वाडा नं २१","office":"government","operator":"Pokhara Metropolitian City"},"relations":[],"meta":{"timestamp":"2017-12-20T08:15:36Z","version":3,"changeset":54779658,"user":"Ro Sun","uid":3112087}},"geometry":{"type":"Point","coordinates":[83.99839732500001,28.152586675000002]}},{"type":"Feature","id":"way/438791877","properties":{"type":"way","id":438791877,"tags":{"addr:city":"Pokhara Lekhanath Metropolitan City","addr:place":"Ratnachowk","addr:street":"Rastrabank Marga","amenity":"public_office","name":"Ward Office - Ward No. 7","name:ne":"वार्ड कार्यालय - वार्ड न ७","office":"government","operator":"Pokhara Sub-Metropolitian City"},"relations":[],"meta":{"timestamp":"2018-05-27T11:20:52Z","version":3,"changeset":59311451,"user":"Ro Sun","uid":3112087}},"geometry":{"type":"Point","coordinates":[83.97486768,28.205468059999998]}},{"type":"Feature","id":"way/438792736","properties":{"type":"way","id":438792736,"tags":{"name":"Ward Office - Ward No. 15","name:ne":"वार्ड कार्यालय - वार्ड न १५","office":"government","opening_hours":"10:00-05:00","operator":"Pokhara Sub-Metropolitian City","source":"2cpokhara"},"relations":[],"meta":{"timestamp":"2018-04-02T14:00:19Z","version":3,"changeset":57740431,"user":"Abash Paudel","uid":6677482}},"geometry":{"type":"Point","coordinates":[83.99627656666668,28.194799033333336]}},{"type":"Feature","id":"way/438941097","properties":{"type":"way","id":438941097,"tags":{"name":"Ward Office - Ward No. 10","name:ne":"वार्ड कार्यालय - वार्ड न १०","office":"government","operator":"Pokhara Sub-Metropolitian City"},"relations":[],"meta":{"timestamp":"2017-12-10T06:06:33Z","version":4,"changeset":54502663,"user":"Ro Sun","uid":3112087}},"geometry":{"type":"Point","coordinates":[84.00073106666667,28.202807466666666]}},{"type":"Feature","id":"way/438948612","properties":{"type":"way","id":438948612,"tags":{"name":"Ward Office - Ward No 26","name:ne":"वडा कार्यालय - वडा नं २६","office":"government","operator":"Pokhara Sub-Metropolitian City"},"relations":[],"meta":{"timestamp":"2016-08-25T06:41:28Z","version":1,"changeset":41679868,"user":"Manoj Thapa","uid":781054}},"geometry":{"type":"Point","coordinates":[83.976835425,28.242245975]}},{"type":"Feature","id":"way/442144664","properties":{"type":"way","id":442144664,"tags":{"addr:city":"Pokhara-lekhnath Metropolitian City","addr:place":"Kalikasthan","addr:street":"Bagmara Road","building":"yes","contact:phone":"9856048880","name":"Ward Office - Ward no. 33","office":"government","opening_hours":"Su-Th 10:00-17:00 Fr 10:00-15:00","source":"2cpokhara"},"relations":[],"meta":{"timestamp":"2018-03-31T15:58:03Z","version":5,"changeset":57692045,"user":"Sagarsubedi205","uid":7632456}},"geometry":{"type":"Point","coordinates":[84.04524965,28.143592625000004]}},{"type":"Feature","id":"way/447951745","properties":{"type":"way","id":447951745,"tags":{"name":"Regional Veterinary office","office":"government"},"relations":[],"meta":{"timestamp":"2017-02-13T09:40:47Z","version":2,"changeset":46041495,"user":"Manoj Thapa","uid":781054}},"geometry":{"type":"Point","coordinates":[84.00157973333334,28.212891866666666]}},{"type":"Feature","id":"way/458034250","properties":{"type":"way","id":458034250,"tags":{"addr:city":"Pokhara Lekhanath Metropolitan City","addr:place":"Milan Tole","addr:street":"Sugam Marga","alt_name":"NWSC- Pokhara","barrier":"wall","name":"Nepal Water Supply Corporation, Pokhara","office":"government","start_date":"1989 C.E."},"relations":[],"meta":{"timestamp":"2017-08-10T08:21:41Z","version":3,"changeset":50993436,"user":"Ankit Keshav Baral","uid":6447999}},"geometry":{"type":"Point","coordinates":[83.97083839285715,28.205300657142857]}},{"type":"Feature","id":"way/467136542","properties":{"type":"way","id":467136542,"tags":{"addr:city":"Pokhara Lekhnath Metropolitan City","addr:place":"Tal Chowk","addr:street":"Prithvi Highway","building":"yes","contact:phone":"061-560222","name":"Nepal Telecom","office":"government","opening_hours":"Su-Fr 10:00-17:00"},"relations":[],"meta":{"timestamp":"2017-08-11T10:30:47Z","version":2,"changeset":51028766,"user":"rmpaudel123","uid":6447862}},"geometry":{"type":"Point","coordinates":[84.0569577,28.166543575]}},{"type":"Feature","id":"way/474329823","properties":{"type":"way","id":474329823,"tags":{"name":"District Livestock Service Office","name:ne":"जिल्ला पशु सेवा कार्यालय कास्की पोखरा","office":"government","phone":"061-533356","website":"http://www.dlsokaski.gov.np/"},"relations":[],"meta":{"timestamp":"2017-02-13T09:40:44Z","version":1,"changeset":46041495,"user":"Manoj Thapa","uid":781054}},"geometry":{"type":"Point","coordinates":[84.0014164625,28.2129199125]}},{"type":"Feature","id":"way/485045659","properties":{"type":"way","id":485045659,"tags":{"building":"yes","name":"Ward Office - Ward No. 30","office":"government","opening_hours":"Mo-Fr 10:00-16:00"},"relations":[],"meta":{"timestamp":"2017-12-10T05:32:00Z","version":5,"changeset":54502351,"user":"Ro Sun","uid":3112087}},"geometry":{"type":"Point","coordinates":[84.08103135714286,28.14842362857143]}},{"type":"Feature","id":"way/485284444","properties":{"type":"way","id":485284444,"tags":{"building":"yes","name":"Ward Office - Ward No. 32","name:ne":"वडा कार्यालय - वडा न ३२","office":"government","opening_hours":"Su-Fr 10:00-17:00","operator":"Pokhara Lekhnath Metropolitan"},"relations":[],"meta":{"timestamp":"2017-11-21T04:19:18Z","version":3,"changeset":53965890,"user":"Gaurav Thapa","uid":4212590}},"geometry":{"type":"Point","coordinates":[84.1022653,28.117747750000003]}},{"type":"Feature","id":"way/488790892","properties":{"type":"way","id":488790892,"tags":{"addr:city":"Pokhara Lekhnath Metropolitan City","addr:place":"Kole Phant","addr:street":"Nagarpalika Marga","amenity":"public_office","name":"Nepal Electricity Authority","office":"government","opening_hours":"Su-Fr 10:00-17:00"},"relations":[],"meta":{"timestamp":"2017-08-11T10:19:42Z","version":2,"changeset":51028488,"user":"rmpaudel123","uid":6447862}},"geometry":{"type":"Point","coordinates":[84.06006832857143,28.163780342857144]}},{"type":"Feature","id":"way/506424189","properties":{"type":"way","id":506424189,"tags":{"addr:city":"Pokhara Lekhnath Municipality","addr:place":"Buspark 9","addr:street":"Prithivichowk","name":"Transport Management Office, Kaski","name:ne":"यातायात कार्यालय पोखरा","office":"government","phone":"061533394"},"relations":[],"meta":{"timestamp":"2017-08-09T10:35:50Z","version":2,"changeset":50968836,"user":"Shirisha Dhakal","uid":6447912}},"geometry":{"type":"Point","coordinates":[83.98955777500001,28.20981475]}},{"type":"Feature","id":"way/514722683","properties":{"type":"way","id":514722683,"tags":{"addr:place":"Bhandardhik","amenity":"public_office","name":"Napi Karyalaya","office":"government"},"relations":[],"meta":{"timestamp":"2017-08-11T09:18:36Z","version":1,"changeset":51026617,"user":"Beepson","uid":6448115}},"geometry":{"type":"Point","coordinates":[84.06525735,28.14915095]}},{"type":"Feature","id":"way/514742940","properties":{"type":"way","id":514742940,"tags":{"addr:city":"Pokhara Lekhnath Metropolitan City","addr:place":"Kole Phant","addr:street":"Nagarpalika Marga","amenity":"public_office","contact:phone":"061-560001/560566","level":"9","name":"Ward Office - Ward No. 27","office":"government","opening_hours":"Su-Fr 10:00-16:00"},"relations":[],"meta":{"timestamp":"2018-03-13T08:59:58Z","version":5,"changeset":57137877,"user":"reenuka","uid":7644128}},"geometry":{"type":"Point","coordinates":[84.06251526666667,28.16543808333334]}},{"type":"Feature","id":"way/515135717","properties":{"type":"way","id":515135717,"tags":{"name":"Lekhnath Sana Sahari Khanepani Tatha Sarsafae Upabhokta Sastha Karyalaya","office":"government","opening_hours":"Mo-Fr 10:00-16:00"},"relations":[],"meta":{"timestamp":"2018-03-08T17:42:42Z","version":2,"changeset":57007624,"user":"Amrit Devkota","uid":6497064}},"geometry":{"type":"Point","coordinates":[84.080847175,28.1487089]}},{"type":"Feature","id":"way/524040635","properties":{"type":"way","id":524040635,"tags":{"building":"yes","name":"Lekhnath Sewa Kendra","office":"government","operator:type":"government"},"relations":[],"meta":{"timestamp":"2017-09-12T10:15:52Z","version":1,"changeset":51967800,"user":"Ashish Thapa","uid":4039113}},"geometry":{"type":"Point","coordinates":[84.062592925,28.1644635]}},{"type":"Feature","id":"way/545773075","properties":{"type":"way","id":545773075,"tags":{"level":"9","name":"Ward Office - Ward No. 29","office":"government"},"relations":[],"meta":{"timestamp":"2018-03-11T08:38:27Z","version":2,"changeset":57075349,"user":"sandip parajuli","uid":7668145}},"geometry":{"type":"Point","coordinates":[84.06517869999999,28.1518133]}},{"type":"Feature","id":"way/548080611","properties":{"type":"way","id":548080611,"tags":{"name":"Ward Office - Ward No. 23","office":"government"},"relations":[],"meta":{"timestamp":"2018-05-27T11:20:52Z","version":2,"changeset":59311451,"user":"Ro Sun","uid":3112087}},"geometry":{"type":"Point","coordinates":[83.88877055,28.23863561]}},{"type":"Feature","id":"way/566730043","properties":{"type":"way","id":566730043,"tags":{"contact:phone":"061-460511","name":"Vocational and Skill Development Training Center","office":"government","source":"2cpokhara"},"relations":[],"meta":{"timestamp":"2018-03-05T14:25:56Z","version":1,"changeset":56905336,"user":"Sagarsubedi205","uid":7632456}},"geometry":{"type":"Point","coordinates":[83.97539484,28.19290014]}},{"type":"Feature","id":"way/570886578","properties":{"type":"way","id":570886578,"tags":{"building":"yes","level":"3","name":"उद्योग, पर्यटन, वन तथा वातावरण मन्त्रालय","office":"government","opening_hours":"Su-Th 10:00-16:00 ; Fr 10:00-15:00","operator:type":"government","source":"2cpokhara"},"relations":[],"meta":{"timestamp":"2018-05-27T07:23:12Z","version":2,"changeset":59307662,"user":"Ro Sun","uid":3112087}},"geometry":{"type":"Point","coordinates":[83.97334405000001,28.204809700000002]}},{"type":"Feature","id":"way/570889188","properties":{"type":"way","id":570889188,"tags":{"barrier":"wall","level":"3","name":"Ministry of Land Managment, Agriculture and Co-operatives","name:ne":"भुमि व्यवस्थापन, कृषि तथा सहकारी मन्त्रालय","office":"government","opening_hours":"10:00-17:00","source":"2cpokhara"},"relations":[],"meta":{"timestamp":"2018-05-27T10:17:36Z","version":3,"changeset":59310317,"user":"Ro Sun","uid":3112087}},"geometry":{"type":"Point","coordinates":[83.96960959,28.203155450000004]}},{"type":"Feature","id":"way/585881934","properties":{"type":"way","id":585881934,"tags":{"government":"ministry","name":"Irrigation Development Division Office","office":"government"},"relations":[],"meta":{"timestamp":"2018-05-05T09:35:31Z","version":1,"changeset":58703104,"user":"Bijay adhikari","uid":7643850}},"geometry":{"type":"Point","coordinates":[84.01312922,28.214481]}},{"type":"Feature","id":"way/588008461","properties":{"type":"way","id":588008461,"tags":{"name":"Pokhara Swasthya Bigyan Pratisthan","office":"government","source":"2cpokhara"},"relations":[],"meta":{"timestamp":"2018-05-14T07:04:26Z","version":1,"changeset":58941471,"user":"Abash Paudel","uid":6677482}},"geometry":{"type":"Point","coordinates":[83.99637577777779,28.215392933333334]}},{"type":"Feature","id":"node/3404903231","properties":{"type":"node","id":3404903231,"tags":{"addr:city":"Pokhara Lekhanath Metropolitan City","addr:place":"Shaidchowk","addr:street":"Santipath B","amenity":"public_office","name":"Area Post Office, Baidam","name:ne":"क्षेत्र हुलाक कार्यालय","office":"government","opening_hours":"10:00-17:00","operator":"government"},"relations":[],"meta":{"timestamp":"2018-05-27T09:54:01Z","version":7,"changeset":59309934,"user":"Ro Sun","uid":3112087}},"geometry":{"type":"Point","coordinates":[83.9687564,28.2043091]}},{"type":"Feature","id":"node/3531964413","properties":{"type":"node","id":3531964413,"tags":{"building":"public","name":"Woman Empowerment Ward No. 22","name:ne":"महिला ईम्पावरमेन्ट","office":"government"},"relations":[],"meta":{"timestamp":"2018-05-28T06:46:35Z","version":7,"changeset":59330379,"user":"Ro Sun","uid":3112087}},"geometry":{"type":"Point","coordinates":[83.9127416,28.2067027]}},{"type":"Feature","id":"node/3623451022","properties":{"type":"node","id":3623451022,"tags":{"name":"Nepal Trust Karyalaye","name:ne":"नेपाल ट्रष्ट","office":"government"},"relations":[],"meta":{"timestamp":"2017-04-13T08:58:12Z","version":3,"changeset":47735559,"user":"Alisha12","uid":4204463}},"geometry":{"type":"Point","coordinates":[83.9603051,28.2061352]}},{"type":"Feature","id":"node/4063223070","properties":{"type":"node","id":4063223070,"tags":{"name":"Western Regional Disaster Warehouse","name:ne":"वेस्टर्न रिजनल डीजास्टर वयर हाउस","office":"government"},"relations":[],"meta":{"timestamp":"2017-06-26T10:47:57Z","version":4,"changeset":49832819,"user":"Ro Sun","uid":3112087}},"geometry":{"type":"Point","coordinates":[84.0075027,28.1720744]}},{"type":"Feature","id":"node/4160825916","properties":{"type":"node","id":4160825916,"tags":{"name":"Rastriya Gramid Tatha Nabikaran Urja Kendra","name:ne":"राष्ट्रिय ग्रामीण तथा नबिकरण उर्जा केन्द्र","office":"government"},"relations":[],"meta":{"timestamp":"2016-08-12T08:52:28Z","version":4,"changeset":41406059,"user":"Parassrest","uid":3569249}},"geometry":{"type":"Point","coordinates":[83.9850889,28.2375709]}},{"type":"Feature","id":"node/4352204134","properties":{"type":"node","id":4352204134,"tags":{"amenity":"post_office","name":"Valam Area Post Office","name:ne":"भलाम इलाका हुलाक कार्यालय","office":"government","operator":"Nepal government"},"relations":[],"meta":{"timestamp":"2017-12-10T05:21:21Z","version":3,"changeset":54502273,"user":"Ro Sun","uid":3112087}},"geometry":{"type":"Point","coordinates":[84.0094083,28.254677]}},{"type":"Feature","id":"node/4352403329","properties":{"type":"node","id":4352403329,"tags":{"name":"Nepal Water Supply Corporation Office, Hemja","name:ne":"नेपाल खानेपानी संस्थान कार्यालय","office":"government"},"relations":[],"meta":{"timestamp":"2018-05-27T10:54:33Z","version":4,"changeset":59310990,"user":"Ro Sun","uid":3112087}},"geometry":{"type":"Point","coordinates":[83.9325704,28.2785768]}},{"type":"Feature","id":"node/4574525673","properties":{"type":"node","id":4574525673,"tags":{"name":"District Relief Distribution and Coordination Committee","name:ne":"जिल्ला राहत बितरण समिति","office":"government"},"relations":[],"meta":{"timestamp":"2018-04-08T11:08:52Z","version":3,"changeset":57910324,"user":"Ro Sun","uid":3112087}},"geometry":{"type":"Point","coordinates":[83.9694039,28.202322]}},{"type":"Feature","id":"node/4574525674","properties":{"type":"node","id":4574525674,"tags":{"name":"District Road Coodination Committee","name:ne":"जिल्ला सडक समन्वय समिति","office":"government"},"relations":[],"meta":{"timestamp":"2017-05-22T10:29:22Z","version":2,"changeset":48883973,"user":"Ro Sun","uid":3112087}},"geometry":{"type":"Point","coordinates":[83.9693275,28.2023188]}},{"type":"Feature","id":"node/4574525675","properties":{"type":"node","id":4574525675,"tags":{"name":"District Monitering Office","name:ne":"जिल्लाअनुगमन समिति","office":"government"},"relations":[],"meta":{"timestamp":"2017-05-22T10:29:22Z","version":2,"changeset":48883973,"user":"Ro Sun","uid":3112087}},"geometry":{"type":"Point","coordinates":[83.9692614,28.2023137]}},{"type":"Feature","id":"node/4574525676","properties":{"type":"node","id":4574525676,"tags":{"name":"District Woman Walfare and Coordination Committee","name:ne":"महिला जिल्ला समन्वय समिति","office":"government"},"relations":[],"meta":{"timestamp":"2017-05-28T10:39:40Z","version":3,"changeset":49042378,"user":"mueschel","uid":616774}},"geometry":{"type":"Point","coordinates":[83.9689171,28.2020767]}},{"type":"Feature","id":"node/4676152215","properties":{"type":"node","id":4676152215,"tags":{"name":"District Disaster Management Committee","office":"government"},"relations":[],"meta":{"timestamp":"2017-02-13T09:40:44Z","version":2,"changeset":46041495,"user":"Manoj Thapa","uid":781054}},"geometry":{"type":"Point","coordinates":[83.9697767,28.2025]}},{"type":"Feature","id":"node/4683102472","properties":{"type":"node","id":4683102472,"tags":{"name":"District Election Office","name:ne":"जिल्ला निर्वाचन आयोग","office":"government","opening_hours":"10:00-17:00"},"relations":[],"meta":{"timestamp":"2017-02-13T09:40:44Z","version":1,"changeset":46041495,"user":"Manoj Thapa","uid":781054}},"geometry":{"type":"Point","coordinates":[83.9740084,28.2005254]}},{"type":"Feature","id":"node/4686327389","properties":{"type":"node","id":4686327389,"tags":{"name":"Uchha Sarakari Wakil Karayala, Pokhara","name:ne":"उच्च सरकारी वकिल कार्यालय पोखरा","office":"government","opening_hours":"Su-Fr 09:00-17:00"},"relations":[],"meta":{"timestamp":"2018-05-27T11:20:50Z","version":3,"changeset":59311451,"user":"Ro Sun","uid":3112087}},"geometry":{"type":"Point","coordinates":[83.973354,28.2008915]}},{"type":"Feature","id":"node/4788190932","properties":{"type":"node","id":4788190932,"tags":{"name":"Gandaki Anchal Ayurbeda Aausadhalaya","office":"government"},"relations":[],"meta":{"timestamp":"2017-04-17T03:42:38Z","version":3,"changeset":47854356,"user":"Parassrest","uid":3569249}},"geometry":{"type":"Point","coordinates":[84.0470814,28.1792593]}},{"type":"Feature","id":"node/4810836240","properties":{"type":"node","id":4810836240,"tags":{"name":"Shisuwa Ward Sewa Kendra","office":"government","operator:type":"government"},"relations":[],"meta":{"timestamp":"2017-09-12T10:13:20Z","version":2,"changeset":51967730,"user":"Ashish Thapa","uid":4039113}},"geometry":{"type":"Point","coordinates":[84.0697208,28.1647846]}},{"type":"Feature","id":"node/4928762221","properties":{"type":"node","id":4928762221,"tags":{"addr:postcode":"33800","addr:street":"Hulak Marg","email":"syangjapostoffice@gmail.com","name:en":"District Post Office, Syangja","office":"government","opening_hours":"Su-Th 10:00-17:00; Fr 10:00-15:00","phone":"063420103"},"relations":[],"meta":{"timestamp":"2017-10-03T05:30:24Z","version":2,"changeset":52584259,"user":"Office of District Attorney Kaski","uid":5742502}},"geometry":{"type":"Point","coordinates":[83.8706499,28.0985723]}},{"type":"Feature","id":"node/4956328522","properties":{"type":"node","id":4956328522,"tags":{"name":"Pashu Bikash Farm, Pokhara","office":"government"},"relations":[],"meta":{"timestamp":"2017-07-07T08:26:54Z","version":1,"changeset":50102186,"user":"Ro Sun","uid":3112087}},"geometry":{"type":"Point","coordinates":[84.0058844,28.1838764]}},{"type":"Feature","id":"node/5026319641","properties":{"type":"node","id":5026319641,"tags":{"addr:city":"Pokhara Lekhnath Metropolitan City","addr:place":"Sarangkot","addr:street":"Thulo Pokhari","amenity":"public_office","name":"Ward Office - Ward No. 18","office":"government"},"relations":[],"meta":{"timestamp":"2017-12-10T05:56:05Z","version":2,"changeset":54502549,"user":"Ro Sun","uid":3112087}},"geometry":{"type":"Point","coordinates":[83.9562002,28.2443541]}},{"type":"Feature","id":"node/5027780517","properties":{"type":"node","id":5027780517,"tags":{"addr:city":"Pokhara Lekhnath M.City","addr:place":"Puranchar","addr:street":"Bharati Bhawan Marg","building":"yes","name":"Mahila Prashichan Karyalaya Ward 19","office":"government"},"relations":[],"meta":{"timestamp":"2017-12-10T05:15:56Z","version":2,"changeset":54502213,"user":"Ro Sun","uid":3112087}},"geometry":{"type":"Point","coordinates":[83.9512365,28.2914086]}},{"type":"Feature","id":"node/5028094692","properties":{"type":"node","id":5028094692,"tags":{"addr:place":"Bhandardhik","name":"Malpot Karyalaya","name:ne":"मालपोत कार्यलय","office":"government","opening_hours":"10:00-15:00"},"relations":[],"meta":{"timestamp":"2018-03-26T08:04:32Z","version":4,"changeset":57525914,"user":"Ro Sun","uid":3112087}},"geometry":{"type":"Point","coordinates":[84.0643613,28.1508417]}},{"type":"Feature","id":"node/5031593957","properties":{"type":"node","id":5031593957,"tags":{"addr:place":"Dhungepatan-30","addr:street":"PU-line","name":"Ilaka Prashasan Karyalaya","office":"government","opening_hours":"Mo-fr 10:00-16:00"},"relations":[],"meta":{"timestamp":"2017-08-13T06:48:20Z","version":1,"changeset":51073375,"user":"rmpaudel123","uid":6447862}},"geometry":{"type":"Point","coordinates":[84.0817916,28.1467125]}},{"type":"Feature","id":"node/5144399222","properties":{"type":"node","id":5144399222,"tags":{"addr:postcode":"33808","addr:street":"Sidhartha Highway","name:en":"Area Post Office, Fedikhola","office":"government","opening_hours":"Su-Th 10:00-17:00; Fr 10:00-15:00"},"relations":[],"meta":{"timestamp":"2017-10-03T05:30:29Z","version":1,"changeset":52584259,"user":"Office of District Attorney Kaski","uid":5742502}},"geometry":{"type":"Point","coordinates":[83.8843327,28.1557397]}},{"type":"Feature","id":"node/5206167022","properties":{"type":"node","id":5206167022,"tags":{"addr:street":"krishi,setidovan","name:en":"jilla krishi karyalayakrishi","office":"government"},"relations":[],"meta":{"timestamp":"2017-11-02T10:55:15Z","version":1,"changeset":53447956,"user":"UmEs Manandhar","uid":4097300}},"geometry":{"type":"Point","coordinates":[83.8185965,28.1564233]}},{"type":"Feature","id":"node/5206167023","properties":{"type":"node","id":5206167023,"tags":{"name:en":"jilla pasu sewa kendrA","office":"government"},"relations":[],"meta":{"timestamp":"2017-11-02T10:55:16Z","version":1,"changeset":53447956,"user":"UmEs Manandhar","uid":4097300}},"geometry":{"type":"Point","coordinates":[83.8180101,28.1567439]}},{"type":"Feature","id":"node/5206170321","properties":{"type":"node","id":5206170321,"tags":{"addr:street":"setidovan ,krishi","name:en":"andhikhola gaunpalika","office":"government"},"relations":[],"meta":{"timestamp":"2017-11-02T10:55:14Z","version":1,"changeset":53447956,"user":"UmEs Manandhar","uid":4097300}},"geometry":{"type":"Point","coordinates":[83.81836,28.1564491]}},{"type":"Feature","id":"node/5242272044","properties":{"type":"node","id":5242272044,"tags":{"name":"Mastshya Asnushandhan Kendra","name:en":"मत्स्य अनुशन्धान केन्द्र","office":"government","phone":"061560089","types og fish":"Comman carp,Grass Carp,Silver, Bigger Carp,Sahar,Raghunaiyani,gold fish etc"},"relations":[],"meta":{"timestamp":"2018-04-27T05:51:56Z","version":2,"changeset":58465085,"user":"Bijay adhikari","uid":7643850}},"geometry":{"type":"Point","coordinates":[84.0905938,28.1662819]}},{"type":"Feature","id":"node/5274591624","properties":{"type":"node","id":5274591624,"tags":{"contact:phone":"061-465259","name":"Nepal Khadya Saansthan","office":"government","opening_hours":"Su-Thu 10:00-17:00,Fr 10:00-15:00","source":"2cpokhara"},"relations":[],"meta":{"timestamp":"2018-03-06T15:48:32Z","version":2,"changeset":56939466,"user":"Sagarsubedi205","uid":7632456}},"geometry":{"type":"Point","coordinates":[83.9722053,28.1926874]}},{"type":"Feature","id":"node/5412090024","properties":{"type":"node","id":5412090024,"tags":{"name:en":"dewan chowk","office":"government"},"relations":[],"meta":{"timestamp":"2018-02-14T12:12:24Z","version":1,"changeset":56351174,"user":"Jagannath Chapagain","uid":7618009}},"geometry":{"type":"Point","coordinates":[83.8767194,28.1041902]}},{"type":"Feature","id":"node/5412090025","properties":{"type":"node","id":5412090025,"tags":{"name:en":"Irrigation Development Division syangja","office":"government"},"relations":[],"meta":{"timestamp":"2018-02-14T12:12:25Z","version":1,"changeset":56351174,"user":"Jagannath Chapagain","uid":7618009}},"geometry":{"type":"Point","coordinates":[83.8767769,28.1046508]}},{"type":"Feature","id":"node/5434600064","properties":{"type":"node","id":5434600064,"tags":{"level":"3","name":"LGCDP Provincial Support Unit","name:ne":"एल. जी. सि. डी. पी. (२)","office":"government"},"relations":[],"meta":{"timestamp":"2018-05-27T07:32:42Z","version":5,"changeset":59307800,"user":"Gaurav Thapa","uid":4212590}},"geometry":{"type":"Point","coordinates":[83.9977165,28.2096543]}},{"type":"Feature","id":"node/5457194581","properties":{"type":"node","id":5457194581,"tags":{"level":"3","name":"आर्थिक मामिला तथा योजना मन्त्रालय","office":"government","opening_hours":"Su-Th 10:00-16:00 ; Fr 10:00-15:00","operator:type":"government","source":"2cpokhara"},"relations":[],"meta":{"timestamp":"2018-05-27T07:23:11Z","version":4,"changeset":59307662,"user":"Ro Sun","uid":3112087}},"geometry":{"type":"Point","coordinates":[83.9725908,28.2054494]}},{"type":"Feature","id":"node/5458132966","properties":{"type":"node","id":5458132966,"tags":{"name":"Pokhara Civil Aviation Ofice","office":"government","opening_hours":"Mo-Fr 10:00-17:00"},"relations":[],"meta":{"timestamp":"2018-04-10T06:27:38Z","version":2,"changeset":57960874,"user":"Manoj Thapa","uid":781054}},"geometry":{"type":"Point","coordinates":[83.9785802,28.1993969]}},{"type":"Feature","id":"node/5459725510","properties":{"type":"node","id":5459725510,"tags":{"email":"ntcdbpokhara@gmail.com","name":"National Tea and Coffee Development Board","name:ne":"राष्ट्रिय चिया तथा कफी विकास बोर्ड","office":"government","phone":"061-536123","source":"2c pokhara","website":"www.teacoffee.gov.np"},"relations":[],"meta":{"timestamp":"2018-04-11T03:56:06Z","version":3,"changeset":57990934,"user":"Manoj Thapa","uid":781054}},"geometry":{"type":"Point","coordinates":[83.9721059,28.2152712]}},{"type":"Feature","id":"node/5460773150","properties":{"type":"node","id":5460773150,"tags":{"name":"Vyabasayik Kit Vikas Nirdesanalaya","office":"government","phone":"061-522025","source":"2c pokhara"},"relations":[],"meta":{"timestamp":"2018-03-07T02:57:48Z","version":1,"changeset":56954232,"user":"Active Asmita","uid":7644107}},"geometry":{"type":"Point","coordinates":[83.9691991,28.2202848]}},{"type":"Feature","id":"node/5466135771","properties":{"type":"node","id":5466135771,"tags":{"contact:phone":"061536123","name":"Reagional Tea and Coffee Office","office":"government","opening_hours":"10:00-16:00"},"relations":[],"meta":{"timestamp":"2018-03-09T06:40:24Z","version":1,"changeset":57021702,"user":"LonelyNarayan","uid":7644124}},"geometry":{"type":"Point","coordinates":[83.9721228,28.2152158]}},{"type":"Feature","id":"node/5470393622","properties":{"type":"node","id":5470393622,"tags":{"contact:email":"toli@ntc.net.nptoli.org.np","contact:phone":"061-462875","name":"Team Organizing Local Institution","office":"government","source":"2cpokhara"},"relations":[],"meta":{"timestamp":"2018-03-11T07:23:24Z","version":1,"changeset":57074429,"user":"Sagarsubedi205","uid":7632456}},"geometry":{"type":"Point","coordinates":[83.9786577,28.1901574]}},{"type":"Feature","id":"node/5487981722","properties":{"type":"node","id":5487981722,"tags":{"level":"3","name":"मुख्यमन्त्री तथा मन्त्रिपरिषद्को कार्यालय","office":"government","opening_hours":"Su-Th 10:00-16:00 ; Fr 10:00-15:00","operator:type":"government","source":"2cpokhara"},"relations":[],"meta":{"timestamp":"2018-05-27T07:23:11Z","version":5,"changeset":59307662,"user":"Ro Sun","uid":3112087}},"geometry":{"type":"Point","coordinates":[83.9725516,28.2056278]}},{"type":"Feature","id":"node/5487981723","properties":{"type":"node","id":5487981723,"tags":{"level":"3","name":"आन्तरिक मामिला तथा कानून मन्त्रालय","office":"government","opening_hours":"Su-Th 10:00-16:00 ; Fr 10:00-15:00","operator:type":"government","source":"2cpokhara"},"relations":[],"meta":{"timestamp":"2018-05-27T07:23:11Z","version":4,"changeset":59307662,"user":"Ro Sun","uid":3112087}},"geometry":{"type":"Point","coordinates":[83.9725225,28.2053233]}},{"type":"Feature","id":"node/5488047892","properties":{"type":"node","id":5488047892,"tags":{"addr:city":"Pokhara Lekhanath Metropolitan City","addr:place":"Milan Tole","addr:street":"Sugam Marga","amenity":"public_office","name":"Sahari Bikash Tatha Bhaban Nirmand Bivag","office":"government","opening_hours":"10:00-17:00","operator":"government"},"relations":[],"meta":{"timestamp":"2018-03-19T08:30:09Z","version":2,"changeset":57310123,"user":"Ro Sun","uid":3112087}},"geometry":{"type":"Point","coordinates":[83.9716239,28.2051882]}},{"type":"Feature","id":"node/5488047893","properties":{"type":"node","id":5488047893,"tags":{"addr:city":"Pokhara Lekhanath Metropolitan City","addr:place":"Milan Tole","addr:street":"Sugam Marga","amenity":"public_office","name":"Janata Aawash Karyanyanon Yekai","office":"government","opening_hours":"10:00-17:00","operator":"government"},"relations":[],"meta":{"timestamp":"2018-03-19T08:30:09Z","version":2,"changeset":57310123,"user":"Ro Sun","uid":3112087}},"geometry":{"type":"Point","coordinates":[83.9716172,28.2052284]}},{"type":"Feature","id":"node/5490076681","properties":{"type":"node","id":5490076681,"tags":{"level":"2","name":"प्रदेश सभा","office":"government"},"relations":[],"meta":{"timestamp":"2018-03-20T04:55:20Z","version":1,"changeset":57338653,"user":"Ro Sun","uid":3112087}},"geometry":{"type":"Point","coordinates":[83.9878929,28.237148]}},{"type":"Feature","id":"node/5490759371","properties":{"type":"node","id":5490759371,"tags":{"level":"9","name":"Ward Office - Ward No. 26","office":"government"},"relations":[],"meta":{"timestamp":"2018-03-26T06:15:24Z","version":2,"changeset":57523709,"user":"Ro Sun","uid":3112087}},"geometry":{"type":"Point","coordinates":[84.0384163,28.1825442]}},{"type":"Feature","id":"node/5515371669","properties":{"type":"node","id":5515371669,"tags":{"name":"Nepal Development Society Diabetes Prevention and Management","office":"government","source":"2cpokhara","website":"www.nedsnepal.org.np"},"relations":[],"meta":{"timestamp":"2018-03-30T00:16:38Z","version":1,"changeset":57649167,"user":"Amrit Devkota","uid":6497064}},"geometry":{"type":"Point","coordinates":[84.0760249,28.164151]}},{"type":"Feature","id":"node/5552635012","properties":{"type":"node","id":5552635012,"tags":{"name":"Ward Office - Ward no. 21 (NIrmal Pokhari)","office":"government","source":"2cpokhara"},"relations":[],"meta":{"timestamp":"2018-04-14T15:06:31Z","version":1,"changeset":58091309,"user":"Amrit Devkota","uid":6497064}},"geometry":{"type":"Point","coordinates":[83.9984165,28.1525705]}},{"type":"Feature","id":"node/5581676390","properties":{"type":"node","id":5581676390,"tags":{"addr:street":"Begnas Khudi","government":"government","name":"Ward Office - Ward No. 31","office":"government","opening_hours":"Su-Fr 10:00-17:00","phone":"061-60045","wheelchair":"yes"},"relations":[],"meta":{"timestamp":"2018-04-27T03:37:26Z","version":1,"changeset":58462714,"user":"Bijay adhikari","uid":7643850}},"geometry":{"type":"Point","coordinates":[84.0882846,28.1653455]}},{"type":"Feature","id":"node/5645333840","properties":{"type":"node","id":5645333840,"tags":{"email":"rwspwn@rwsspwn.org.np","name":"Rural Water Supply Project In Western Neal - Pahse II","office":"government","phone":"061-531883","website":"rwsspwn.org.np"},"relations":[],"meta":{"timestamp":"2018-05-27T07:17:04Z","version":1,"changeset":59307588,"user":"Ro Sun","uid":3112087}},"geometry":{"type":"Point","coordinates":[84.0013602,28.2137073]}},{"type":"Feature","id":"node/5645460378","properties":{"type":"node","id":5645460378,"tags":{"name":"Shram Karalaya","name:ne":"श्रम कार्यालय","office":"government"},"relations":[],"meta":{"timestamp":"2018-05-27T09:20:56Z","version":1,"changeset":59309349,"user":"Ro Sun","uid":3112087}},"geometry":{"type":"Point","coordinates":[83.9909365,28.2293474]}}],"createdOn":1527495453938}