{"type":"FeatureCollection","features":[{"type":"Feature","id":"way/120634629","properties":{"type":"way","id":120634629,"tags":{"amenity":"health_post","contact:phone":"061-431180","healthcare":"HA, Staff Nurse","healthcare:speciality":"essential primary health care","name":"Sahari Swasthya Kendra, 15","name:ne":"सहरी स्वास्थ्य केन्द्र १५","opening_hours":"Su-Fr10:00-16:00","operator:type":"government"},"relations":[],"meta":{"timestamp":"2018-05-14T09:17:41Z","version":9,"changeset":58945321,"user":"Ro Sun","uid":3112087}},"geometry":{"type":"Point","coordinates":[83.98676637777777,28.200274188888887]}},{"type":"Feature","id":"way/343059858","properties":{"type":"way","id":343059858,"tags":{"amenity":"health_post","building":"yes","contact:phone":"9846041599","name":"Kalika Sawasthae Chauki","name:ne":"कालिका स्वास्थ्य चौकी","operator:type":"government","source":"2cpokhara"},"relations":[],"meta":{"timestamp":"2018-05-15T08:52:07Z","version":2,"changeset":58976230,"user":"Ro Sun","uid":3112087}},"geometry":{"type":"Point","coordinates":[84.075585875,28.2134333]}},{"type":"Feature","id":"way/345775642","properties":{"type":"way","id":345775642,"tags":{"amenity":"health_post","building":"yes","contact:phone":"9856018926","name":"Bharatpokhari Health Post","opening_hours":"Su-Th 10:00-17:00 Fr 10:00-15:00","operator:type":"government"},"relations":[],"meta":{"timestamp":"2018-04-01T15:35:42Z","version":3,"changeset":57715309,"user":"Sagarsubedi205","uid":7632456}},"geometry":{"type":"Point","coordinates":[84.02982992499999,28.133824949999998]}},{"type":"Feature","id":"way/407059050","properties":{"type":"way","id":407059050,"tags":{"amenity":"health_post","level":"9","name":"Sahari Swasthya Kendra 14","name:ne":"सहरी स्वास्थ्य केन्द्र १४","operator":"Pokhara Sub-Metropolitian City","operator:type":"government"},"relations":[],"meta":{"timestamp":"2018-05-14T09:21:05Z","version":10,"changeset":58945428,"user":"Ro Sun","uid":3112087}},"geometry":{"type":"Point","coordinates":[84.02288998333334,28.178215550000004]}},{"type":"Feature","id":"way/408736374","properties":{"type":"way","id":408736374,"tags":{"amenity":"health_post","building":"yes","name":"Armala Prathamik Swastha Kendra","name:ne":"अर्मला प्रथामिक स्वास्थ्य केन्द्र","operator:type":"government","phone":"061696603","source":"2cpokhara"},"relations":[],"meta":{"timestamp":"2018-05-14T07:38:08Z","version":7,"changeset":58942408,"user":"Ro Sun","uid":3112087}},"geometry":{"type":"Point","coordinates":[83.99414646666666,28.28846283333333]}},{"type":"Feature","id":"way/417446765","properties":{"type":"way","id":417446765,"tags":{"amenity":"health_post","building":"yes","name":"Sahari Swasthya Kendra, 5","name:ne":"सहरी स्वास्थ्य केन्द्र वडा नम्बर ५","office":"government","operator:type":"government"},"relations":[],"meta":{"timestamp":"2018-05-14T09:17:42Z","version":4,"changeset":58945321,"user":"Ro Sun","uid":3112087}},"geometry":{"type":"Point","coordinates":[83.97656275,28.21789445]}},{"type":"Feature","id":"way/437241333","properties":{"type":"way","id":437241333,"tags":{"amenity":"health_post","name":"Arba Health Post","name:ne":"आर्वा स्वास्थ्य चौकी","operator:type":"government"},"relations":[],"meta":{"timestamp":"2018-05-27T11:26:14Z","version":5,"changeset":59311528,"user":"Ro Sun","uid":3112087}},"geometry":{"type":"Point","coordinates":[84.03560672500001,28.2261526]}},{"type":"Feature","id":"way/437408159","properties":{"type":"way","id":437408159,"tags":{"amenity":"health_post","name":"Valam Health Post","name:ne":"भलाम स्वास्थ्य चौकी","operator:type":"government"},"relations":[],"meta":{"timestamp":"2018-05-29T09:29:22Z","version":4,"changeset":59362165,"user":"Manoj Thapa","uid":781054}},"geometry":{"type":"Point","coordinates":[84.0093557,28.254459075]}},{"type":"Feature","id":"way/439113015","properties":{"type":"way","id":439113015,"tags":{"amenity":"health_post","contact:phone":"9843139379, 9856069563","emergency":"yes","facility:x-ray":"yes","name":"Kristi Primary Health Post","name:ne":"क्रिस्ती प्राथमिक स्वास्थ्य चौकी","opening_hours":"Su-Th 10:00-17:00, Fr 10:00-15:00","operator:type":"government","personnel:count":"16","source":"2cpokhara"},"relations":[],"meta":{"timestamp":"2018-05-14T07:57:58Z","version":5,"changeset":58942898,"user":"Ro Sun","uid":3112087}},"geometry":{"type":"Point","coordinates":[83.9521856,28.15975865]}},{"type":"Feature","id":"way/440207113","properties":{"type":"way","id":440207113,"tags":{"addr:city":"Pokhara Lekhnath Metropolitan City","addr:place":"Pokharithok","amenity":"health_post","contact:phone":"061692855","name":"Sarangkot Health Post","name:ne":"सराङ्गकोट स्वास्थ्य चौकी","opening_hours":"Su-Th 10:00-16:00; Fr10:00-13:00","operator:type":"government"},"relations":[],"meta":{"timestamp":"2018-03-27T09:00:41Z","version":3,"changeset":57559884,"user":"Ro Sun","uid":3112087}},"geometry":{"type":"Point","coordinates":[83.9420373,28.244971999999997]}},{"type":"Feature","id":"way/441384935","properties":{"type":"way","id":441384935,"tags":{"addr:city":"Pokhara Lekhnath Municipality","addr:place":"Thulakhet 23","addr:street":"Phanchase Marga","amenity":"health_post","building":"yes","estd:":"2041","name":"Bhadaure Health Post","name:ne":"भदौरे स्वास्थ्य चौकी","operator":"public"},"relations":[],"meta":{"timestamp":"2018-05-14T07:57:58Z","version":4,"changeset":58942898,"user":"Ro Sun","uid":3112087}},"geometry":{"type":"Point","coordinates":[83.873125175,28.24584195]}},{"type":"Feature","id":"way/441399919","properties":{"type":"way","id":441399919,"tags":{"amenity":"health_post","building":"yes","name":"Lekhnath Health Post","name:ne":"लेखनाथ स्वास्थ्य चौकी","operator:type":"government"},"relations":[],"meta":{"timestamp":"2018-05-14T10:16:17Z","version":4,"changeset":58947040,"user":"Ro Sun","uid":3112087}},"geometry":{"type":"Point","coordinates":[84.06905565,28.193602499999997]}},{"type":"Feature","id":"way/483398275","properties":{"type":"way","id":483398275,"tags":{"amenity":"health_post","building":"yes","name":"Sharai Swasthya Kendra 32","name:ne":"सहरी स्वास्थ्य केन्द्र ३२","operator:type":"government"},"relations":[],"meta":{"timestamp":"2018-05-14T08:50:52Z","version":4,"changeset":58944449,"user":"Ro Sun","uid":3112087}},"geometry":{"type":"Point","coordinates":[84.09977355,28.135319700000004]}},{"type":"Feature","id":"way/484870542","properties":{"type":"way","id":484870542,"tags":{"amenity":"health_post","building":"yes","name":"Vadaure Swasthya Chauki","operator":"government","source":"2cpokhara"},"relations":[],"meta":{"timestamp":"2018-05-31T03:44:32Z","version":3,"changeset":59414987,"user":"Ro Sun","uid":3112087}},"geometry":{"type":"Point","coordinates":[83.831474625,28.23749685]}},{"type":"Feature","id":"way/485276190","properties":{"type":"way","id":485276190,"tags":{"amenity":"health_post","building":"yes","contact:phone":"9846637737","name":"Sahari Health Post 32","name:ne":"सहरी स्वास्थ्य केन्द्र ३२","operator":"public"},"relations":[],"meta":{"timestamp":"2018-05-14T08:50:52Z","version":6,"changeset":58944449,"user":"Ro Sun","uid":3112087}},"geometry":{"type":"Point","coordinates":[84.10881045000001,28.114672575]}},{"type":"Feature","id":"way/515131062","properties":{"type":"way","id":515131062,"tags":{"amenity":"health_post","building":"yes","contact:phone":"9856061655","name":"Sahari Health Post 32","name:ne":"सहरी स्वास्थ्य केन्द्र ३२","operator:type":"government","source":"2C Pokhara Field Data Collection","start_date":"2067,2968"},"relations":[],"meta":{"timestamp":"2018-05-14T08:50:53Z","version":5,"changeset":58944449,"user":"Ro Sun","uid":3112087}},"geometry":{"type":"Point","coordinates":[84.09593945,28.1135569]}},{"type":"Feature","id":"way/535154561","properties":{"type":"way","id":535154561,"tags":{"amenity":"health_post","building":"yes","contact:phone":"9846040180,9856011460","email":"nirmalpokharihp@gmail.com","name":"Nirmal Pokhari Health Post","name:ne":"निर्मल्पोखरि स्वास्थ्य चौकी","personnel:count":"7","source":"2cpokhara"},"relations":[],"meta":{"timestamp":"2018-05-14T07:57:59Z","version":4,"changeset":58942898,"user":"Ro Sun","uid":3112087}},"geometry":{"type":"Point","coordinates":[83.9972817,28.15281885]}},{"type":"Feature","id":"way/566503791","properties":{"type":"way","id":566503791,"tags":{"amenity":"health_post","name":"Tallakot Health Post","name:ne":"तल्लाकोट स्वास्थ्य चौकी","operator:type":"government"},"relations":[],"meta":{"timestamp":"2018-05-14T10:16:17Z","version":3,"changeset":58947040,"user":"Ro Sun","uid":3112087}},"geometry":{"type":"Point","coordinates":[83.95777945454546,28.308506627272724]}},{"type":"Feature","id":"way/576811121","properties":{"type":"way","id":576811121,"tags":{"amenity":"health_post","contact:phone":"9827160760","name":"Majhthana Health Post","name:ne":"माझठाना स्वास्थ्य चौकी","opening_hours":"Su-Th 10:00-17:00, Fr 10:00-15:00","operator:type":"government","source":"2cpokhara"},"relations":[],"meta":{"timestamp":"2018-05-14T07:38:08Z","version":3,"changeset":58942408,"user":"Ro Sun","uid":3112087}},"geometry":{"type":"Point","coordinates":[84.10458505,28.211774775]}},{"type":"Feature","id":"node/4247830528","properties":{"type":"node","id":4247830528,"tags":{"alt_name":"Helath Post, Gaughar","amenity":"health_post","name":"Lamachour Swasthya Chouki","name:ne":"लामचौर स्वास्थ्य चौकी","operator:type":"government","phone":"9856023368"},"relations":[],"meta":{"timestamp":"2018-05-14T07:38:07Z","version":5,"changeset":58942408,"user":"Ro Sun","uid":3112087}},"geometry":{"type":"Point","coordinates":[83.9671867,28.2658385]}},{"type":"Feature","id":"node/4287997218","properties":{"type":"node","id":4287997218,"tags":{"amenity":"health_post","name":"Sahari Swastha Kendra 17","name:ne":"सहरी स्वास्थ्य केन्द्र १७","opening_hours":"10:00-17:00 Sa and PH closed","operator":"government","source":"2cpokhara"},"relations":[],"meta":{"timestamp":"2018-05-14T09:21:04Z","version":9,"changeset":58945428,"user":"Ro Sun","uid":3112087}},"geometry":{"type":"Point","coordinates":[83.9675062,28.1912849]}},{"type":"Feature","id":"node/4345403214","properties":{"type":"node","id":4345403214,"tags":{"amenity":"health_post","name":"Sahari Swasthya Kendra 1","name:ne":"सहरी स्वास्थ्य केन्द्र वडा न १","operator":"government"},"relations":[],"meta":{"timestamp":"2018-05-14T09:17:41Z","version":4,"changeset":58945321,"user":"Ro Sun","uid":3112087}},"geometry":{"type":"Point","coordinates":[83.9863205,28.2417117]}},{"type":"Feature","id":"node/4345723955","properties":{"type":"node","id":4345723955,"tags":{"addr:locality":"Miyapatan","amenity":"health_post","name":"Nagar Swastha Kendra - Ward No. 13","name:ne":"शहरी स्वास्थ्य केन्द्र १३","operator:type":"government"},"relations":[],"meta":{"timestamp":"2018-05-14T07:38:07Z","version":5,"changeset":58942408,"user":"Ro Sun","uid":3112087}},"geometry":{"type":"Point","coordinates":[84.0117374,28.211809]}},{"type":"Feature","id":"node/4373241040","properties":{"type":"node","id":4373241040,"tags":{"addr:street":"Shivashakti Marga","amenity":"health_post","name":"Health Post - Ward No 11","name:ne":"स्वास्थ्य चौकी वार्ड नम्बर ११"},"relations":[],"meta":{"timestamp":"2018-04-01T10:59:22Z","version":4,"changeset":57709523,"user":"Madan Acharya","uid":7707025}},"geometry":{"type":"Point","coordinates":[83.9996835,28.2219615]}},{"type":"Feature","id":"node/4513303572","properties":{"type":"node","id":4513303572,"tags":{"amenity":"health_post","name":"Hemja Health Post","name:ne":"हेम्जा स्वास्थ्य चौकी","operator":"govenment","phone":"061-621557"},"relations":[],"meta":{"timestamp":"2018-05-14T07:38:07Z","version":4,"changeset":58942408,"user":"Ro Sun","uid":3112087}},"geometry":{"type":"Point","coordinates":[83.9364776,28.2780901]}},{"type":"Feature","id":"node/4601419792","properties":{"type":"node","id":4601419792,"tags":{"amenity":"health_post","name:en":"Shardikhola Health Post","name:ne":"शर्दीखोला स्वास्थ चौकी"},"relations":[],"meta":{"timestamp":"2018-05-31T06:44:46Z","version":3,"changeset":59418385,"user":"Manoj Thapa","uid":781054}},"geometry":{"type":"Point","coordinates":[83.9634834,28.336522]}},{"type":"Feature","id":"node/4785971726","properties":{"type":"node","id":4785971726,"tags":{"amenity":"health_post","name":"Kaskikot Swasthya Chauki","name:en":"Kaskikot Health Post","name:ne":"कास्कीकोट स्वास्थ्य चौकी","operator:type":"government"},"relations":[],"meta":{"timestamp":"2018-05-14T07:38:07Z","version":6,"changeset":58942408,"user":"Ro Sun","uid":3112087}},"geometry":{"type":"Point","coordinates":[83.907732,28.2660525]}},{"type":"Feature","id":"node/4788166322","properties":{"type":"node","id":4788166322,"tags":{"amenity":"health_post","name":"Mauja Swastha Chauki","name:ne":"मौजा स्वास्थ्य चौकी","operator:type":"government"},"relations":[],"meta":{"timestamp":"2018-05-14T07:38:07Z","version":4,"changeset":58942408,"user":"Ro Sun","uid":3112087}},"geometry":{"type":"Point","coordinates":[84.0445883,28.2718265]}},{"type":"Feature","id":"node/5026520850","properties":{"type":"node","id":5026520850,"tags":{"addr:city":"Pokhara Lekhnath M.City","addr:place":"Puranchaur","addr:street":"Ambareswor marga","amenity":"health_post","name":"Sahari Swasthya Kendra, 19 Puranchaur","name:ne":"शहरी स्वास्थ्य केन्द्र १९ पुरुन्चौर","operator:type":"government"},"relations":[],"meta":{"timestamp":"2018-05-14T07:38:07Z","version":3,"changeset":58942408,"user":"Ro Sun","uid":3112087}},"geometry":{"type":"Point","coordinates":[83.9590048,28.3007403]}},{"type":"Feature","id":"node/5530353075","properties":{"type":"node","id":5530353075,"tags":{"amenity":"health_post","name":"Ghachok Health Post","name:ne":"घचोक स्वास्थ चौकी"},"relations":[],"meta":{"timestamp":"2018-05-31T07:18:43Z","version":2,"changeset":59419250,"user":"Manoj Thapa","uid":781054}},"geometry":{"type":"Point","coordinates":[83.9430141,28.3146434]}},{"type":"Feature","id":"node/5577800075","properties":{"type":"node","id":5577800075,"tags":{"amenity":"health_post","contact:phone":"9847381283","name":"Rakhi Health Post","name:ne":"राखी स्वास्थ्य चौकी","opening_hours":"10:00-17:00","operator:type":"government","source":"2cpokhara","staff":"17"},"relations":[],"meta":{"timestamp":"2018-05-14T07:38:08Z","version":3,"changeset":58942408,"user":"Ro Sun","uid":3112087}},"geometry":{"type":"Point","coordinates":[84.0437177,28.2039992]}},{"type":"Feature","id":"node/5581851756","properties":{"type":"node","id":5581851756,"tags":{"amenity":"health_post","name":"Sawsthya Chauki Ward 31","personnel:count":"6"},"relations":[],"meta":{"timestamp":"2018-05-01T06:36:08Z","version":4,"changeset":58575979,"user":"Ro Sun","uid":3112087}},"geometry":{"type":"Point","coordinates":[84.1143714,28.1829199]}},{"type":"Feature","id":"node/5587559347","properties":{"type":"node","id":5587559347,"tags":{"amenity":"health_post","name":"Chapakot Healthpost","name:ne":"चापाकोट स्वास्थ्य चौकी","operator:type":"government"},"relations":[],"meta":{"timestamp":"2018-05-14T07:57:58Z","version":3,"changeset":58942898,"user":"Ro Sun","uid":3112087}},"geometry":{"type":"Point","coordinates":[83.8892519,28.2391483]}},{"type":"Feature","id":"node/5589538666","properties":{"type":"node","id":5589538666,"tags":{"amenity":"health_post","name":"Vaccination centre","operator":"Goverement"},"relations":[],"meta":{"timestamp":"2018-05-01T02:11:57Z","version":1,"changeset":58572900,"user":"LonelyNarayan","uid":7644124}},"geometry":{"type":"Point","coordinates":[83.8732311,28.2459287]}},{"type":"Feature","id":"node/5616940245","properties":{"type":"node","id":5616940245,"tags":{"amenity":"health_post","name":"Pundi Bhumdi Health Post","name:ne":"पुम्दी भुम्दी स्वास्थ्य चौकी","operator:type":"government"},"relations":[],"meta":{"timestamp":"2018-05-14T09:24:13Z","version":2,"changeset":58945514,"user":"Ro Sun","uid":3112087}},"geometry":{"type":"Point","coordinates":[83.9124544,28.2069858]}},{"type":"Feature","id":"node/5616955486","properties":{"type":"node","id":5616955486,"tags":{"amenity":"health_post","name":"Sahari Swasthya Kendra, 8","name:ne":"सहरी स्वास्थ्य केन्द्र ८","operator:type":"government"},"relations":[],"meta":{"timestamp":"2018-05-27T10:20:25Z","version":2,"changeset":59310361,"user":"Ro Sun","uid":3112087}},"geometry":{"type":"Point","coordinates":[83.9811172,28.2109706]}},{"type":"Feature","id":"node/5653492590","properties":{"type":"node","id":5653492590,"tags":{"amenity":"health_post","name":"Sharai Swasthya Kendra 33","name:ne":"शहरी स्वास्थ्य केन्द्र ३३"},"relations":[],"meta":{"timestamp":"2018-05-31T10:06:21Z","version":1,"changeset":59424714,"user":"Ro Sun","uid":3112087}},"geometry":{"type":"Point","coordinates":[84.07772,28.1237126]}}],"createdOn":1527761734965}