{"type":"FeatureCollection","features":[{"type":"Feature","id":"way/44843317","properties":{"type":"way","id":44843317,"tags":{"amenity":"place_of_worship","layer":"2","name":"Taal Barahi Mandir (Lake Temple)","name:ne":"ताल बराही मन्दिर (लेकसाइड)","place":"islet","religion":"hindu"},"relations":[],"meta":{"timestamp":"2017-03-05T03:55:20Z","version":9,"changeset":46587044,"user":"nyuriks","uid":339581}},"geometry":{"type":"Point","coordinates":[83.953593808,28.207388408]}},{"type":"Feature","id":"way/227635791","properties":{"type":"way","id":227635791,"tags":{"addr:place":"Melbot","amenity":"place_of_worship","building":"yes","name":"Kunwar Kul Mandir","religion":"hindu"},"relations":[],"meta":{"timestamp":"2017-08-11T05:57:51Z","version":2,"changeset":51021266,"user":"suneeel","uid":6447856}},"geometry":{"type":"Point","coordinates":[83.9325613,28.285670875]}},{"type":"Feature","id":"way/240403010","properties":{"type":"way","id":240403010,"tags":{"amenity":"place_of_worship","name":"Bindhyabasini Temple","name:ne":"बिन्दबासिनी मन्दिर","religion":"hindu"},"relations":[],"meta":{"timestamp":"2017-08-09T08:31:56Z","version":7,"changeset":50964431,"user":"cibesh009","uid":6145192}},"geometry":{"type":"Point","coordinates":[83.98442401874999,28.23748299375]}},{"type":"Feature","id":"way/312870224","properties":{"type":"way","id":312870224,"tags":{"addr:city":"Pokhara","addr:street":"Birauta","amenity":"place_of_worship","contact:phone":"061-462651","name":"Ram Mandir","name:ne":"राम मन्दिर","religion":"hindu","source":"2cpokhara"},"relations":[],"meta":{"timestamp":"2018-03-06T15:48:32Z","version":4,"changeset":56939466,"user":"Sagarsubedi205","uid":7632456}},"geometry":{"type":"Point","coordinates":[83.97046251111112,28.190407566666664]}},{"type":"Feature","id":"way/340390804","properties":{"type":"way","id":340390804,"tags":{"amenity":"place_of_worship","building":"yes","name":"Makanna Devi Mandir","religion":"hindu","source":"2cpokhara"},"relations":[],"meta":{"timestamp":"2018-05-15T09:01:10Z","version":2,"changeset":58976461,"user":"Abash Paudel","uid":6677482}},"geometry":{"type":"Point","coordinates":[83.852049,28.22972265]}},{"type":"Feature","id":"way/343226046","properties":{"type":"way","id":343226046,"tags":{"amenity":"place_of_worship","name":"Bhadrakali Temple","name:ne":"भद्रकाली मन्दिर","religion":"hindu"},"relations":[],"meta":{"timestamp":"2016-08-09T06:24:24Z","version":4,"changeset":41338344,"user":"Alisha12","uid":4204463}},"geometry":{"type":"Point","coordinates":[84.00712094285714,28.212510642857147]}},{"type":"Feature","id":"way/363732625","properties":{"type":"way","id":363732625,"tags":{"addr:city":"Pokhara","addr:place":"Lamachaur","amenity":"place_of_worship","name":"Kalika Temple","name:ne":"कालिका मन्दिर","opening_hours":"24/7","religion":"hindu","source":"2cpokhara"},"relations":[],"meta":{"timestamp":"2018-02-24T10:30:52Z","version":3,"changeset":56632750,"user":"Rabin Ojha","uid":6075053}},"geometry":{"type":"Point","coordinates":[83.97669257999999,28.25562286]}},{"type":"Feature","id":"way/363732778","properties":{"type":"way","id":363732778,"tags":{"amenity":"place_of_worship","drinking_water":"no","name":"Nareshwor Shiva Temple","name:ne":"नरेश्वर शिव मन्दिर","religion":"hindu","service_times":"Mo-Su","toilets":"no"},"relations":[],"meta":{"timestamp":"2017-08-11T07:34:23Z","version":7,"changeset":51023656,"user":"dipak acharya","uid":6447899}},"geometry":{"type":"Point","coordinates":[83.98004938,28.27128472]}},{"type":"Feature","id":"way/363764158","properties":{"type":"way","id":363764158,"tags":{"addr:city":"Pokhara","addr:place":"Lamachaur","amenity":"place_of_worship","name":"Shiva Naag Mandir","opening_hours":"24/7","religion":"hindu","source":"2cpokhara"},"relations":[],"meta":{"timestamp":"2018-02-24T10:30:53Z","version":4,"changeset":56632750,"user":"Rabin Ojha","uid":6075053}},"geometry":{"type":"Point","coordinates":[83.98117595000001,28.254881575000002]}},{"type":"Feature","id":"way/363764168","properties":{"type":"way","id":363764168,"tags":{"addr:city":"Pokhara","addr:place":"Lamachaur","amenity":"place_of_worship","name":"Kalika Temple","name:ne":"कालिका मन्दिर","opening_hours":"24/7","religion":"hindu","source":"2cpokhara"},"relations":[],"meta":{"timestamp":"2018-02-24T10:30:53Z","version":5,"changeset":56632750,"user":"Rabin Ojha","uid":6075053}},"geometry":{"type":"Point","coordinates":[83.9735744,28.26332315]}},{"type":"Feature","id":"way/364663458","properties":{"type":"way","id":364663458,"tags":{"addr:city":"Pokhara","addr:street":"Simalchaur","amenity":"place_of_worship","building":"yes","name":"Jalpa Devi Mandir","religion":"hindu"},"relations":[],"meta":{"timestamp":"2015-08-08T16:00:55Z","version":1,"changeset":33203856,"user":"SauravGautam","uid":3116122}},"geometry":{"type":"Point","coordinates":[83.98334101666666,28.214608116666668]}},{"type":"Feature","id":"way/387996611","properties":{"type":"way","id":387996611,"tags":{"addr:city":"Pokhara","addr:place":"Lamachaur","amenity":"place_of_worship","name":"Kalika Temple","name:ne":"कालिका मन्दिर","opening_hours":"24/7","religion":"hindu","source":"2cpokhara"},"relations":[],"meta":{"timestamp":"2018-02-24T10:30:53Z","version":3,"changeset":56632750,"user":"Rabin Ojha","uid":6075053}},"geometry":{"type":"Point","coordinates":[83.97301496666667,28.255193083333328]}},{"type":"Feature","id":"way/399157526","properties":{"type":"way","id":399157526,"tags":{"building":"yes","name":"Bindhyabasini Temple","name:ne":"बिन्धबासिनी मन्दिर","religion":"hindu"},"relations":[],"meta":{"timestamp":"2016-10-16T07:57:47Z","version":3,"changeset":42930965,"user":"gaurab basnet","uid":3120057}},"geometry":{"type":"Point","coordinates":[83.98417372499999,28.23783925]}},{"type":"Feature","id":"way/404012483","properties":{"type":"way","id":404012483,"tags":{"amenity":"place_of_worship","building":"yes","name":"Shree Bishownath Shiva Mandir","religion":"hindu","toilets":"no","water":"no","wheelchair":"no"},"relations":[],"meta":{"timestamp":"2017-08-09T14:52:19Z","version":4,"changeset":50975807,"user":"Shirisha Dhakal","uid":6447912}},"geometry":{"type":"Point","coordinates":[83.98985616,28.21715868]}},{"type":"Feature","id":"way/407060738","properties":{"type":"way","id":407060738,"tags":{"amenity":"place_of_worship","building":"yes","name":"Gita Mandir","name:ne":"गीता मन्दिर","opening_hours":"sunrise-sunset","religion":"hindu","toilets":"no","water":"no","wheelchair":"yes"},"relations":[],"meta":{"timestamp":"2016-08-10T07:08:27Z","version":4,"changeset":41360758,"user":"Ro Sun","uid":3112087}},"geometry":{"type":"Point","coordinates":[83.9959966625,28.211463875]}},{"type":"Feature","id":"way/407794468","properties":{"type":"way","id":407794468,"tags":{"addr:city":"pokhara lekhnath municipality","addr:place":"Laxmi Tole","addr:street":"Rambazar","amenity":"place_of_worship","building":"yes","estd:":"2051","name":"Laxmi Mandir","operator":"community","religion":"hindu"},"relations":[],"meta":{"timestamp":"2018-06-04T11:40:32Z","version":3,"changeset":59534241,"user":"Manoj Thapa","uid":781054}},"geometry":{"type":"Point","coordinates":[83.99770455,28.197466050000003]}},{"type":"Feature","id":"way/410888313","properties":{"type":"way","id":410888313,"tags":{"amenity":"place_of_worship","building":"yes","name":"Shiva Mandir","name:ne":"शिव मन्दिर","religion":"hindu"},"relations":[],"meta":{"timestamp":"2016-08-24T05:00:15Z","version":3,"changeset":41653023,"user":"Alisha12","uid":4204463}},"geometry":{"type":"Point","coordinates":[83.99574270000001,28.211353675]}},{"type":"Feature","id":"way/413078724","properties":{"type":"way","id":413078724,"tags":{"amenity":"place_of_worship","denomination":"shaivism","name":"Dhikalethar Shiva Mandir","name:ne":"धिकालेथर शिव मन्दिर","opening_hours":"24/7","religion":"hindu"},"relations":[],"meta":{"timestamp":"2016-09-25T04:24:56Z","version":2,"changeset":42415593,"user":"ayushupreti22","uid":3911278}},"geometry":{"type":"Point","coordinates":[84.0051746,28.2127053]}},{"type":"Feature","id":"way/413377550","properties":{"type":"way","id":413377550,"tags":{"addr:city":"Pokhara Lekhnath M.City","addr:place":"Purunchar","addr:street":"Shivalaya Marga","amenity":"place_of_worship","building":"yes","name":"Shree Ambareswor Shivalaya","opening_hours":"6:00-9:30","operator":"Community","religion":"hindu"},"relations":[],"meta":{"timestamp":"2017-08-10T14:00:33Z","version":2,"changeset":51002970,"user":"Delta Bravo123","uid":6447837}},"geometry":{"type":"Point","coordinates":[83.95859030000001,28.29921785]}},{"type":"Feature","id":"way/414319158","properties":{"type":"way","id":414319158,"tags":{"amenity":"place_of_worship","religion":"hindu"},"relations":[],"meta":{"timestamp":"2016-06-22T11:14:39Z","version":2,"changeset":40202286,"user":"gaurab basnet","uid":3120057}},"geometry":{"type":"Point","coordinates":[83.991065975,28.225543825000003]}},{"type":"Feature","id":"way/414343914","properties":{"type":"way","id":414343914,"tags":{"amenity":"place_of_worship","building":"yes","name":"Amar Temple","religion":"hindu"},"relations":[],"meta":{"timestamp":"2017-05-08T10:11:55Z","version":2,"changeset":48497369,"user":"Ro Sun","uid":3112087}},"geometry":{"type":"Point","coordinates":[83.993685275,28.2185049]}},{"type":"Feature","id":"way/414945981","properties":{"type":"way","id":414945981,"tags":{"amenity":"place_of_worship","name":"Krishna Mandir","religion":"hindu"},"relations":[],"meta":{"timestamp":"2018-05-29T09:20:12Z","version":3,"changeset":59361949,"user":"Ro Sun","uid":3112087}},"geometry":{"type":"Point","coordinates":[83.9926492,28.201608575]}},{"type":"Feature","id":"way/415029360","properties":{"type":"way","id":415029360,"tags":{"amenity":"place_of_worship","building":"yes","name":"Bishwokarma Temple","name:ne":"बिश्वोकर्मा मन्दिर","religion":"hindu"},"relations":[],"meta":{"timestamp":"2016-09-25T05:59:20Z","version":3,"changeset":42416356,"user":"ayushupreti22","uid":3911278}},"geometry":{"type":"Point","coordinates":[83.9983099,28.201670175]}},{"type":"Feature","id":"way/415484175","properties":{"type":"way","id":415484175,"tags":{"amenity":"place_of_worship","building":"yes","name":"Kalika Mandir","name:ne":"कालिका मन्दिर","religion":"hindu"},"relations":[],"meta":{"timestamp":"2016-09-11T06:29:05Z","version":2,"changeset":42071767,"user":"Parassrest","uid":3569249}},"geometry":{"type":"Point","coordinates":[83.99653964999999,28.207677524999998]}},{"type":"Feature","id":"way/416518587","properties":{"type":"way","id":416518587,"tags":{"addr:city":"Pokhara Lekhanath Municipality","amenity":"place_of_worship","building":"yes","drinking_water":"no","name":"Pashupati Nath Temple","name:ne":"पशुपतिनाथ मन्दिर","religion":"hindu","source":"2c peset","toilets":"no"},"relations":[],"meta":{"timestamp":"2018-04-24T13:18:05Z","version":6,"changeset":58373994,"user":"mueschel","uid":616774}},"geometry":{"type":"Point","coordinates":[83.9796961,28.209936749999997]}},{"type":"Feature","id":"way/416519343","properties":{"type":"way","id":416519343,"tags":{"addr:city":"pokhara","addr:place":"Masbar Pokharipatan","addr:street":"shiva marga","amenity":"place_of_worship","name":"Puskareshwor Shiva (Mahadev) Mandir","name:ne":"पुस्करेश्वोर मन्दिर","num_buildings":"4","religion":"hindu","toilets":"yes","wheelchair":"yes"},"relations":[],"meta":{"timestamp":"2017-08-10T10:48:16Z","version":8,"changeset":50997596,"user":"Ankit Keshav Baral","uid":6447999}},"geometry":{"type":"Point","coordinates":[83.97269535,28.208744833333338]}},{"type":"Feature","id":"way/416678546","properties":{"type":"way","id":416678546,"tags":{"addr:city":"Pokhara Lektnath Municipality","addr:place":"Majheri patan-14","addr:street":"Radha Krishna Tole","amenity":"place_of_worship","name":"Radha Krishna Mandir","name:ne":"राधा कृष्णा मन्दिर","religion":"hindu"},"relations":[],"meta":{"timestamp":"2018-04-06T10:59:58Z","version":5,"changeset":57861770,"user":"Manoj Thapa","uid":781054}},"geometry":{"type":"Point","coordinates":[84.02728324,28.18265176]}},{"type":"Feature","id":"way/416678548","properties":{"type":"way","id":416678548,"tags":{"amenity":"place_of_worship","name":"Shafaleshwor Mahadev MAndir","name:ne":"सफलेश्वर महादेव मन्दिर","religion":"hindu"},"relations":[],"meta":{"timestamp":"2017-07-21T07:06:26Z","version":5,"changeset":50449516,"user":"Ro Sun","uid":3112087}},"geometry":{"type":"Point","coordinates":[84.02546437142858,28.173137671428574]}},{"type":"Feature","id":"way/416847262","properties":{"type":"way","id":416847262,"tags":{"amenity":"place_of_worship","building":"yes","name":"Shiva Mandir","name:ne":"शिव मन्दिर","religion":"hindu"},"relations":[],"meta":{"timestamp":"2017-11-09T06:27:01Z","version":3,"changeset":53630068,"user":"Ro Sun","uid":3112087}},"geometry":{"type":"Point","coordinates":[83.977160425,28.219041875000002]}},{"type":"Feature","id":"way/416864935","properties":{"type":"way","id":416864935,"tags":{"amenity":"place_of_worship","religion":"hindu"},"relations":[],"meta":{"timestamp":"2016-05-10T06:38:18Z","version":1,"changeset":39207356,"user":"sagar karki","uid":2757453}},"geometry":{"type":"Point","coordinates":[84.01010131666668,28.18193983333333]}},{"type":"Feature","id":"way/416890981","properties":{"type":"way","id":416890981,"tags":{"amenity":"place_of_worship","building":"yes","denomination":"shaktism","name":"Shree Krishna Temple","religion":"hindu","service_times":"sunset,sunrise"},"relations":[],"meta":{"timestamp":"2018-04-08T11:08:55Z","version":4,"changeset":57910324,"user":"Ro Sun","uid":3112087}},"geometry":{"type":"Point","coordinates":[83.9737998,28.212742249999998]}},{"type":"Feature","id":"way/417173418","properties":{"type":"way","id":417173418,"tags":{"amenity":"place_of_worship","name":"Durga temple","name:ne":"दुर्गा मन्दिर","opening_hours":"sunrise-sunset","religion":"hindu","service_times":"sunset,sunrise"},"relations":[],"meta":{"timestamp":"2016-09-15T04:18:12Z","version":2,"changeset":42163690,"user":"ayushupreti22","uid":3911278}},"geometry":{"type":"Point","coordinates":[83.953136,28.2902633]}},{"type":"Feature","id":"way/417201522","properties":{"type":"way","id":417201522,"tags":{"amenity":"place_of_worship","name":"shiva","name:ne":"शिव मन्दिर","religion":"hindu"},"relations":[],"meta":{"timestamp":"2016-10-06T09:48:38Z","version":2,"changeset":42679416,"user":"ayushupreti22","uid":3911278}},"geometry":{"type":"Point","coordinates":[83.97724397500001,28.21199165]}},{"type":"Feature","id":"way/417301140","properties":{"type":"way","id":417301140,"tags":{"addr:city":"Pokhara","addr:place":"Lamachaur","amenity":"place_of_worship","opening_hours":"24/7","religion":"hindu","source":"2cpokhara"},"relations":[],"meta":{"timestamp":"2018-02-26T05:57:39Z","version":4,"changeset":56678680,"user":"Rabin Ojha","uid":6075053}},"geometry":{"type":"Point","coordinates":[83.9799424,28.26444345]}},{"type":"Feature","id":"way/417673251","properties":{"type":"way","id":417673251,"tags":{"amenity":"place_of_worship","name":"Manakamana Temple","name:ne":"मनकामना मन्दिर","num_buildings":"4","religion":"hindu","toilets":"yes","water":"yes","wheelchair":"yes"},"relations":[],"meta":{"timestamp":"2016-09-14T05:03:25Z","version":3,"changeset":42140422,"user":"Bishal9841","uid":3573216}},"geometry":{"type":"Point","coordinates":[83.96964364375,28.219231156250004]}},{"type":"Feature","id":"way/417818515","properties":{"type":"way","id":417818515,"tags":{"amenity":"place_of_worship","religion":"hindu","source":"2cpokhara","toilets":"no"},"relations":[],"meta":{"timestamp":"2018-03-13T10:42:15Z","version":3,"changeset":57140891,"user":"mueschel","uid":616774}},"geometry":{"type":"Point","coordinates":[84.016915,28.26035935]}},{"type":"Feature","id":"way/417912410","properties":{"type":"way","id":417912410,"tags":{"amenity":"place_of_worship","name":"Budanilkantha Temple","name:ne":"बुढानिलकण्ठ मन्दिर","religion":"hindu"},"relations":[],"meta":{"timestamp":"2016-08-12T05:32:58Z","version":2,"changeset":41402817,"user":"Pujan Poudyal","uid":2516487}},"geometry":{"type":"Point","coordinates":[83.98222276666667,28.22851291111111]}},{"type":"Feature","id":"way/417994939","properties":{"type":"way","id":417994939,"tags":{"amenity":"place_of_worship","name":"Shiva Mandir(om Kareswor Mandir)","name:ne":"शिव मन्दिर","religion":"hindu"},"relations":[],"meta":{"timestamp":"2017-08-11T07:14:18Z","version":3,"changeset":51023053,"user":"Delta Bravo123","uid":6447837}},"geometry":{"type":"Point","coordinates":[83.97215641428572,28.272436414285718]}},{"type":"Feature","id":"way/418581187","properties":{"type":"way","id":418581187,"tags":{"amenity":"place_of_worship","religion":"hindu","source":"2cpokhara"},"relations":[],"meta":{"timestamp":"2018-05-13T18:12:06Z","version":2,"changeset":58930764,"user":"Abash Paudel","uid":6677482}},"geometry":{"type":"Point","coordinates":[83.9968787,28.220524225000002]}},{"type":"Feature","id":"way/419218448","properties":{"type":"way","id":419218448,"tags":{"amenity":"place_of_worship","religion":"hindu"},"relations":[],"meta":{"timestamp":"2018-03-07T10:21:06Z","version":2,"changeset":56963300,"user":"marek kleciak","uid":338611}},"geometry":{"type":"Point","coordinates":[83.98286734999999,28.275720375]}},{"type":"Feature","id":"way/419221908","properties":{"type":"way","id":419221908,"tags":{"amenity":"place_of_worship","name":"Krishna Mandir","name:ne":"कृष्ण मन्दिर","religion":"hindu"},"relations":[],"meta":{"timestamp":"2016-09-22T08:14:47Z","version":2,"changeset":42341206,"user":"ayushupreti22","uid":3911278}},"geometry":{"type":"Point","coordinates":[83.98519773076922,28.27613564615385]}},{"type":"Feature","id":"way/419427551","properties":{"type":"way","id":419427551,"tags":{"addr:city":"Pokhara","addr:place":"Lamachaur","amenity":"place_of_worship","name":"Kalika Temple","name:ne":"कालिका मन्दिर","opening_hours":"24/7","religion":"hindu","source":"2cpokhara"},"relations":[],"meta":{"timestamp":"2018-02-24T10:30:54Z","version":2,"changeset":56632750,"user":"Rabin Ojha","uid":6075053}},"geometry":{"type":"Point","coordinates":[83.96944505,28.2610932]}},{"type":"Feature","id":"way/419436056","properties":{"type":"way","id":419436056,"tags":{"amenity":"place_of_worship","building":"yes","name":"Shree Biswakarmaa Shiva Mandir","name:ne":"श्रि विश्वकर्मा शिव मन्दिर","religion":"hindu"},"relations":[],"meta":{"timestamp":"2016-09-14T05:24:57Z","version":2,"changeset":42140629,"user":"Parassrest","uid":3569249}},"geometry":{"type":"Point","coordinates":[83.976622925,28.2174931]}},{"type":"Feature","id":"way/419439189","properties":{"type":"way","id":419439189,"tags":{"amenity":"place_of_worship","building":"yes","name":"Muktesor Mahadev Mandir","name:ne":"मुक्तेश्वोर महादेव मन्दिर","religion":"hindu"},"relations":[],"meta":{"timestamp":"2016-09-14T05:03:25Z","version":2,"changeset":42140422,"user":"Bishal9841","uid":3573216}},"geometry":{"type":"Point","coordinates":[83.97006995,28.21909865]}},{"type":"Feature","id":"way/420243930","properties":{"type":"way","id":420243930,"tags":{"addr:city":"Pokhara Lekhanath Metropolitan City","addr:place":"Masbar","addr:street":"Sugam Marga","amenity":"place_of_worship","building":"yes","name":"Baral Bandhu Kul Deveta Mandir","religion":"hindu"},"relations":[],"meta":{"timestamp":"2017-08-10T11:08:37Z","version":2,"changeset":50998157,"user":"Ankit Keshav Baral","uid":6447999}},"geometry":{"type":"Point","coordinates":[83.97374575,28.2080107]}},{"type":"Feature","id":"way/420503091","properties":{"type":"way","id":420503091,"tags":{"amenity":"place_of_worship","name":"Shiva Mandir","religion":"hindu","service_times":"sunset,sunrise"},"relations":[],"meta":{"timestamp":"2018-04-29T05:44:07Z","version":3,"changeset":58518607,"user":"Manoj Thapa","uid":781054}},"geometry":{"type":"Point","coordinates":[83.9857218,28.211983699999998]}},{"type":"Feature","id":"way/420504060","properties":{"type":"way","id":420504060,"tags":{"addr:city":"Pokhara Lekhnath Municipality","addr:place":"Darbarthok Marga 9","addr:street":"Nayabazar","amenity":"place_of_worship","name":"Chandi Mai Mandir","name:ne":"चण्डी माई मन्दिर","natural":"water","religion":"hindu","service_times":"sunset,sunrise","toilets":"no","water":"no","wheelchair":"no"},"relations":[],"meta":{"timestamp":"2017-08-13T06:48:30Z","version":5,"changeset":51073381,"user":"Ro Sun","uid":3112087}},"geometry":{"type":"Point","coordinates":[83.98872001999999,28.2182368]}},{"type":"Feature","id":"way/420505140","properties":{"type":"way","id":420505140,"tags":{"addr:city":"Pokhara Lekhnath Municipality","addr:place":"Ganga Marga 9","addr:street":"Nayabazar","amenity":"place_of_worship","name":"Ramghat Mandir Area","name:ne":"रामघाट मन्दिर","phone":"0615355901, 9846114606","religion":"hindu","service_times":"sunset,sunrise","toilets":"yes","water":"yes","wheelchair":"no"},"relations":[],"meta":{"timestamp":"2017-08-09T13:57:00Z","version":4,"changeset":50974516,"user":"Shirisha Dhakal","uid":6447912}},"geometry":{"type":"Point","coordinates":[83.99193642222224,28.218700227777777]}},{"type":"Feature","id":"way/420509986","properties":{"type":"way","id":420509986,"tags":{"amenity":"place_of_worship","building":"yes","name":"Bhimsen Mandir","name:fr":"Temple de Bhimsen","name:ne":"भीमसेन मन्दिर","opening_hours":"24/7","religion":"hindu","service_times":"sunset,sunrise","toilets":"no","wheelchair":"no"},"relations":[],"meta":{"timestamp":"2018-06-02T15:40:35Z","version":4,"changeset":59488391,"user":"Manoj Thapa","uid":781054}},"geometry":{"type":"Point","coordinates":[83.984829675,28.230825225]}},{"type":"Feature","id":"way/420509988","properties":{"type":"way","id":420509988,"tags":{"amenity":"place_of_worship","name":"Ganesh Mandir","name:ne":"गणेश मन्दिर","religion":"hindu","service_times":"sunset,sunrise","toilets":"no","water":"no","wheelchair":"no"},"relations":[],"meta":{"timestamp":"2016-09-14T06:05:59Z","version":2,"changeset":42141173,"user":"Parassrest","uid":3569249}},"geometry":{"type":"Point","coordinates":[83.9845831,28.228417375]}},{"type":"Feature","id":"way/420509989","properties":{"type":"way","id":420509989,"tags":{"amenity":"place_of_worship","name":"Ganesh Mandir","name:ne":"गणेश मन्दिर","religion":"hindu","service_times":"sunset,sunrise","water":"no","wheelchair":"no"},"relations":[],"meta":{"timestamp":"2016-09-11T10:34:45Z","version":2,"changeset":42075285,"user":"Parassrest","uid":3569249}},"geometry":{"type":"Point","coordinates":[83.99003065,28.22744865]}},{"type":"Feature","id":"way/420509990","properties":{"type":"way","id":420509990,"tags":{"amenity":"place_of_worship","name":"Karyabinayak Mandir","name:ne":"कार्याविनायक मन्दिर","opening_hours":"24/7","religion":"hindu","service_times":"sunset,sunrise","toilets":"no","water":"no","wheelchair":"no"},"relations":[],"meta":{"timestamp":"2016-09-11T10:34:46Z","version":2,"changeset":42075285,"user":"Parassrest","uid":3569249}},"geometry":{"type":"Point","coordinates":[83.98872490000001,28.2287335]}},{"type":"Feature","id":"way/420509991","properties":{"type":"way","id":420509991,"tags":{"amenity":"place_of_worship","name":"Saraswati Mandir","name:ne":"सरश्वती मन्दिर","opening_hours":"24/7","religion":"hindu","service_times":"sunset,sunrise","toilets":"no","water":"no","wheelchair":"no"},"relations":[],"meta":{"timestamp":"2016-09-11T10:34:46Z","version":2,"changeset":42075285,"user":"Parassrest","uid":3569249}},"geometry":{"type":"Point","coordinates":[83.9876708,28.2290063]}},{"type":"Feature","id":"way/420509992","properties":{"type":"way","id":420509992,"tags":{"amenity":"place_of_worship","name":"Sarveswor Mahadev Mandir","name:ne":"शर्वेस्वोर महादेव मन्दिर","religion":"hindu","service_times":"sunset,sunrise","toilets":"no","wheelchair":"no"},"relations":[],"meta":{"timestamp":"2016-10-26T10:12:33Z","version":4,"changeset":43187825,"user":"Alisha12","uid":4204463}},"geometry":{"type":"Point","coordinates":[83.98824400000001,28.226620750000002]}},{"type":"Feature","id":"way/420509993","properties":{"type":"way","id":420509993,"tags":{"amenity":"place_of_worship","name":"Shiva Mandir","name:ne":"शिव मन्दिर","opening_hours":"24/7","religion":"hindu","service_times":"sunset,sunrise","toilets":"no","water":"no","wheelchair":"no"},"relations":[],"meta":{"timestamp":"2016-09-14T06:06:00Z","version":2,"changeset":42141173,"user":"Parassrest","uid":3569249}},"geometry":{"type":"Point","coordinates":[83.984769325,28.23005045]}},{"type":"Feature","id":"way/420509994","properties":{"type":"way","id":420509994,"tags":{"amenity":"place_of_worship","name":"Shree Rama Bhagwati","name:ne":"श्रि राम भगवती","opening_hours":"24/7","religion":"hindu","service_times":"sunset,sunrise","toilets":"no","water":"no","wheelchair":"no"},"relations":[],"meta":{"timestamp":"2016-09-11T10:34:46Z","version":2,"changeset":42075285,"user":"Parassrest","uid":3569249}},"geometry":{"type":"Point","coordinates":[83.98704785,28.22943375]}},{"type":"Feature","id":"way/420511063","properties":{"type":"way","id":420511063,"tags":{"amenity":"place_of_worship","name":"Devi Panchanga Mandir","name:ne":"देवी पनञ्ग मन्दिर","opening_hours":"24/7","religion":"hindu","service_times":"sunset,sunrise","toilets":"no","water":"no","wheelchair":"no"},"relations":[],"meta":{"timestamp":"2016-08-12T08:26:09Z","version":2,"changeset":41405511,"user":"Parassrest","uid":3569249}},"geometry":{"type":"Point","coordinates":[83.988794475,28.2393607]}},{"type":"Feature","id":"way/420723522","properties":{"type":"way","id":420723522,"tags":{"amenity":"place_of_worship","name":"Laxmi Narayan Mandir","name:ne":"लक्ष्मी नारायण मन्दिर","opening_hours":"24/7","religion":"hindu","service_times":"sunset,sunrise","toilets":"yes","water":"yes","wheelchair":"no"},"relations":[],"meta":{"timestamp":"2016-09-20T06:51:35Z","version":2,"changeset":42290569,"user":"Bishal9841","uid":3573216}},"geometry":{"type":"Point","coordinates":[83.9926567,28.230631575]}},{"type":"Feature","id":"way/420723526","properties":{"type":"way","id":420723526,"tags":{"amenity":"place_of_worship","name":"Nilkantha Mahadev Mandir","name:ne":"निलकण्ठ महादेव मन्दिर","opening_hours":"24/7","religion":"hindu","service_times":"sunset,sunrise","toilets":"yes","water":"yes","wheelchair":"yes"},"relations":[],"meta":{"timestamp":"2016-09-20T06:51:35Z","version":2,"changeset":42290569,"user":"Bishal9841","uid":3573216}},"geometry":{"type":"Point","coordinates":[83.9926376,28.2309667]}},{"type":"Feature","id":"way/421605808","properties":{"type":"way","id":421605808,"tags":{"amenity":"place_of_worship","name":"Shree Shiva Mandhir","name:ne":"श्री शिव मन्दिर","religion":"hindu"},"relations":[],"meta":{"timestamp":"2016-09-23T07:38:47Z","version":2,"changeset":42366475,"user":"Bishal9841","uid":3573216}},"geometry":{"type":"Point","coordinates":[84.00563467500001,28.202712775]}},{"type":"Feature","id":"way/421612945","properties":{"type":"way","id":421612945,"tags":{"amenity":"place_of_worship","building":"yes","name":"Bhimsen Mandir","name:ne":"भीमसेन मन्दिर","religion":"hindu","start_date":"2058"},"relations":[],"meta":{"timestamp":"2017-04-20T09:24:58Z","version":3,"changeset":47965247,"user":"Alisha12","uid":4204463}},"geometry":{"type":"Point","coordinates":[84.0131422,28.208547575]}},{"type":"Feature","id":"way/421759944","properties":{"type":"way","id":421759944,"tags":{"drinking_water":"yes","landuse":"religious","name":"Shree Laxmi Narayan Mandir","name:ne":"श्री लक्ष्मीनारायण मन्दिर","num_buildings":"4","religion":"hindu","toilets":"yes","wheelchair":"yes"},"relations":[],"meta":{"timestamp":"2017-11-06T05:05:37Z","version":3,"changeset":53544931,"user":"Gaurav Thapa","uid":4212590}},"geometry":{"type":"Point","coordinates":[83.9937137368421,28.20975667894736]}},{"type":"Feature","id":"way/422034658","properties":{"type":"way","id":422034658,"tags":{"amenity":"place_of_worship","drinking_water":"no","name":"Shree Radha Krishna Mandir","name:ne":"श्री राधा कृष्ण मन्दिर","religion":"hindu","source":"2cpokhara","toilets":"no"},"relations":[],"meta":{"timestamp":"2018-03-08T19:15:54Z","version":4,"changeset":57010076,"user":"mueschel","uid":616774}},"geometry":{"type":"Point","coordinates":[83.96981699999999,28.197528975]}},{"type":"Feature","id":"way/422570950","properties":{"type":"way","id":422570950,"tags":{"addr:city":"Pokhara Lekhanath Metropolitan City","addr:place":"Adharsha Margha-15","addr:street":"Dhunge Sangu Chowk","amenity":"place_of_worship","building":"yes","denomination":"shaivism","estd:":"2041","name":"Sideshwor Shiva Panchanga Shiva Mandir","name:ne":"सिधेश्वर शिव पाण्चाङ्ग शिव मन्दिर","opening_hours":"24/7","operator":"community","religion":"hindu","source":"2cpokhara"},"relations":[],"meta":{"timestamp":"2018-06-01T10:07:53Z","version":10,"changeset":59456489,"user":"Gaurav Thapa","uid":4212590}},"geometry":{"type":"Point","coordinates":[83.99597420526315,28.186325142105268]}},{"type":"Feature","id":"way/422575669","properties":{"type":"way","id":422575669,"tags":{"amenity":"place_of_worship","building":"yes","name":"Jaleshwor Mahadev Mandir","name:ne":"जलेस्वर महादेव मन्दिर","religion":"hindu"},"relations":[],"meta":{"timestamp":"2017-07-21T06:50:36Z","version":2,"changeset":50449171,"user":"Ro Sun","uid":3112087}},"geometry":{"type":"Point","coordinates":[84.00291935,28.1967673]}},{"type":"Feature","id":"way/422587181","properties":{"type":"way","id":422587181,"tags":{"amenity":"place_of_worship","drinking_water":"no","name":"Shiva Mandhir","name:ne":"शिव मन्दिर","religion":"hindu","source":"2cpokhara"},"relations":[],"meta":{"timestamp":"2018-03-15T14:01:51Z","version":4,"changeset":57213063,"user":"mueschel","uid":616774}},"geometry":{"type":"Point","coordinates":[84.0092176,28.254431375]}},{"type":"Feature","id":"way/422899805","properties":{"type":"way","id":422899805,"tags":{"amenity":"place_of_worship","building":"yes","drinking_water":"yes","name":"Shree Kahun Kot Deurali Mandir","opening_hours":"Sa-Su 00:00-24:00","religion":"hindu","source":"2cpokhara","toilets":"yes"},"relations":[],"meta":{"timestamp":"2018-05-10T06:30:23Z","version":2,"changeset":58839266,"user":"Abash Paudel","uid":6677482}},"geometry":{"type":"Point","coordinates":[84.014775475,28.2379754]}},{"type":"Feature","id":"way/422922621","properties":{"type":"way","id":422922621,"tags":{"amenity":"place_of_worship","name":"Galeswor Shivalinga","name:ne":"गलेस्वर शिवलिङ्ग","religion":"hindu"},"relations":[],"meta":{"timestamp":"2016-09-23T09:14:47Z","version":3,"changeset":42368406,"user":"Parassrest","uid":3569249}},"geometry":{"type":"Point","coordinates":[84.004637512,28.182397448000007]}},{"type":"Feature","id":"way/422925677","properties":{"type":"way","id":422925677,"tags":{"amenity":"place_of_worship","building":"yes","name":"Chandi Mandir","religion":"hindu","source":"2cpokhara"},"relations":[],"meta":{"timestamp":"2018-05-10T06:30:23Z","version":3,"changeset":58839266,"user":"Abash Paudel","uid":6677482}},"geometry":{"type":"Point","coordinates":[84.01577362500001,28.23505325]}},{"type":"Feature","id":"way/422927062","properties":{"type":"way","id":422927062,"tags":{"amenity":"place_of_worship","building":"yes","name":"Shree Radha Krishna Mandir","religion":"hindu"},"relations":[],"meta":{"timestamp":"2018-05-10T06:30:23Z","version":2,"changeset":58839266,"user":"Abash Paudel","uid":6677482}},"geometry":{"type":"Point","coordinates":[84.01712079999999,28.2311402]}},{"type":"Feature","id":"way/423061462","properties":{"type":"way","id":423061462,"tags":{"amenity":"place_of_worship","name":"Galeswor Temple","name:ne":"गलेस्वर मान्दिर","religion":"hindu"},"relations":[],"meta":{"timestamp":"2016-09-23T09:14:47Z","version":2,"changeset":42368406,"user":"Parassrest","uid":3569249}},"geometry":{"type":"Point","coordinates":[84.004428225,28.182401625]}},{"type":"Feature","id":"way/423104683","properties":{"type":"way","id":423104683,"tags":{"amenity":"place_of_worship","building":"yes","name":"Shiva Mandir,Suvakamana","name:ne":"शिव मन्दिर, शुभकामना","religion":"hindu"},"relations":[],"meta":{"timestamp":"2016-09-14T11:09:35Z","version":3,"changeset":42146808,"user":"Parassrest","uid":3569249}},"geometry":{"type":"Point","coordinates":[84.02224015,28.173973425]}},{"type":"Feature","id":"way/423243671","properties":{"type":"way","id":423243671,"tags":{"addr:city":"PLM City","addr:place":"Avasnagar","addr:street":"Avasnagar","amenity":"place_of_worship","building":"yes","name":"Shiva Temple,Shai bhajan","religion":"hindu"},"relations":[],"meta":{"timestamp":"2017-09-05T10:57:06Z","version":3,"changeset":51745761,"user":"nyuriks","uid":339581}},"geometry":{"type":"Point","coordinates":[84.052376525,28.172457875]}},{"type":"Feature","id":"way/424867543","properties":{"type":"way","id":424867543,"tags":{"amenity":"place_of_worship","building":"yes","name":"Shiva Mandir","name:ne":"शिव मन्दिर","religion":"hindu"},"relations":[],"meta":{"timestamp":"2016-08-24T05:00:16Z","version":2,"changeset":41653023,"user":"Alisha12","uid":4204463}},"geometry":{"type":"Point","coordinates":[83.9956818,28.211245675]}},{"type":"Feature","id":"way/424868445","properties":{"type":"way","id":424868445,"tags":{"amenity":"place_of_worship","name":"Shree Ram Mandir","name:ne":"श्री राम मन्दिर","religion":"hindu"},"relations":[],"meta":{"timestamp":"2016-09-11T06:05:27Z","version":2,"changeset":42071488,"user":"Parassrest","uid":3569249}},"geometry":{"type":"Point","coordinates":[83.9951344,28.211005325000002]}},{"type":"Feature","id":"way/425061380","properties":{"type":"way","id":425061380,"tags":{"amenity":"place_of_worship","building":"yes","religion":"hindu","source":"2cpokhara"},"relations":[],"meta":{"timestamp":"2018-03-12T06:08:19Z","version":2,"changeset":57100126,"user":"Sagarsubedi205","uid":7632456}},"geometry":{"type":"Point","coordinates":[83.99143555,28.178334200000002]}},{"type":"Feature","id":"way/427163629","properties":{"type":"way","id":427163629,"tags":{"amenity":"place_of_worship","name":"Shitaldevi Temple","name:ne":"शितलदेवी मन्दिर","religion":"hindu"},"relations":[],"meta":{"timestamp":"2016-09-13T08:41:14Z","version":2,"changeset":42119390,"user":"Bishal9841","uid":3573216}},"geometry":{"type":"Point","coordinates":[84.002513725,28.21686045]}},{"type":"Feature","id":"way/428871345","properties":{"type":"way","id":428871345,"tags":{"amenity":"place_of_worship","building":"yes","denomination":"vaishnavism","name:ne":"श्री लक्ष्मीनारायण मन्दिर","religion":"hindu"},"relations":[],"meta":{"timestamp":"2017-11-06T05:05:37Z","version":2,"changeset":53544931,"user":"Gaurav Thapa","uid":4212590}},"geometry":{"type":"Point","coordinates":[83.99356552500001,28.209999449999998]}},{"type":"Feature","id":"way/429795895","properties":{"type":"way","id":429795895,"tags":{"amenity":"place_of_worship","religion":"hindu"},"relations":[],"meta":{"timestamp":"2016-07-08T05:35:57Z","version":1,"changeset":40560647,"user":"Alisha12","uid":4204463}},"geometry":{"type":"Point","coordinates":[83.99551825,28.18335575]}},{"type":"Feature","id":"way/430154460","properties":{"type":"way","id":430154460,"tags":{"amenity":"place_of_worship","name":"Paropakar Mandir","religion":"hindu"},"relations":[],"meta":{"timestamp":"2016-07-10T09:13:08Z","version":1,"changeset":40626175,"user":"Alisha12","uid":4204463}},"geometry":{"type":"Point","coordinates":[83.991747775,28.1790108]}},{"type":"Feature","id":"way/432522080","properties":{"type":"way","id":432522080,"tags":{"amenity":"place_of_worship","building":"yes","drinking_water":"yes","name":"Shree Bisheswor Shiva Panchanga Mandir","opening_hours":"24/7","religion":"hindu","source":"2c peset","toilets":"yes"},"relations":[],"meta":{"timestamp":"2018-04-24T13:18:05Z","version":5,"changeset":58373994,"user":"mueschel","uid":616774}},"geometry":{"type":"Point","coordinates":[83.9775679,28.206996125000003]}},{"type":"Feature","id":"way/436186896","properties":{"type":"way","id":436186896,"tags":{"amenity":"place_of_worship","name":"Krishna Mandir","religion":"hindu","source":"2cpokhara"},"relations":[],"meta":{"timestamp":"2018-04-02T14:00:19Z","version":3,"changeset":57740431,"user":"Abash Paudel","uid":6677482}},"geometry":{"type":"Point","coordinates":[83.99552514,28.19611542]}},{"type":"Feature","id":"way/436692745","properties":{"type":"way","id":436692745,"tags":{"amenity":"place_of_worship","name":"Shiva Temple","name:ne":"शिव मन्दिर","religion":"hindu"},"relations":[],"meta":{"timestamp":"2016-08-12T10:06:17Z","version":2,"changeset":41407373,"user":"Manoj Thapa","uid":781054}},"geometry":{"type":"Point","coordinates":[83.99182956,28.219143300000002]}},{"type":"Feature","id":"way/437428252","properties":{"type":"way","id":437428252,"tags":{"amenity":"place_of_worship","name":"Shree Nareswor Mahadev Mandir","name:ne":"श्री नरेश्वोर महादेव मन्दिर","religion":"hindu"},"relations":[],"meta":{"timestamp":"2016-08-25T07:04:21Z","version":2,"changeset":41680186,"user":"Manoj Thapa","uid":781054}},"geometry":{"type":"Point","coordinates":[83.9497549,28.269827650000003]}},{"type":"Feature","id":"way/438089950","properties":{"type":"way","id":438089950,"tags":{"amenity":"place_of_worship","religion":"hindu"},"relations":[],"meta":{"timestamp":"2016-08-20T06:07:53Z","version":1,"changeset":41570524,"user":"Ro Sun","uid":3112087}},"geometry":{"type":"Point","coordinates":[84.02623235,28.15521755]}},{"type":"Feature","id":"way/438115005","properties":{"type":"way","id":438115005,"tags":{"amenity":"place_of_worship","building":"yes","name":"Jaldevi Temple","name:ne":"जलदेवी मन्दिर","religion":"hindu"},"relations":[],"meta":{"timestamp":"2016-08-20T07:26:59Z","version":1,"changeset":41571379,"user":"Ro Sun","uid":3112087}},"geometry":{"type":"Point","coordinates":[83.99571555,28.147338075]}},{"type":"Feature","id":"way/438115006","properties":{"type":"way","id":438115006,"tags":{"amenity":"place_of_worship","building":"yes","name":"Laxmi Narayan Temple","name:ne":"लक्ष्मीनारायण मन्दिर","religion":"hindu"},"relations":[],"meta":{"timestamp":"2016-08-20T07:26:59Z","version":1,"changeset":41571379,"user":"Ro Sun","uid":3112087}},"geometry":{"type":"Point","coordinates":[83.9957108,28.147302625000002]}},{"type":"Feature","id":"way/438258751","properties":{"type":"way","id":438258751,"tags":{"addr:city":"Pokhara Lekhnath Metropolitian City","addr:place":"Manakamana","amenity":"place_of_worship","drinking_water":"no","name":"Manakamana Temple","name:ne":"मनकामना मन्दिर","religion":"hindu","source":"2cpokhara","toilets":"yes"},"relations":[],"meta":{"timestamp":"2018-04-17T11:06:07Z","version":5,"changeset":58164425,"user":"mueschel","uid":616774}},"geometry":{"type":"Point","coordinates":[83.9570627,28.17366385]}},{"type":"Feature","id":"way/439113023","properties":{"type":"way","id":439113023,"tags":{"amenity":"place_of_worship","building":"yes","name":"Shiva Mandir Deuli Pipal","name:ne":"शिव मन्दिर","religion":"hindu","source":"2cpokhara"},"relations":[],"meta":{"timestamp":"2018-04-13T14:48:28Z","version":3,"changeset":58066812,"user":"Sagarsubedi205","uid":7632456}},"geometry":{"type":"Point","coordinates":[83.9518148,28.1597604]}},{"type":"Feature","id":"way/441427426","properties":{"type":"way","id":441427426,"tags":{"amenity":"place_of_worship","building":"yes","name":"Shree Trineshwor Shiva Mandir","religion":"hindu"},"relations":[],"meta":{"timestamp":"2017-08-13T07:27:00Z","version":2,"changeset":51073945,"user":"rmpaudel123","uid":6447862}},"geometry":{"type":"Point","coordinates":[84.06868929999999,28.164605825000002]}},{"type":"Feature","id":"way/442743973","properties":{"type":"way","id":442743973,"tags":{"amenity":"place_of_worship","building":"yes","name":"Muse Tuda Shiva Mandir","religion":"hindu"},"relations":[],"meta":{"timestamp":"2017-08-13T07:45:31Z","version":2,"changeset":51074266,"user":"rmpaudel123","uid":6447862}},"geometry":{"type":"Point","coordinates":[84.077346425,28.131118425]}},{"type":"Feature","id":"way/444231687","properties":{"type":"way","id":444231687,"tags":{"addr:city":"Pokhara Lekhnath Metropolitan City","addr:place":"Pranami Tole","amenity":"place_of_worship","building":"yes","name":"Shee Krishna Pranami Mandir Elder/Child care Centre","religion":"hindu"},"relations":[],"meta":{"timestamp":"2017-08-11T09:07:57Z","version":2,"changeset":51026305,"user":"rmpaudel123","uid":6447862}},"geometry":{"type":"Point","coordinates":[84.065353875,28.173945500000002]}},{"type":"Feature","id":"way/444236620","properties":{"type":"way","id":444236620,"tags":{"addr:city":"PLM City","addr:place":"Paramartha Nagar","addr:street":"Pranami","amenity":"place_of_worship","building":"yes","name":"Shree Krishna P.P.Mandir","opening_hours":"05:00-17:00","religion":"hindu"},"relations":[],"meta":{"timestamp":"2017-09-05T10:57:06Z","version":3,"changeset":51745761,"user":"nyuriks","uid":339581}},"geometry":{"type":"Point","coordinates":[84.055054675,28.16946335]}},{"type":"Feature","id":"way/444861811","properties":{"type":"way","id":444861811,"tags":{"amenity":"place_of_worship","religion":"hindu"},"relations":[],"meta":{"timestamp":"2016-09-29T07:23:02Z","version":1,"changeset":42511493,"user":"Alisha12","uid":4204463}},"geometry":{"type":"Point","coordinates":[83.993854525,28.198993975]}},{"type":"Feature","id":"way/449159495","properties":{"type":"way","id":449159495,"tags":{"amenity":"place_of_worship","name":"Kedareshwor Mahadev Mandir","religion":"hindu"},"relations":[],"meta":{"timestamp":"2016-10-24T06:10:33Z","version":1,"changeset":43114892,"user":"Ro Sun","uid":3112087}},"geometry":{"type":"Point","coordinates":[83.96625187000001,28.200092290000004]}},{"type":"Feature","id":"way/455590875","properties":{"type":"way","id":455590875,"tags":{"addr:place":"Ramkrishna Tole 4","amenity":"place_of_worship","name":"Krishna Mandir","name:ne":"कृष्ण मन्दिर","religion":"hindu","source":"2C_Pokhara Field Visit 2018"},"relations":[],"meta":{"timestamp":"2018-06-06T04:10:59Z","version":5,"changeset":59587295,"user":"Manoj Thapa","uid":781054}},"geometry":{"type":"Point","coordinates":[83.984583525,28.225611575000002]}},{"type":"Feature","id":"way/477664905","properties":{"type":"way","id":477664905,"tags":{"addr:city":"PLM City","addr:place":"Budha Tole","addr:street":"machepuchre","amenity":"place_of_worship","building":"yes","name":"Barma Kumari Dhyan Kendra","opening_hours":"05:19:00","religion":"hindu"},"relations":[],"meta":{"timestamp":"2017-09-05T10:57:06Z","version":3,"changeset":51745761,"user":"nyuriks","uid":339581}},"geometry":{"type":"Point","coordinates":[84.04420895,28.17185495]}},{"type":"Feature","id":"way/477664907","properties":{"type":"way","id":477664907,"tags":{"addr:city":"pokhara-Lekhnath","addr:place":"Buddha Tole","addr:street":"Macchapucchre Marga","amenity":"place_of_worship","building":"yes","name":"Ishworiaya bishwo biddhyalaya","opening_hours":"5:00-20:00","religion":"hindu"},"relations":[],"meta":{"timestamp":"2017-08-08T10:13:07Z","version":2,"changeset":50939668,"user":"rmpaudel123","uid":6447862}},"geometry":{"type":"Point","coordinates":[84.044576225,28.171787549999998]}},{"type":"Feature","id":"way/490455152","properties":{"type":"way","id":490455152,"tags":{"addr:city":"PLM City","addr:place":"Shiva Tole","addr:street":"Shiva Tole Street","amenity":"place_of_worship","building":"yes","name":"Shiva Mandir","opening_hours":"06:00-10:00","religion":"hindu"},"relations":[],"meta":{"timestamp":"2017-09-05T10:57:06Z","version":3,"changeset":51745761,"user":"nyuriks","uid":339581}},"geometry":{"type":"Point","coordinates":[84.0398285,28.168914649999998]}},{"type":"Feature","id":"way/490881156","properties":{"type":"way","id":490881156,"tags":{"amenity":"place_of_worship","building":"yes","name":"Temple","religion":"hindu","source":"2cpokhara"},"relations":[],"meta":{"timestamp":"2018-05-15T05:25:03Z","version":2,"changeset":58971151,"user":"Abash Paudel","uid":6677482}},"geometry":{"type":"Point","coordinates":[84.0066214,28.2192218]}},{"type":"Feature","id":"way/491077691","properties":{"type":"way","id":491077691,"tags":{"amenity":"place_of_worship","building":"yes","name":"Chandreshwor Mahadev Mandir","name:ne":"चन्द्रेस्वोर महादेव मन्दिर","religion":"hindu","source":"2cpokhara","wheelchair":"no"},"relations":[],"meta":{"timestamp":"2018-05-31T08:27:03Z","version":3,"changeset":59421053,"user":"Manoj Thapa","uid":781054}},"geometry":{"type":"Point","coordinates":[84.00189947499999,28.2938079]}},{"type":"Feature","id":"way/496083383","properties":{"type":"way","id":496083383,"tags":{"amenity":"place_of_worship","denomination":"hindu","religion":"hindu"},"relations":[],"meta":{"timestamp":"2018-04-05T10:38:07Z","version":3,"changeset":57830434,"user":"Manoj Thapa","uid":781054}},"geometry":{"type":"Point","coordinates":[83.97968856666667,28.260689866666667]}},{"type":"Feature","id":"way/497617362","properties":{"type":"way","id":497617362,"tags":{"amenity":"place_of_worship","name":"Bhume Mandir","religion":"hindu"},"relations":[],"meta":{"timestamp":"2017-06-02T08:51:13Z","version":1,"changeset":49189088,"user":"Ro Sun","uid":3112087}},"geometry":{"type":"Point","coordinates":[83.80689203749999,28.280335787500004]}},{"type":"Feature","id":"way/509147053","properties":{"type":"way","id":509147053,"tags":{"amenity":"place_of_worship","barrier":"wall","name":"Bahari Mandir","name:ne":"श्री बाराही मन्दिर","religion":"hindu"},"relations":[],"meta":{"timestamp":"2017-07-21T07:06:26Z","version":2,"changeset":50449516,"user":"Ro Sun","uid":3112087}},"geometry":{"type":"Point","coordinates":[84.01322568571429,28.181602685714285]}},{"type":"Feature","id":"way/514384586","properties":{"type":"way","id":514384586,"tags":{"add:city":"Pokhara Lekhanath Municipality","add:place":"Radha Krishna Tole-14","amenity":"place_of_worship","name":"RadhaKrishna Mandir","religion":"hindu"},"relations":[],"meta":{"timestamp":"2017-09-05T10:57:07Z","version":2,"changeset":51745761,"user":"nyuriks","uid":339581}},"geometry":{"type":"Point","coordinates":[84.0149835,28.177467549999996]}},{"type":"Feature","id":"way/514471168","properties":{"type":"way","id":514471168,"tags":{"addr:city":"Pokhara Lekhnath Metropolitan City","addr:place":"Sundar Basti","amenity":"place_of_worship","name":"Shiva Temple","religion":"hindu"},"relations":[],"meta":{"timestamp":"2017-08-10T10:15:50Z","version":1,"changeset":50996770,"user":"usha51","uid":6448132}},"geometry":{"type":"Point","coordinates":[83.9423865,28.24506285]}},{"type":"Feature","id":"way/514667016","properties":{"type":"way","id":514667016,"tags":{"amenity":"place_of_worship","name":"Ram Temple","religion":"hindu"},"relations":[],"meta":{"timestamp":"2017-08-11T05:27:52Z","version":1,"changeset":51020677,"user":"suneeel","uid":6447856}},"geometry":{"type":"Point","coordinates":[83.9320845,28.27867795]}},{"type":"Feature","id":"way/514667185","properties":{"type":"way","id":514667185,"tags":{"addr:city":"Pokhara Lektnath Municipality","addr:place":"Gairi Gaun","addr:street":"Khalte -14","amenity":"place_of_worship","name":"Chisa Pani Devi Mandir","religion":"hindu"},"relations":[],"meta":{"timestamp":"2017-09-07T07:36:45Z","version":3,"changeset":51801380,"user":"GerdP","uid":533465}},"geometry":{"type":"Point","coordinates":[84.01677355,28.16642315]}},{"type":"Feature","id":"way/514668183","properties":{"type":"way","id":514668183,"tags":{"addr:city":"Pokhara Lektnath Municipality","amenity":"place_of_worship","name":"Kalika Mandir","religion":"hindu"},"relations":[],"meta":{"timestamp":"2017-09-05T10:57:07Z","version":2,"changeset":51745761,"user":"nyuriks","uid":339581}},"geometry":{"type":"Point","coordinates":[84.018815725,28.168377175]}},{"type":"Feature","id":"way/514669771","properties":{"type":"way","id":514669771,"tags":{"addr:place":"Pragati chowk","amenity":"place_of_worship","name":"Shiva Temple","religion":"hindu"},"relations":[],"meta":{"timestamp":"2017-08-11T05:57:51Z","version":1,"changeset":51021266,"user":"suneeel","uid":6447856}},"geometry":{"type":"Point","coordinates":[83.92781622,28.28094092]}},{"type":"Feature","id":"way/514722684","properties":{"type":"way","id":514722684,"tags":{"addr:city":"Pokhara Lekhnath Metropolitan City","amenity":"place_of_worship","name":"Radha Krishna Temple","religion":"hindu"},"relations":[],"meta":{"timestamp":"2017-09-05T10:57:07Z","version":2,"changeset":51745761,"user":"nyuriks","uid":339581}},"geometry":{"type":"Point","coordinates":[84.06832832500001,28.146309300000002]}},{"type":"Feature","id":"way/514768527","properties":{"type":"way","id":514768527,"tags":{"addr:city":"Pokhara Lekhanath Metropolitan City","addr:place":"Adharsha Chwok","amenity":"place_of_worship","name":"Shiveshwor Temple","religion":"hindu"},"relations":[],"meta":{"timestamp":"2017-08-11T11:54:46Z","version":1,"changeset":51031324,"user":"Beepson","uid":6448115}},"geometry":{"type":"Point","coordinates":[84.06485012499999,28.152720650000003]}},{"type":"Feature","id":"way/515143150","properties":{"type":"way","id":515143150,"tags":{"amenity":"place_of_worship","name":"Bishram Sthal ra Chautara","name:ne":"पार्वती मन्दिर","religion":"hindu","source":"2cpokhara"},"relations":[],"meta":{"timestamp":"2018-03-05T16:43:48Z","version":2,"changeset":56908802,"user":"Amrit Devkota","uid":6497064}},"geometry":{"type":"Point","coordinates":[84.07005000000001,28.1699836]}},{"type":"Feature","id":"way/515147902","properties":{"type":"way","id":515147902,"tags":{"amenity":"place_of_worship","name":"Basbani Kalika","religion":"hindu"},"relations":[],"meta":{"timestamp":"2017-08-13T07:51:37Z","version":1,"changeset":51074387,"user":"Bibek99","uid":6475007}},"geometry":{"type":"Point","coordinates":[83.917783625,28.266171275000005]}},{"type":"Feature","id":"way/515157241","properties":{"type":"way","id":515157241,"tags":{"addr:city":"Pokhara Lekhnath Metropolitian City","addr:street":"Manni","amenity":"place_of_worship","name":"Shree Shivalaya Temple","religion":"hindu","source":"2cpokhara"},"relations":[],"meta":{"timestamp":"2018-06-04T11:38:42Z","version":3,"changeset":59534161,"user":"Manoj Thapa","uid":781054}},"geometry":{"type":"Point","coordinates":[84.01101377777779,28.224877555555555]}},{"type":"Feature","id":"way/515158708","properties":{"type":"way","id":515158708,"tags":{"amenity":"place_of_worship","name":"Shivalya Mandir","religion":"hindu"},"relations":[],"meta":{"timestamp":"2017-11-16T08:27:53Z","version":2,"changeset":53832878,"user":"Manoj Thapa","uid":781054}},"geometry":{"type":"Point","coordinates":[84.067344925,28.215152]}},{"type":"Feature","id":"way/515168360","properties":{"type":"way","id":515168360,"tags":{"addr:city":"Pokhara Lekhnath","amenity":"place_of_worship","name":"Bhairab Mandir","name:ne":"भैरब मन्दिर","religion":"hindu"},"relations":[],"meta":{"timestamp":"2017-11-16T08:11:21Z","version":3,"changeset":53832570,"user":"Manoj Thapa","uid":781054}},"geometry":{"type":"Point","coordinates":[84.07328635,28.213726525]}},{"type":"Feature","id":"way/515171686","properties":{"type":"way","id":515171686,"tags":{"amenity":"place_of_worship","name":"Paudel Kul Bhawan","religion":"hindu"},"relations":[],"meta":{"timestamp":"2017-11-05T05:49:01Z","version":2,"changeset":53518968,"user":"Manoj Thapa","uid":781054}},"geometry":{"type":"Point","coordinates":[84.0106217,28.2510012]}},{"type":"Feature","id":"way/541664400","properties":{"type":"way","id":541664400,"tags":{"amenity":"place_of_worship","building":"yes","name":"temple","religion":"hindu","source":"2cpokhara"},"relations":[],"meta":{"timestamp":"2018-03-05T17:59:01Z","version":2,"changeset":56911012,"user":"Amrit Devkota","uid":6497064}},"geometry":{"type":"Point","coordinates":[84.089352725,28.144630375]}},{"type":"Feature","id":"way/541678757","properties":{"type":"way","id":541678757,"tags":{"amenity":"place_of_worship","building":"yes","name":"Kiratyashwor Shiva Mandir","religion":"hindu","source":"2cpokhara"},"relations":[],"meta":{"timestamp":"2018-03-06T02:29:05Z","version":2,"changeset":56920706,"user":"Amrit Devkota","uid":6497064}},"geometry":{"type":"Point","coordinates":[84.085567075,28.1488474]}},{"type":"Feature","id":"way/562947147","properties":{"type":"way","id":562947147,"tags":{"amenity":"place_of_worship","denomination":"shaivism","name":"Shiva Mandir","religion":"hindu"},"relations":[],"meta":{"timestamp":"2018-02-21T07:04:38Z","version":1,"changeset":56540581,"user":"Bijay adhikari","uid":7643850}},"geometry":{"type":"Point","coordinates":[83.90286031666666,28.316445749999996]}},{"type":"Feature","id":"way/562947148","properties":{"type":"way","id":562947148,"tags":{"amenity":"place_of_worship","name":"Dwadi Kul Mandir","religion":"hindu"},"relations":[],"meta":{"timestamp":"2018-02-21T07:04:38Z","version":1,"changeset":56540581,"user":"Bijay adhikari","uid":7643850}},"geometry":{"type":"Point","coordinates":[83.90291838333333,28.316219200000003]}},{"type":"Feature","id":"way/562950413","properties":{"type":"way","id":562950413,"tags":{"amenity":"place_of_worship","denomination":"shaivism","name":"Adhikari Kul Mandir","religion":"hindu"},"relations":[],"meta":{"timestamp":"2018-02-21T07:25:25Z","version":1,"changeset":56540949,"user":"Bijay adhikari","uid":7643850}},"geometry":{"type":"Point","coordinates":[83.8982994142857,28.304818242857145]}},{"type":"Feature","id":"way/563830640","properties":{"type":"way","id":563830640,"tags":{"amenity":"place_of_worship","name":"Kalika Temple","opening_hours":"24/7","religion":"hindu","source":"2cpokhara","wheelchair":"no"},"relations":[],"meta":{"timestamp":"2018-03-11T05:10:26Z","version":2,"changeset":57073068,"user":"Ro Sun","uid":3112087}},"geometry":{"type":"Point","coordinates":[83.98049197499999,28.262501375]}},{"type":"Feature","id":"way/564066953","properties":{"type":"way","id":564066953,"tags":{"amenity":"place_of_worship","religion":"hindu"},"relations":[],"meta":{"timestamp":"2018-02-25T13:43:39Z","version":1,"changeset":56661427,"user":"Bijay adhikari","uid":7643850}},"geometry":{"type":"Point","coordinates":[83.92435735000001,28.295022125]}},{"type":"Feature","id":"way/566725292","properties":{"type":"way","id":566725292,"tags":{"amenity":"place_of_worship","name":"Triveshwor Shiva Mandir","religion":"hindu","source":"2cpokhara"},"relations":[],"meta":{"timestamp":"2018-03-05T14:06:21Z","version":1,"changeset":56904797,"user":"Amrit Devkota","uid":6497064}},"geometry":{"type":"Point","coordinates":[84.068583775,28.16464995]}},{"type":"Feature","id":"way/566838541","properties":{"type":"way","id":566838541,"tags":{"amenity":"place_of_worship","name":"Jalauki Sidhyashwor Mahadev","religion":"hindu"},"relations":[],"meta":{"timestamp":"2018-03-06T00:56:12Z","version":1,"changeset":56919717,"user":"Amrit Devkota","uid":6497064}},"geometry":{"type":"Point","coordinates":[84.08716007500001,28.141512000000002]}},{"type":"Feature","id":"way/567412194","properties":{"type":"way","id":567412194,"tags":{"ESTD":"2037","amenity":"place_of_worship","name":"Shree Durga Bhawani Mata Mandir","religion":"hindu","source":"2cpokhara"},"relations":[],"meta":{"timestamp":"2018-03-07T10:49:36Z","version":1,"changeset":56964115,"user":"Sagarsubedi205","uid":7632456}},"geometry":{"type":"Point","coordinates":[83.951836625,28.19263455]}},{"type":"Feature","id":"way/568630060","properties":{"type":"way","id":568630060,"tags":{"amenity":"place_of_worship","name":"OM Shiva Mandir Dhungaepatan","religion":"hindu"},"relations":[],"meta":{"timestamp":"2018-03-11T07:35:56Z","version":1,"changeset":57074580,"user":"Amrit Devkota","uid":6497064}},"geometry":{"type":"Point","coordinates":[84.07845682499999,28.149765549999998]}},{"type":"Feature","id":"way/568630063","properties":{"type":"way","id":568630063,"tags":{"amenity":"place_of_worship","name":"Saraswati Mandir","religion":"hindu","source":"2cpokhara"},"relations":[],"meta":{"timestamp":"2018-03-11T07:35:56Z","version":1,"changeset":57074580,"user":"Amrit Devkota","uid":6497064}},"geometry":{"type":"Point","coordinates":[84.08261005,28.149782700000003]}},{"type":"Feature","id":"way/568639620","properties":{"type":"way","id":568639620,"tags":{"amenity":"place_of_worship","building":"yes","name":"Siddhayaswor Shiva Mandir","religion":"hindu","source":"2cpokhara"},"relations":[],"meta":{"timestamp":"2018-03-11T08:33:59Z","version":1,"changeset":57075309,"user":"Amrit Devkota","uid":6497064}},"geometry":{"type":"Point","coordinates":[84.0776872,28.154186924999998]}},{"type":"Feature","id":"way/569579466","properties":{"type":"way","id":569579466,"tags":{"amenity":"place_of_worship","name":"Bhume Devi","opening_hours":"sunrise-sunset","religion":"hindu"},"relations":[],"meta":{"timestamp":"2018-03-26T05:07:38Z","version":2,"changeset":57522795,"user":"Ro Sun","uid":3112087}},"geometry":{"type":"Point","coordinates":[83.94524953333332,28.248355633333336]}},{"type":"Feature","id":"way/569620887","properties":{"type":"way","id":569620887,"tags":{"amenity":"place_of_worship","name":"Ram Mandir","opening_hours":"sunrise-sunset","religion":"hindu"},"relations":[],"meta":{"timestamp":"2018-04-05T11:11:11Z","version":2,"changeset":57831419,"user":"Manoj Thapa","uid":781054}},"geometry":{"type":"Point","coordinates":[83.93069048,28.25352204]}},{"type":"Feature","id":"way/569790169","properties":{"type":"way","id":569790169,"tags":{"amenity":"place_of_worship","name":"Shiva Temple","opening_hours":"sunrise-sunset","religion":"hindu"},"relations":[],"meta":{"timestamp":"2018-04-06T09:29:00Z","version":2,"changeset":57859539,"user":"Manoj Thapa","uid":781054}},"geometry":{"type":"Point","coordinates":[83.97800468333334,28.24388795]}},{"type":"Feature","id":"way/572248825","properties":{"type":"way","id":572248825,"tags":{"amenity":"place_of_worship","name":"Tripathi Kul Mandir","religion":"hindu"},"relations":[],"meta":{"timestamp":"2018-04-05T11:00:43Z","version":2,"changeset":57831088,"user":"Manoj Thapa","uid":781054}},"geometry":{"type":"Point","coordinates":[83.925783475,28.257160925]}},{"type":"Feature","id":"way/572327146","properties":{"type":"way","id":572327146,"tags":{"amenity":"place_of_worship","name":"G.C Kulmandir","religion":"hindu"},"relations":[],"meta":{"timestamp":"2018-04-05T11:11:11Z","version":2,"changeset":57831419,"user":"Manoj Thapa","uid":781054}},"geometry":{"type":"Point","coordinates":[83.9385967,28.2450197]}},{"type":"Feature","id":"way/573351536","properties":{"type":"way","id":573351536,"tags":{"amenity":"place_of_worship","name":"Subedi Kul Mandir","opening_hours":"sunrise-sunset","religion":"hindu"},"relations":[],"meta":{"timestamp":"2018-03-27T02:17:10Z","version":1,"changeset":57552826,"user":"LonelyNarayan","uid":7644124}},"geometry":{"type":"Point","coordinates":[83.9102134,28.261002425]}},{"type":"Feature","id":"way/575236437","properties":{"type":"way","id":575236437,"tags":{"ESTD":"1969A.D","amenity":"place_of_worship","name":"Kalika Mandir","religion":"hindu","source":"2cpokhara"},"relations":[],"meta":{"timestamp":"2018-04-01T11:39:22Z","version":1,"changeset":57710171,"user":"Sagarsubedi205","uid":7632456}},"geometry":{"type":"Point","coordinates":[84.04454139999999,28.144393820000005]}},{"type":"Feature","id":"way/579794770","properties":{"type":"way","id":579794770,"tags":{"amenity":"place_of_worship","name":"Shiva Mandir","religion":"hindu"},"relations":[],"meta":{"timestamp":"2018-04-14T08:11:12Z","version":1,"changeset":58083865,"user":"Bijay adhikari","uid":7643850}},"geometry":{"type":"Point","coordinates":[83.9856029,28.233799]}},{"type":"Feature","id":"way/588276363","properties":{"type":"way","id":588276363,"tags":{"amenity":"place_of_worship","name":"Siddha Saraswati Mandir","religion":"hindu","source":"2cpokhara"},"relations":[],"meta":{"timestamp":"2018-05-15T05:25:02Z","version":1,"changeset":58971151,"user":"Abash Paudel","uid":6677482}},"geometry":{"type":"Point","coordinates":[84.001547,28.218654625]}},{"type":"Feature","id":"way/588327758","properties":{"type":"way","id":588327758,"tags":{"amenity":"place_of_worship","name":"Siva mandir","religion":"hindu","source":"2cpokhara"},"relations":[],"meta":{"timestamp":"2018-05-15T09:01:07Z","version":1,"changeset":58976461,"user":"Abash Paudel","uid":6677482}},"geometry":{"type":"Point","coordinates":[83.860354525,28.237130649999997]}},{"type":"Feature","id":"way/588327760","properties":{"type":"way","id":588327760,"tags":{"amenity":"place_of_worship","religion":"hindu","source":"2cpokhara"},"relations":[],"meta":{"timestamp":"2018-05-15T09:01:08Z","version":1,"changeset":58976461,"user":"Abash Paudel","uid":6677482}},"geometry":{"type":"Point","coordinates":[83.8602576,28.23460275]}},{"type":"Feature","id":"way/592678937","properties":{"type":"way","id":592678937,"tags":{"barrier":"wall","landuse":"religious","religion":"hindu"},"relations":[],"meta":{"timestamp":"2018-06-01T10:07:53Z","version":1,"changeset":59456489,"user":"Gaurav Thapa","uid":4212590}},"geometry":{"type":"Point","coordinates":[83.9961065,28.186295615384616]}},{"type":"Feature","id":"way/436082183","properties":{"type":"way","id":436082183,"tags":{"name":"Shiva Statue","name:ne":"शिव मुर्ति","opening_hours":"24/7","religion":"hindu"},"relations":[],"meta":{"timestamp":"2018-06-01T10:33:51Z","version":5,"changeset":59457117,"user":"Gaurav Thapa","uid":4212590}},"geometry":{"type":"LineString","coordinates":[[83.9939596,28.1849681],[83.993966,28.1849677],[83.9939721,28.1849694],[83.9939772,28.1849729],[83.9939805,28.1849777],[83.9939816,28.1849833],[83.9939804,28.1849888],[83.9939763,28.1849943],[83.9939699,28.1849979],[83.9939624,28.1849987],[83.9939552,28.1849968],[83.9939496,28.1849923],[83.9939467,28.1849868],[83.9939465,28.1849808],[83.9939488,28.1849751],[83.9939534,28.1849707],[83.9939596,28.1849681]]}},{"type":"Feature","id":"way/560628914","properties":{"type":"way","id":560628914,"tags":{"religion":"hindu"},"relations":[],"meta":{"timestamp":"2018-02-12T05:55:17Z","version":1,"changeset":56282476,"user":"Ro Sun","uid":3112087}},"geometry":{"type":"LineString","coordinates":[[84.0709729,28.1679128],[84.0710507,28.1680571]]}},{"type":"Feature","id":"way/560628915","properties":{"type":"way","id":560628915,"tags":{"religion":"hindu"},"relations":[],"meta":{"timestamp":"2018-02-12T05:55:17Z","version":1,"changeset":56282476,"user":"Ro Sun","uid":3112087}},"geometry":{"type":"LineString","coordinates":[[84.069547,28.1684567],[84.0697727,28.1683503],[84.0698531,28.1682994],[84.069998,28.1682474],[84.0702152,28.1681635],[84.0703319,28.1681304],[84.0704848,28.1681185],[84.0706806,28.168063],[84.0708294,28.1679778],[84.0709729,28.1679128],[84.070753,28.1676421]]}},{"type":"Feature","id":"way/560628918","properties":{"type":"way","id":560628918,"tags":{"religion":"hindu"},"relations":[],"meta":{"timestamp":"2018-02-12T05:55:17Z","version":1,"changeset":56282476,"user":"Ro Sun","uid":3112087}},"geometry":{"type":"LineString","coordinates":[[84.0716617,28.1731721],[84.071964,28.1732258],[84.0723851,28.1732376],[84.0727821,28.1732471]]}},{"type":"Feature","id":"way/560628919","properties":{"type":"way","id":560628919,"tags":{"religion":"hindu"},"relations":[],"meta":{"timestamp":"2018-02-12T05:55:17Z","version":1,"changeset":56282476,"user":"Ro Sun","uid":3112087}},"geometry":{"type":"LineString","coordinates":[[84.073171,28.1728168],[84.0732622,28.1726749],[84.0740642,28.1731549]]}},{"type":"Feature","id":"way/560628920","properties":{"type":"way","id":560628920,"tags":{"religion":"hindu"},"relations":[],"meta":{"timestamp":"2018-02-12T05:55:17Z","version":1,"changeset":56282476,"user":"Ro Sun","uid":3112087}},"geometry":{"type":"LineString","coordinates":[[84.0719095,28.172303],[84.0723073,28.1724266],[84.0728545,28.1726678],[84.073171,28.1728168],[84.0730637,28.1730674],[84.0737155,28.1734173]]}},{"type":"Feature","id":"way/560628921","properties":{"type":"way","id":560628921,"tags":{"religion":"hindu"},"relations":[],"meta":{"timestamp":"2018-02-12T05:55:17Z","version":1,"changeset":56282476,"user":"Ro Sun","uid":3112087}},"geometry":{"type":"LineString","coordinates":[[84.0719479,28.1747331],[84.0720069,28.1747331],[84.0721169,28.1747568],[84.0722805,28.1748454],[84.0725729,28.1749968],[84.0729082,28.1751977],[84.0732461,28.1754295],[84.0735197,28.1756186],[84.0739381,28.1758503]]}},{"type":"Feature","id":"node/1280030761","properties":{"type":"node","id":1280030761,"tags":{"amenity":"place_of_worship","religion":"hindu"},"relations":[],"meta":{"timestamp":"2011-09-20T14:32:12Z","version":2,"changeset":9351884,"user":"Dima M","uid":433361}},"geometry":{"type":"Point","coordinates":[84.1050062,28.1625714]}},{"type":"Feature","id":"node/1343868956","properties":{"type":"node","id":1343868956,"tags":{"amenity":"place_of_worship","name":"Shiva Mandir","religion":"hindu"},"relations":[],"meta":{"timestamp":"2017-10-01T14:50:20Z","version":3,"changeset":52538694,"user":"GOwin","uid":1041828}},"geometry":{"type":"Point","coordinates":[83.9612156,28.2053698]}},{"type":"Feature","id":"node/1366670450","properties":{"type":"node","id":1366670450,"tags":{"amenity":"place_of_worship","drinking_water":"yes","name":"Kali Mandir","name:ne":"कालि मन्दिर","religion":"hindu","shelter":"yes","source":"2cpokhara"},"relations":[],"meta":{"timestamp":"2018-04-05T16:44:38Z","version":5,"changeset":57841324,"user":"Amrit Devkota","uid":6497064}},"geometry":{"type":"Point","coordinates":[84.0740988,28.2138504]}},{"type":"Feature","id":"node/1366671809","properties":{"type":"node","id":1366671809,"tags":{"amenity":"place_of_worship","name":"Shivalaya Mandir","religion":"hindu"},"relations":[],"meta":{"timestamp":"2016-03-16T05:43:55Z","version":3,"changeset":37861973,"user":"Sujan Kuikel","uid":3715326}},"geometry":{"type":"Point","coordinates":[84.0751117,28.2141774]}},{"type":"Feature","id":"node/1445494745","properties":{"type":"node","id":1445494745,"tags":{"amenity":"place_of_worship","religion":"hindu"},"relations":[],"meta":{"timestamp":"2016-04-09T21:15:31Z","version":5,"changeset":38437617,"user":"seichter","uid":66497}},"geometry":{"type":"Point","coordinates":[83.8903425,28.3307214]}},{"type":"Feature","id":"node/1445494750","properties":{"type":"node","id":1445494750,"tags":{"amenity":"place_of_worship","religion":"hindu"},"relations":[],"meta":{"timestamp":"2011-09-25T14:42:25Z","version":1,"changeset":9393078,"user":"simon_schmeisser","uid":527456}},"geometry":{"type":"Point","coordinates":[83.8885397,28.3309877]}},{"type":"Feature","id":"node/1981962406","properties":{"type":"node","id":1981962406,"tags":{"amenity":"place_of_worship","name":"Shrine","religion":"hindu"},"relations":[],"meta":{"timestamp":"2012-10-24T21:09:59Z","version":1,"changeset":13621496,"user":"HeinIII","uid":18931}},"geometry":{"type":"Point","coordinates":[84.1217749,28.2062006]}},{"type":"Feature","id":"node/1981962408","properties":{"type":"node","id":1981962408,"tags":{"amenity":"place_of_worship","name":"Shrine","religion":"hindu"},"relations":[],"meta":{"timestamp":"2012-10-24T21:09:59Z","version":1,"changeset":13621496,"user":"HeinIII","uid":18931}},"geometry":{"type":"Point","coordinates":[84.0842975,28.2157246]}},{"type":"Feature","id":"node/2142193513","properties":{"type":"node","id":2142193513,"tags":{"amenity":"place_of_worship","name":"Shree Radha Krishna Mandir","name:ne":"श्री राधा क्रिष्ण मन्दिर","religion":"hindu"},"relations":[],"meta":{"timestamp":"2016-08-14T04:50:49Z","version":3,"changeset":41440084,"user":"Parassrest","uid":3569249}},"geometry":{"type":"Point","coordinates":[83.969819,28.1975268]}},{"type":"Feature","id":"node/3122139456","properties":{"type":"node","id":3122139456,"tags":{"amenity":"place_of_worship","name":"Khaste Taal Baharai Mandir","religion":"hindu"},"relations":[],"meta":{"timestamp":"2017-04-28T10:11:37Z","version":2,"changeset":48223322,"user":"Alisha12","uid":4204463}},"geometry":{"type":"Point","coordinates":[84.0522569,28.1946139]}},{"type":"Feature","id":"node/3267541947","properties":{"type":"node","id":3267541947,"tags":{"name":"Sankatmochan Hanuman","name:ne":"संकट मोर्चन हनुमान","religion":"hindu"},"relations":[],"meta":{"timestamp":"2016-10-16T07:57:47Z","version":4,"changeset":42930965,"user":"gaurab basnet","uid":3120057}},"geometry":{"type":"Point","coordinates":[83.984373,28.2377599]}},{"type":"Feature","id":"node/3404903250","properties":{"type":"node","id":3404903250,"tags":{"amenity":"place_of_worship","name:ne":"मन्दिर","religion":"hindu"},"relations":[],"meta":{"timestamp":"2016-08-08T09:14:20Z","version":2,"changeset":41319559,"user":"ayushupreti22","uid":3911278}},"geometry":{"type":"Point","coordinates":[83.9627641,28.2094343]}},{"type":"Feature","id":"node/3417286994","properties":{"type":"node","id":3417286994,"tags":{"amenity":"place_of_worship","name":"Bidhabasini Dharmik Sthal","name:ne":"बिन्दबासिनी धार्मिक स्थल","religion":"hindu"},"relations":[],"meta":{"timestamp":"2016-08-10T07:38:19Z","version":3,"changeset":41361320,"user":"Alisha12","uid":4204463}},"geometry":{"type":"Point","coordinates":[83.9851253,28.2369033]}},{"type":"Feature","id":"node/3485754397","properties":{"type":"node","id":3485754397,"tags":{"amenity":"place_of_worship","name":"Shiva Temple","name:ne":"शिव मन्दिर","religion":"hindu"},"relations":[],"meta":{"timestamp":"2016-08-12T08:39:45Z","version":4,"changeset":41405757,"user":"Pujan Poudyal","uid":2516487}},"geometry":{"type":"Point","coordinates":[83.9485779,28.2455271]}},{"type":"Feature","id":"node/3488092234","properties":{"type":"node","id":3488092234,"tags":{"amenity":"place_of_worship","name":"Siddheshwor Mandir","religion":"hindu"},"relations":[],"meta":{"timestamp":"2018-04-08T08:43:16Z","version":6,"changeset":57907677,"user":"Manoj Thapa","uid":781054}},"geometry":{"type":"Point","coordinates":[83.9685987,28.2053431]}},{"type":"Feature","id":"node/3531966752","properties":{"type":"node","id":3531966752,"tags":{"amenity":"place_of_worship","name":"Shiva temple","name:ne":"शिव मन्दिर","religion":"hindu"},"relations":[],"meta":{"timestamp":"2016-08-24T05:27:17Z","version":3,"changeset":41653396,"user":"Bishal9841","uid":3573216}},"geometry":{"type":"Point","coordinates":[83.9203626,28.1970432]}},{"type":"Feature","id":"node/3669902725","properties":{"type":"node","id":3669902725,"tags":{"addr:city":"Pokhara","addr:street":"Shivalayamarg","amenity":"place_of_worship","name":"Shiva Temple","name:ne":"शिव मन्दिर","religion":"hindu"},"relations":[],"meta":{"timestamp":"2016-08-08T08:41:45Z","version":3,"changeset":41319036,"user":"Parassrest","uid":3569249}},"geometry":{"type":"Point","coordinates":[83.9826444,28.2091886]}},{"type":"Feature","id":"node/4040353269","properties":{"type":"node","id":4040353269,"tags":{"addr:city":"Pokhara","addr:place":"Lamachaur","amenity":"place_of_worship","name":"Kalika Temple","name:ne":"कालिका मन्दिर","opening_hours":"24/7","religion":"hindu","source":"2cpokhara"},"relations":[],"meta":{"timestamp":"2018-02-24T10:30:51Z","version":3,"changeset":56632750,"user":"Rabin Ojha","uid":6075053}},"geometry":{"type":"Point","coordinates":[83.9742029,28.2645061]}},{"type":"Feature","id":"node/4061485597","properties":{"type":"node","id":4061485597,"tags":{"amenity":"place_of_worship","religion":"hindu"},"relations":[],"meta":{"timestamp":"2016-03-15T11:37:08Z","version":1,"changeset":37841023,"user":"c-yam giri","uid":3715321}},"geometry":{"type":"Point","coordinates":[83.9665783,28.2103145]}},{"type":"Feature","id":"node/4063111595","properties":{"type":"node","id":4063111595,"tags":{"amenity":"place_of_worship","name":"Ganesh Mandir","name:ne":"गणेश मन्दिर","religion":"hindu"},"relations":[],"meta":{"timestamp":"2016-08-07T11:47:19Z","version":2,"changeset":41302756,"user":"Manoj Thapa","uid":781054}},"geometry":{"type":"Point","coordinates":[83.9822572,28.2149877]}},{"type":"Feature","id":"node/4063257194","properties":{"type":"node","id":4063257194,"tags":{"amenity":"place_of_worship","denomination":"Hindu","name":"Shivalaya,Bachibaduwa","name:ne":"शिवालय बाच्छिबडुवा","religion":"hindu"},"relations":[],"meta":{"timestamp":"2016-09-25T04:15:25Z","version":2,"changeset":42415521,"user":"Parassrest","uid":3569249}},"geometry":{"type":"Point","coordinates":[84.0118451,28.1610229]}},{"type":"Feature","id":"node/4076223099","properties":{"type":"node","id":4076223099,"tags":{"addr:city":"Pokhara","addr:street":"Bagale Tole","amenity":"place_of_worship","name":"Shiva Temple","name:ne":"शिभ मन्दिर","religion":"hindu"},"relations":[],"meta":{"timestamp":"2016-08-24T04:04:09Z","version":2,"changeset":41652468,"user":"Alisha12","uid":4204463}},"geometry":{"type":"Point","coordinates":[83.9839927,28.2210331]}},{"type":"Feature","id":"node/4158677014","properties":{"type":"node","id":4158677014,"tags":{"amenity":"place_of_worship","name":"joytish vawisya kendra","name:ne":"जोतिष भविस्य केन्द्र","religion":"hindu"},"relations":[],"meta":{"timestamp":"2016-08-25T05:14:19Z","version":2,"changeset":41678816,"user":"Bishal9841","uid":3573216}},"geometry":{"type":"Point","coordinates":[83.9503877,28.1951924]}},{"type":"Feature","id":"node/4158677038","properties":{"type":"node","id":4158677038,"tags":{"amenity":"place_of_worship","name":"Shiva Mandir","name:ne":"शिव मन्दिर","religion":"hindu"},"relations":[],"meta":{"timestamp":"2017-08-17T08:20:21Z","version":3,"changeset":51196961,"user":"rekhadhakal","uid":6485692}},"geometry":{"type":"Point","coordinates":[83.9507082,28.1927682]}},{"type":"Feature","id":"node/4159572565","properties":{"type":"node","id":4159572565,"tags":{"amenity":"place_of_worship","name":"Giri Kul Mandir","name:ne":"गिरि कुल मन्दिर","religion":"hindu"},"relations":[],"meta":{"timestamp":"2016-08-07T11:47:19Z","version":2,"changeset":41302756,"user":"Manoj Thapa","uid":781054}},"geometry":{"type":"Point","coordinates":[83.9797093,28.2147578]}},{"type":"Feature","id":"node/4160825753","properties":{"type":"node","id":4160825753,"tags":{"amenity":"place_of_worship","name":"Nag Than","name:ne":"नाग थान","religion":"hindu"},"relations":[],"meta":{"timestamp":"2016-08-10T07:10:33Z","version":3,"changeset":41360794,"user":"Alisha12","uid":4204463}},"geometry":{"type":"Point","coordinates":[83.9883692,28.2425012]}},{"type":"Feature","id":"node/4161891351","properties":{"type":"node","id":4161891351,"tags":{"amenity":"place_of_worship","name":"Pahari Kul Mandir","name:ne":"पहरी कुल मान्दिर","religion":"hindu"},"relations":[],"meta":{"timestamp":"2016-08-25T05:07:40Z","version":2,"changeset":41678756,"user":"Parassrest","uid":3569249}},"geometry":{"type":"Point","coordinates":[83.9528285,28.2218763]}},{"type":"Feature","id":"node/4178532136","properties":{"type":"node","id":4178532136,"tags":{"amenity":"place_of_worship","name":"Hanuman Ji Temple","name:ne":"हनुमान जी मन्दिर","religion":"hindu"},"relations":[],"meta":{"timestamp":"2016-08-11T10:03:00Z","version":3,"changeset":41385401,"user":"Alisha12","uid":4204463}},"geometry":{"type":"Point","coordinates":[83.9906146,28.2068162]}},{"type":"Feature","id":"node/4180613504","properties":{"type":"node","id":4180613504,"tags":{"amenity":"place_of_worship","religion":"hindu"},"relations":[],"meta":{"timestamp":"2016-05-12T09:05:45Z","version":1,"changeset":39261249,"user":"Ro Sun","uid":3112087}},"geometry":{"type":"Point","coordinates":[83.9773666,28.2183477]}},{"type":"Feature","id":"node/4182746120","properties":{"type":"node","id":4182746120,"tags":{"amenity":"place_of_worship","name:ne":"राधा कृष्ण मन्दिर","religion":"hindu"},"relations":[],"meta":{"timestamp":"2016-08-07T12:08:59Z","version":2,"changeset":41303064,"user":"Bishal9841","uid":3573216}},"geometry":{"type":"Point","coordinates":[83.9823419,28.2258475]}},{"type":"Feature","id":"node/4183081294","properties":{"type":"node","id":4183081294,"tags":{"amenity":"place_of_worship","religion":"hindu"},"relations":[],"meta":{"timestamp":"2016-05-13T10:06:50Z","version":1,"changeset":39288001,"user":"Ro Sun","uid":3112087}},"geometry":{"type":"Point","coordinates":[83.982528,28.2223388]}},{"type":"Feature","id":"node/4183630484","properties":{"type":"node","id":4183630484,"tags":{"amenity":"place_of_worship","name":"Ganesh Mandir","religion":"hindu"},"relations":[],"meta":{"timestamp":"2018-03-02T10:44:51Z","version":2,"changeset":56815530,"user":"Active Asmita","uid":7644107}},"geometry":{"type":"Point","coordinates":[83.9809177,28.2175767]}},{"type":"Feature","id":"node/4184944926","properties":{"type":"node","id":4184944926,"tags":{"amenity":"place_of_worship","name":"Ganesh Mandir","religion":"hindu"},"relations":[],"meta":{"timestamp":"2017-09-13T07:02:31Z","version":4,"changeset":51994604,"user":"marek kleciak","uid":338611}},"geometry":{"type":"Point","coordinates":[83.9845839,28.2284187]}},{"type":"Feature","id":"node/4206699816","properties":{"type":"node","id":4206699816,"tags":{"addr:city":"Pokhara Lekhanath Metropolitan City","addr:place":"Garikhet Bhatmara","addr:street":"Santipath A","amenity":"place_of_worship","name":"Shiddi binaya Temple","name:ne":"मन्दिर","religion":"hindu"},"relations":[],"meta":{"timestamp":"2017-08-10T08:21:38Z","version":4,"changeset":50993436,"user":"Ankit Keshav Baral","uid":6447999}},"geometry":{"type":"Point","coordinates":[83.9687555,28.205409]}},{"type":"Feature","id":"node/4213348390","properties":{"type":"node","id":4213348390,"tags":{"amenity":"place_of_worship","fixme":"should be perhaps natural=cave_entrance or no cave at all?","name":"Gupteshwor Mahadev Cave","name:ne":"गुप्तेस्वोर माहादेव केव","natural":"cave","religion":"hindu"},"relations":[],"meta":{"timestamp":"2016-09-26T08:01:17Z","version":3,"changeset":42438684,"user":"ayushupreti22","uid":3911278}},"geometry":{"type":"Point","coordinates":[83.9577021,28.1892152]}},{"type":"Feature","id":"node/4213589084","properties":{"type":"node","id":4213589084,"tags":{"amenity":"place_of_worship","name":"Upakareshwor Shivalaya","name:ne":"उपकारेस्वोर सिवालय","religion":"hindu"},"relations":[],"meta":{"timestamp":"2016-08-09T06:24:27Z","version":2,"changeset":41338344,"user":"Alisha12","uid":4204463}},"geometry":{"type":"Point","coordinates":[84.0022264,28.2078536]}},{"type":"Feature","id":"node/4215090485","properties":{"type":"node","id":4215090485,"tags":{"amenity":"place_of_worship","num_buildings":"1","opening_hours":"24/7","religion":"hindu","wheelchair":"yes"},"relations":[],"meta":{"timestamp":"2016-05-30T09:39:29Z","version":1,"changeset":39660786,"user":"Ro Sun","uid":3112087}},"geometry":{"type":"Point","coordinates":[83.9980401,28.2123231]}},{"type":"Feature","id":"node/4215139826","properties":{"type":"node","id":4215139826,"tags":{"amenity":"place_of_worship","name":"Siddheshor Mahadev Mandir","name:ne":"सिध्देश्वर महादेव मन्दिर","opening_hours":"sunrise-sunset","religion":"hindu","toilets":"no","water":"no","wheelchair":"limited"},"relations":[],"meta":{"timestamp":"2016-08-11T07:44:14Z","version":2,"changeset":41382887,"user":"Parassrest","uid":3569249}},"geometry":{"type":"Point","coordinates":[83.9988119,28.2316728]}},{"type":"Feature","id":"node/4215186145","properties":{"type":"node","id":4215186145,"tags":{"amenity":"place_of_worship","religion":"hindu"},"relations":[],"meta":{"timestamp":"2016-05-30T10:52:38Z","version":1,"changeset":39662245,"user":"Ro Sun","uid":3112087}},"geometry":{"type":"Point","coordinates":[83.9968928,28.2270006]}},{"type":"Feature","id":"node/4216772399","properties":{"type":"node","id":4216772399,"tags":{"amenity":"place_of_worship","name":"Ram Mandir","name:ne":"राम मन्दिर","religion":"hindu"},"relations":[],"meta":{"timestamp":"2016-09-25T05:56:39Z","version":3,"changeset":42416334,"user":"ayushupreti22","uid":3911278}},"geometry":{"type":"Point","coordinates":[83.9972154,28.2008662]}},{"type":"Feature","id":"node/4296155911","properties":{"type":"node","id":4296155911,"tags":{"amenity":"place_of_worship","name":"Bishowkarma Temple","name:ne":"विस्वकर्मा मन्दिर","religion":"hindu"},"relations":[],"meta":{"timestamp":"2016-08-12T09:53:44Z","version":2,"changeset":41407154,"user":"Bishal9841","uid":3573216}},"geometry":{"type":"Point","coordinates":[83.9775726,28.2124785]}},{"type":"Feature","id":"node/4324873363","properties":{"type":"node","id":4324873363,"tags":{"amenity":"place_of_worship","name":"Manakamana Temple","name:ne":"मनकामना मन्दिर","religion":"hindu"},"relations":[],"meta":{"timestamp":"2016-08-11T11:02:11Z","version":2,"changeset":41386502,"user":"Alisha12","uid":4204463}},"geometry":{"type":"Point","coordinates":[84.0184212,28.1793478]}},{"type":"Feature","id":"node/4324873364","properties":{"type":"node","id":4324873364,"tags":{"amenity":"place_of_worship","name":"Paanchayan Shiva Mandir","name:ne":"पान्चायन शिव मन्दिर","religion":"hindu"},"relations":[],"meta":{"timestamp":"2017-07-21T07:06:26Z","version":3,"changeset":50449516,"user":"Ro Sun","uid":3112087}},"geometry":{"type":"Point","coordinates":[84.0183177,28.1794159]}},{"type":"Feature","id":"node/4347106493","properties":{"type":"node","id":4347106493,"tags":{"amenity":"place_of_worship","name":"Shiva's Statue","name:ne":"शिव मुर्ति","religion":"hindu"},"relations":[],"meta":{"timestamp":"2018-06-01T10:33:51Z","version":4,"changeset":59457117,"user":"Gaurav Thapa","uid":4212590}},"geometry":{"type":"Point","coordinates":[83.9932747,28.1836413]}},{"type":"Feature","id":"node/4352404518","properties":{"type":"node","id":4352404518,"tags":{"amenity":"place_of_worship","religion":"hindu"},"relations":[],"meta":{"timestamp":"2016-08-16T10:01:45Z","version":1,"changeset":41486123,"user":"Alisha12","uid":4204463}},"geometry":{"type":"Point","coordinates":[83.9896557,28.2016976]}},{"type":"Feature","id":"node/4356817859","properties":{"type":"node","id":4356817859,"tags":{"amenity":"place_of_worship","name":"Sarswoti Temple","name:ne":"सरस्वती मन्दिर","opening_hours":"6:00-5:00","religion":"hindu"},"relations":[],"meta":{"timestamp":"2016-09-13T04:18:10Z","version":2,"changeset":42115394,"user":"Parassrest","uid":3569249}},"geometry":{"type":"Point","coordinates":[83.9909446,28.176974]}},{"type":"Feature","id":"node/4467625789","properties":{"type":"node","id":4467625789,"tags":{"name":"Kedareshwor Mahadev Mandir","name:en":"Hindu temple","opening_hours":"00:00-24:00","religion":"hindu"},"relations":[],"meta":{"timestamp":"2017-08-10T08:14:22Z","version":3,"changeset":50993223,"user":"gyanendra nepali","uid":6447854}},"geometry":{"type":"Point","coordinates":[83.9662691,28.2002253]}},{"type":"Feature","id":"node/4500661504","properties":{"type":"node","id":4500661504,"tags":{"addr:city":"Pokhara Lekhanath Metropolitan City","addr:place":"Masbar Pokharipatan","addr:street":"Sugam Marga","amenity":"place_of_worship","denomination":"priest","description":"Historical ponds reconstructed for tourism attraction.","name":"laxmi Narayan Temple","religion":"hindu"},"relations":[],"meta":{"timestamp":"2017-08-10T11:08:36Z","version":3,"changeset":50998157,"user":"Ankit Keshav Baral","uid":6447999}},"geometry":{"type":"Point","coordinates":[83.973017,28.210321]}},{"type":"Feature","id":"node/4508138851","properties":{"type":"node","id":4508138851,"tags":{"amenity":"place_of_worship","name":"Santeshwor Mahadev Mandir","religion":"hindu","source":"2cpokhara"},"relations":[],"meta":{"timestamp":"2018-05-10T06:30:22Z","version":2,"changeset":58839266,"user":"Abash Paudel","uid":6677482}},"geometry":{"type":"Point","coordinates":[84.0038651,28.2314365]}},{"type":"Feature","id":"node/4525480893","properties":{"type":"node","id":4525480893,"tags":{"addr:street":"Pokhara Baglung Rajmarg","amenity":"place_of_worship","name:en":"Bindhabasani","religion":"hindu"},"relations":[],"meta":{"timestamp":"2017-02-09T16:04:38Z","version":2,"changeset":45951018,"user":"Manoj Thapa","uid":781054}},"geometry":{"type":"Point","coordinates":[83.9840676,28.2374577]}},{"type":"Feature","id":"node/4565146990","properties":{"type":"node","id":4565146990,"tags":{"addr:street":"Santaneshwar Marga","amenity":"place_of_worship","name":"Santaneshwar Mahadev Temple","name:ne":"श्री सन्तानेश्वर महादेब मन्दिर","religion":"hindu"},"relations":[],"meta":{"timestamp":"2017-01-13T07:40:21Z","version":3,"changeset":45126016,"user":"Manoj Thapa","uid":781054}},"geometry":{"type":"Point","coordinates":[83.9764087,28.2422971]}},{"type":"Feature","id":"node/4597736089","properties":{"type":"node","id":4597736089,"tags":{"addr:street":"Shishuwa-Bhandardhik Sadak Marg","amenity":"place_of_worship","name:en":"Radhe Radhe","religion":"hindu"},"relations":[],"meta":{"timestamp":"2017-03-03T12:25:17Z","version":2,"changeset":46547718,"user":"Alisha12","uid":4204463}},"geometry":{"type":"Point","coordinates":[84.0665403,28.1573648]}},{"type":"Feature","id":"node/4641731558","properties":{"type":"node","id":4641731558,"tags":{"amenity":"place_of_worship","name":"Bhagwati Mandir","religion":"hindu"},"relations":[],"meta":{"timestamp":"2017-07-23T03:53:49Z","version":3,"changeset":50492459,"user":"Ro Sun","uid":3112087}},"geometry":{"type":"Point","coordinates":[84.0222501,28.1676276]}},{"type":"Feature","id":"node/4666830090","properties":{"type":"node","id":4666830090,"tags":{"amenity":"place_of_worship","name:en":"Harihar Gufa Asram","religion":"hindu","toilets":"yes"},"relations":[],"meta":{"timestamp":"2018-03-13T10:42:14Z","version":4,"changeset":57140891,"user":"mueschel","uid":616774}},"geometry":{"type":"Point","coordinates":[83.9937091,28.2557334]}},{"type":"Feature","id":"node/4702610298","properties":{"type":"node","id":4702610298,"tags":{"addr:street":"Janapriya Marga","amenity":"place_of_worship","name":"Shree Krishna Pranami Temple","religion":"hindu"},"relations":[],"meta":{"timestamp":"2018-04-08T11:08:52Z","version":2,"changeset":57910324,"user":"Ro Sun","uid":3112087}},"geometry":{"type":"Point","coordinates":[83.9773909,28.2043595]}},{"type":"Feature","id":"node/4704919594","properties":{"type":"node","id":4704919594,"tags":{"amenity":"place_of_worship","name":"Ram Mandir","religion":"hindu"},"relations":[],"meta":{"timestamp":"2018-06-04T11:38:41Z","version":2,"changeset":59534161,"user":"Manoj Thapa","uid":781054}},"geometry":{"type":"Point","coordinates":[83.9962982,28.2273399]}},{"type":"Feature","id":"node/4729287593","properties":{"type":"node","id":4729287593,"tags":{"amenity":"place_of_worship","name:en":"Shree Chandra Kalika Temple","religion":"hindu"},"relations":[],"meta":{"timestamp":"2018-02-12T05:45:14Z","version":2,"changeset":56282298,"user":"Ro Sun","uid":3112087}},"geometry":{"type":"Point","coordinates":[84.0597233,28.1759196]}},{"type":"Feature","id":"node/4776513223","properties":{"type":"node","id":4776513223,"tags":{"addr:place":"Lamachaur","addr:street":"Machhapuchhre Highway Mathillo Bagaicha","amenity":"place_of_worship","name":"Shree Akala Devi Bhagawati Mandir","name:ne":"श्री अल्का देवी भगवती मन्दिर","religion":"hindu"},"relations":[],"meta":{"timestamp":"2018-05-31T04:10:21Z","version":5,"changeset":59415265,"user":"Manoj Thapa","uid":781054}},"geometry":{"type":"Point","coordinates":[83.9555606,28.2752097]}},{"type":"Feature","id":"node/4776513224","properties":{"type":"node","id":4776513224,"tags":{"amenity":"place_of_worship","name":"Shree Ganesh Panchanga Mandir","name:ne":"श्री गणेश पन्चांग मन्दिर","religion":"hindu"},"relations":[],"meta":{"timestamp":"2018-05-31T04:10:21Z","version":4,"changeset":59415265,"user":"Manoj Thapa","uid":781054}},"geometry":{"type":"Point","coordinates":[83.9554554,28.275333]}},{"type":"Feature","id":"node/4776513225","properties":{"type":"node","id":4776513225,"tags":{"amenity":"place_of_worship","name":"Shree Akaladevi Mandir","name:ne":"श्री अल्का देवी मन्दिर","religion":"hindu"},"relations":[],"meta":{"timestamp":"2018-05-31T04:40:32Z","version":3,"changeset":59415658,"user":"Manoj Thapa","uid":781054}},"geometry":{"type":"Point","coordinates":[83.9570406,28.2729808]}},{"type":"Feature","id":"node/4776531422","properties":{"type":"node","id":4776531422,"tags":{"amenity":"place_of_worship","name":"Shiva Mandir","name:ne":"शिव मन्दिर","religion":"hindu"},"relations":[],"meta":{"timestamp":"2018-05-31T03:34:17Z","version":3,"changeset":59414877,"user":"Manoj Thapa","uid":781054}},"geometry":{"type":"Point","coordinates":[83.953677,28.2754705]}},{"type":"Feature","id":"node/4776531522","properties":{"type":"node","id":4776531522,"tags":{"amenity":"place_of_worship","name":"Hawan Kunda","name:ne":"हवन कुण्ड","religion":"hindu"},"relations":[],"meta":{"timestamp":"2018-05-31T04:10:21Z","version":3,"changeset":59415265,"user":"Manoj Thapa","uid":781054}},"geometry":{"type":"Point","coordinates":[83.9556279,28.2748808]}},{"type":"Feature","id":"node/4786005024","properties":{"type":"node","id":4786005024,"tags":{"amenity":"place_of_worship","name":"Ambareshwori Gufa","religion":"hindu"},"relations":[],"meta":{"timestamp":"2017-04-30T07:39:33Z","version":2,"changeset":48274631,"user":"Parassrest","uid":3569249}},"geometry":{"type":"Point","coordinates":[83.9678761,28.2985992]}},{"type":"Feature","id":"node/4786005027","properties":{"type":"node","id":4786005027,"tags":{"amenity":"place_of_worship","name":"Shree Bindhabasini Mai","religion":"hindu"},"relations":[],"meta":{"timestamp":"2017-04-30T06:59:21Z","version":2,"changeset":48273948,"user":"Parassrest","uid":3569249}},"geometry":{"type":"Point","coordinates":[83.9620615,28.3197583]}},{"type":"Feature","id":"node/4786007123","properties":{"type":"node","id":4786007123,"tags":{"amenity":"place_of_worship","name":"Devi Mandir","name:ne":"देवी मन्दिर","religion":"hindu"},"relations":[],"meta":{"timestamp":"2018-05-31T06:44:46Z","version":3,"changeset":59418385,"user":"Manoj Thapa","uid":781054}},"geometry":{"type":"Point","coordinates":[83.9637042,28.3351295]}},{"type":"Feature","id":"node/4786025022","properties":{"type":"node","id":4786025022,"tags":{"amenity":"place_of_worship","name":"Shree Saraswati Mandir","name:ne":"श्री सरस्वती मन्दिर","religion":"hindu"},"relations":[],"meta":{"timestamp":"2018-05-31T07:18:42Z","version":3,"changeset":59419250,"user":"Manoj Thapa","uid":781054}},"geometry":{"type":"Point","coordinates":[83.9655389,28.3320597]}},{"type":"Feature","id":"node/4788155223","properties":{"type":"node","id":4788155223,"tags":{"amenity":"place_of_worship","name":"Durga Bhagawati Mandir","name:ne":"दुर्गा भगवती मन्दिर","religion":"hindu","source":"2cpokhara","toilets":"no"},"relations":[],"meta":{"timestamp":"2018-05-31T07:24:11Z","version":5,"changeset":59419391,"user":"Manoj Thapa","uid":781054}},"geometry":{"type":"Point","coordinates":[84.0414914,28.2723739]}},{"type":"Feature","id":"node/4788166321","properties":{"type":"node","id":4788166321,"tags":{"amenity":"place_of_worship","drinking_water":"no","name":"Ghamgham Sita Mandir","name:ne":"घाम घाम सिता मन्दिर","religion":"hindu","source":"2cpokhara","toilets":"no"},"relations":[],"meta":{"timestamp":"2018-05-31T07:24:11Z","version":6,"changeset":59419391,"user":"Manoj Thapa","uid":781054}},"geometry":{"type":"Point","coordinates":[84.0366686,28.2711729]}},{"type":"Feature","id":"node/4788166323","properties":{"type":"node","id":4788166323,"tags":{"amenity":"place_of_worship","name":"Saraswati Mandir","religion":"hindu","source":"2cpokhara"},"relations":[],"meta":{"timestamp":"2018-03-11T06:38:22Z","version":2,"changeset":57073967,"user":"Madan Acharya","uid":7707025}},"geometry":{"type":"Point","coordinates":[84.0281748,28.2571048]}},{"type":"Feature","id":"node/4796359425","properties":{"type":"node","id":4796359425,"tags":{"amenity":"place_of_worship","name":"Durga Mandir","religion":"hindu"},"relations":[],"meta":{"timestamp":"2017-04-16T09:40:13Z","version":1,"changeset":47833960,"user":"Parassrest","uid":3569249}},"geometry":{"type":"Point","coordinates":[84.0433499,28.2031582]}},{"type":"Feature","id":"node/4796359426","properties":{"type":"node","id":4796359426,"tags":{"amenity":"place_of_worship","name":"Kul Dewuta Mandir","religion":"hindu"},"relations":[],"meta":{"timestamp":"2017-04-16T09:40:13Z","version":1,"changeset":47833960,"user":"Parassrest","uid":3569249}},"geometry":{"type":"Point","coordinates":[84.0422574,28.2024628]}},{"type":"Feature","id":"node/4812795629","properties":{"type":"node","id":4812795629,"tags":{"amenity":"place_of_worship","religion":"hindu"},"relations":[],"meta":{"timestamp":"2017-04-27T09:54:19Z","version":2,"changeset":48189025,"user":"Alisha12","uid":4204463}},"geometry":{"type":"Point","coordinates":[84.0995016,28.1157468]}},{"type":"Feature","id":"node/4814829045","properties":{"type":"node","id":4814829045,"tags":{"amenity":"place_of_worship","religion":"hindu"},"relations":[],"meta":{"timestamp":"2017-04-25T05:59:35Z","version":2,"changeset":48110790,"user":"Bishal9841","uid":3573216}},"geometry":{"type":"Point","coordinates":[84.1081958,28.1906871]}},{"type":"Feature","id":"node/4841386439","properties":{"type":"node","id":4841386439,"tags":{"amenity":"place_of_worship","name":"Ram Temple","religion":"hindu"},"relations":[],"meta":{"timestamp":"2017-05-08T10:09:44Z","version":1,"changeset":48497320,"user":"manisha parajuli","uid":5808345}},"geometry":{"type":"Point","coordinates":[83.9917544,28.2189132]}},{"type":"Feature","id":"node/4841430357","properties":{"type":"node","id":4841430357,"tags":{"amenity":"place_of_worship","name":"Shiva Temple","religion":"hindu"},"relations":[],"meta":{"timestamp":"2017-05-08T10:37:03Z","version":1,"changeset":48497947,"user":"Anita Pariyar","uid":5808194}},"geometry":{"type":"Point","coordinates":[83.9898482,28.2171298]}},{"type":"Feature","id":"node/4843074121","properties":{"type":"node","id":4843074121,"tags":{"amenity":"place_of_worship","name":"Amar temple","religion":"hindu"},"relations":[],"meta":{"timestamp":"2017-11-05T06:13:44Z","version":2,"changeset":53519177,"user":"Manoj Thapa","uid":781054}},"geometry":{"type":"Point","coordinates":[83.9936739,28.218247]}},{"type":"Feature","id":"node/4976582172","properties":{"type":"node","id":4976582172,"tags":{"amenity":"place_of_worship","denomination":"hindu","name":"Shiva Mandir","religion":"hindu"},"relations":[],"meta":{"timestamp":"2017-07-23T04:46:15Z","version":2,"changeset":50492749,"user":"Ro Sun","uid":3112087}},"geometry":{"type":"Point","coordinates":[84.0248081,28.163374]}},{"type":"Feature","id":"node/4977077175","properties":{"type":"node","id":4977077175,"tags":{"amenity":"place_of_worship","name":"Ram Mandir","name:ne":"श्री राम मन्दिर","religion":"hindu"},"relations":[],"meta":{"timestamp":"2017-07-21T06:32:46Z","version":2,"changeset":50448832,"user":"Ro Sun","uid":3112087}},"geometry":{"type":"Point","coordinates":[84.0230995,28.182968]}},{"type":"Feature","id":"node/4984258120","properties":{"type":"node","id":4984258120,"tags":{"amenity":"place_of_worship","name":"Rudreshwor Mahadev Mandir","name:ne":"रुद्रेश्वर पशुपतिनाथ मन्दिर","religion":"hindu"},"relations":[],"meta":{"timestamp":"2017-07-21T06:53:05Z","version":1,"changeset":50449222,"user":"Ro Sun","uid":3112087}},"geometry":{"type":"Point","coordinates":[84.0024854,28.1982587]}},{"type":"Feature","id":"node/4984271032","properties":{"type":"node","id":4984271032,"tags":{"amenity":"place_of_worship","name":"Durga Vawani Mandir","name:ne":"दुर्गा भवानी मन्दिर","religion":"hindu"},"relations":[],"meta":{"timestamp":"2017-07-21T07:00:10Z","version":1,"changeset":50449370,"user":"Ro Sun","uid":3112087}},"geometry":{"type":"Point","coordinates":[84.0075001,28.1839447]}},{"type":"Feature","id":"node/4984274002","properties":{"type":"node","id":4984274002,"tags":{"amenity":"place_of_worship","name":"Swarswati Mandir","name:ne":"सरस्वती मन्दिर","religion":"hindu"},"relations":[],"meta":{"timestamp":"2017-07-21T07:06:26Z","version":1,"changeset":50449516,"user":"Ro Sun","uid":3112087}},"geometry":{"type":"Point","coordinates":[84.0229309,28.1775278]}},{"type":"Feature","id":"node/5024583198","properties":{"type":"node","id":5024583198,"tags":{"addr:city":"Pokhara","addr:place":"Lamachaur","amenity":"place_of_worship","name":"Kalika Temple","name:ne":"कालिका मन्दिर","opening_hours":"24/7","religion":"hindu","source":"2cpokhara"},"relations":[],"meta":{"timestamp":"2018-04-05T10:30:30Z","version":3,"changeset":57830264,"user":"Manoj Thapa","uid":781054}},"geometry":{"type":"Point","coordinates":[83.963006,28.2616054]}},{"type":"Feature","id":"node/5025590553","properties":{"type":"node","id":5025590553,"tags":{"addr:city":"Pokhara Lekhanath Metropolitan City","addr:place":"Gharipatan","addr:street":"RTO Road","amenity":"place_of_worship","name":"Radha Krishna Mandir","opening_hours":"00:00-24:00","religion":"hindu"},"relations":[],"meta":{"timestamp":"2018-04-10T06:27:38Z","version":3,"changeset":57960874,"user":"Manoj Thapa","uid":781054}},"geometry":{"type":"Point","coordinates":[83.9820427,28.1977552]}},{"type":"Feature","id":"node/5025792746","properties":{"type":"node","id":5025792746,"tags":{"addr:city":"Pokhara Lekhanath Metropolitan City","addr:street":"Thado pasal Margha","amenity":"place_of_worship","name":"Bhimsen Mandir","operator":"public","religion":"hindu"},"relations":[],"meta":{"timestamp":"2018-04-11T08:52:17Z","version":3,"changeset":57996491,"user":"Manoj Thapa","uid":781054}},"geometry":{"type":"Point","coordinates":[83.9665103,28.2093222]}},{"type":"Feature","id":"node/5026123099","properties":{"type":"node","id":5026123099,"tags":{"addr:city":"Pokhara lekthnath municipility","name":"Gaighat Dharmasthal Kendra","religion":"hindu"},"relations":[],"meta":{"timestamp":"2017-08-10T10:13:38Z","version":1,"changeset":50996703,"user":"liladevkota123","uid":6448317}},"geometry":{"type":"Point","coordinates":[83.9852927,28.2459869]}},{"type":"Feature","id":"node/5027683950","properties":{"type":"node","id":5027683950,"tags":{"amenity":"place_of_worship","name":"Bhimesn Temple","religion":"hindu"},"relations":[],"meta":{"timestamp":"2017-08-11T05:27:52Z","version":1,"changeset":51020677,"user":"suneeel","uid":6447856}},"geometry":{"type":"Point","coordinates":[83.9339322,28.2781999]}},{"type":"Feature","id":"node/5027689876","properties":{"type":"node","id":5027689876,"tags":{"addr:city":"Pokhara Lekhnath M.City","addr:district":"Kaski","addr:place":"Lamachaur","addr:street":"bagaich","amenity":"place_of_worship","name":"Laxmi Narayan Temple","name:ne":"लक्ष्मी नारायण मन्दिर","opening_hours":"6:00-9:30","religion":"hindu"},"relations":[],"meta":{"timestamp":"2018-05-31T04:40:32Z","version":2,"changeset":59415658,"user":"Manoj Thapa","uid":781054}},"geometry":{"type":"Point","coordinates":[83.9572265,28.2727829]}},{"type":"Feature","id":"node/5027691800","properties":{"type":"node","id":5027691800,"tags":{"addr:city":"Pokhara Lekhnath M.City","addr:district":"Kaski","addr:place":"Lamachaur","addr:street":"bagaich","amenity":"place_of_worship","name":"Akala Devi Mandir","name:ne":"श्री अल्का देवी मन्दिर","opening_hours":"6:00-9:30","religion":"hindu"},"relations":[],"meta":{"timestamp":"2018-05-31T04:40:33Z","version":2,"changeset":59415658,"user":"Manoj Thapa","uid":781054}},"geometry":{"type":"Point","coordinates":[83.9572647,28.2728443]}},{"type":"Feature","id":"node/5027707571","properties":{"type":"node","id":5027707571,"tags":{"addr:city":"Pokhara Lekhnath Metropolitan City","addr:place":"Siddha Aashram","amenity":"place_of_worship","name":"Gorakhnath temple","operator":"Public","religion":"hindu"},"relations":[],"meta":{"timestamp":"2017-08-11T05:54:37Z","version":1,"changeset":51021206,"user":"Mitra Bhandari","uid":6447916}},"geometry":{"type":"Point","coordinates":[84.0965009,28.1545996]}},{"type":"Feature","id":"node/5027716255","properties":{"type":"node","id":5027716255,"tags":{"amenity":"place_of_worship","name":"Baral Kul Mandir","operator":"Community","religion":"hindu"},"relations":[],"meta":{"timestamp":"2018-04-22T10:35:01Z","version":2,"changeset":58306707,"user":"Manoj Thapa","uid":781054}},"geometry":{"type":"Point","coordinates":[83.9158273,28.2029781]}},{"type":"Feature","id":"node/5027723129","properties":{"type":"node","id":5027723129,"tags":{"addr:city":"Pokhara Lekhnath Metropolitan City","addr:place":"Durga Tole","addr:street":"Durga Tole Marg","amenity":"place_of_worship","name":"Durga Temple","religion":"hindu"},"relations":[],"meta":{"timestamp":"2017-08-11T06:10:10Z","version":1,"changeset":51021538,"user":"rmpaudel123","uid":6447862}},"geometry":{"type":"Point","coordinates":[84.0458601,28.157555]}},{"type":"Feature","id":"node/5027756292","properties":{"type":"node","id":5027756292,"tags":{"amenity":"place_of_worship","denomination":"hindu","name":"Ganesh Temple","religion":"hindu"},"relations":[],"meta":{"timestamp":"2017-12-05T03:23:24Z","version":2,"changeset":54352061,"user":"Sachham","uid":7152840}},"geometry":{"type":"Point","coordinates":[83.9858421,28.2349204]}},{"type":"Feature","id":"node/5027801433","properties":{"type":"node","id":5027801433,"tags":{"amenity":"place_of_worship","name":"Temple","religion":"hindu"},"relations":[],"meta":{"timestamp":"2017-08-11T07:04:02Z","version":1,"changeset":51022756,"user":"Sailesh Prj","uid":6443256}},"geometry":{"type":"Point","coordinates":[83.9884011,28.2286243]}},{"type":"Feature","id":"node/5027977849","properties":{"type":"node","id":5027977849,"tags":{"addr:city":"Pokhara Lekhnath Metropolitan City","addr:street":"Arghun Base lekhnath Janmasthal Marg","amenity":"place_of_worship","name":"Sarswati Mandir","religion":"hindu"},"relations":[],"meta":{"timestamp":"2017-08-11T08:14:33Z","version":1,"changeset":51024700,"user":"rmpaudel123","uid":6447862}},"geometry":{"type":"Point","coordinates":[84.0701173,28.1968238]}},{"type":"Feature","id":"node/5027977863","properties":{"type":"node","id":5027977863,"tags":{"addr:city":"Pokhara Lekhnath Metropolitan City","addr:place":"Dada Wari Tole","addr:street":"Lekhnath Chowk Arghun Base Marg","amenity":"place_of_worship","name":"Siddheshwor Mahadev Mandir","religion":"hindu"},"relations":[],"meta":{"timestamp":"2017-08-11T08:14:33Z","version":1,"changeset":51024700,"user":"rmpaudel123","uid":6447862}},"geometry":{"type":"Point","coordinates":[84.0557447,28.1827198]}},{"type":"Feature","id":"node/5028075778","properties":{"type":"node","id":5028075778,"tags":{"addr:city":"Pokhara Lekhnath Metropolitan City","addr:place":"Shanti Tole","amenity":"place_of_worship","name":"Chandra Kalika Mandir","religion":"hindu"},"relations":[],"meta":{"timestamp":"2017-08-11T09:07:54Z","version":1,"changeset":51026305,"user":"rmpaudel123","uid":6447862}},"geometry":{"type":"Point","coordinates":[84.0577054,28.1729563]}},{"type":"Feature","id":"node/5028075786","properties":{"type":"node","id":5028075786,"tags":{"addr:city":"Pokhara Lekhnath Metropolitan City","addr:place":"Shanti Tole","addr:street":"Lekhnath Chowk Bhitri Marg","amenity":"place_of_worship","name":"Radha Krishna Mandir","religion":"hindu"},"relations":[],"meta":{"timestamp":"2017-08-11T09:07:54Z","version":1,"changeset":51026305,"user":"rmpaudel123","uid":6447862}},"geometry":{"type":"Point","coordinates":[84.055168,28.172254]}},{"type":"Feature","id":"node/5028075787","properties":{"type":"node","id":5028075787,"tags":{"addr:city":"Pokhara Lekhnath Metropolitan City","addr:place":"Kholako Chheu","addr:street":"Lekhnath Chowk Bhitri Marg","amenity":"place_of_worship","name":"Shiva Mandir","religion":"hindu"},"relations":[],"meta":{"timestamp":"2017-08-11T09:07:54Z","version":1,"changeset":51026305,"user":"rmpaudel123","uid":6447862}},"geometry":{"type":"Point","coordinates":[84.0533254,28.1763397]}},{"type":"Feature","id":"node/5028075788","properties":{"type":"node","id":5028075788,"tags":{"addr:street":"Lekhnath Chowk Bhitri Marg","amenity":"place_of_worship","name":"Jaya Gurudev Shakti Siddashram Shaki Kendra","religion":"hindu"},"relations":[],"meta":{"timestamp":"2017-08-11T09:07:55Z","version":1,"changeset":51026305,"user":"rmpaudel123","uid":6447862}},"geometry":{"type":"Point","coordinates":[84.0528452,28.176309]}},{"type":"Feature","id":"node/5028094689","properties":{"type":"node","id":5028094689,"tags":{"addr:city":"Pokhara Lekhanath Metropolitan City","addr:country":"NP","addr:place":"Adarsha Chowk","amenity":"place_of_worship","name":"Shiva Mandir","religion":"hindu"},"relations":[],"meta":{"timestamp":"2017-10-01T09:48:35Z","version":4,"changeset":52531291,"user":"ChrissW-R1","uid":251543}},"geometry":{"type":"Point","coordinates":[84.0575418,28.1525374]}},{"type":"Feature","id":"node/5028164640","properties":{"type":"node","id":5028164640,"tags":{"amenity":"place_of_worship","name":"shiva temple","religion":"hindu"},"relations":[],"meta":{"timestamp":"2017-08-11T09:51:58Z","version":1,"changeset":51027691,"user":"gaurav bhattarai","uid":6465157}},"geometry":{"type":"Point","coordinates":[83.9829683,28.1590005]}},{"type":"Feature","id":"node/5028164651","properties":{"type":"node","id":5028164651,"tags":{"amenity":"place_of_worship","name":"kashar mala","religion":"hindu"},"relations":[],"meta":{"timestamp":"2018-04-14T15:06:33Z","version":3,"changeset":58091309,"user":"Amrit Devkota","uid":6497064}},"geometry":{"type":"Point","coordinates":[83.9973758,28.1528461]}},{"type":"Feature","id":"node/5028212447","properties":{"type":"node","id":5028212447,"tags":{"addr:city":"Pokhara Lekhnath Metropolitian City","addr:place":"Shivalaya","amenity":"place_of_worship","name":"Bishwokarma Temple","religion":"hindu"},"relations":[],"meta":{"timestamp":"2017-08-11T10:13:25Z","version":1,"changeset":51028327,"user":"gaurav bhattarai","uid":6465157}},"geometry":{"type":"Point","coordinates":[83.9822683,28.1588184]}},{"type":"Feature","id":"node/5028223163","properties":{"type":"node","id":5028223163,"tags":{"addr:city":"Pokhara Lekhnath Metropolitian City","addr:place":"Foksing","amenity":"place_of_worship","name":"Shiv Mandir","religion":"hindu"},"relations":[],"meta":{"timestamp":"2017-08-11T10:17:44Z","version":1,"changeset":51028445,"user":"gaurav bhattarai","uid":6465157}},"geometry":{"type":"Point","coordinates":[83.9793903,28.1577276]}},{"type":"Feature","id":"node/5028293499","properties":{"type":"node","id":5028293499,"tags":{"addr:city":"Pokhara Lekhnath Metropolitian City","addr:place":"Harrabot","amenity":"place_of_worship","name":"Sarswati Temple","religion":"hindu"},"relations":[],"meta":{"timestamp":"2017-08-11T11:00:34Z","version":1,"changeset":51029661,"user":"gaurav bhattarai","uid":6465157}},"geometry":{"type":"Point","coordinates":[83.9571829,28.167817]}},{"type":"Feature","id":"node/5031560752","properties":{"type":"node","id":5031560752,"tags":{"amenity":"place_of_worship","name":"Durga Mandir","religion":"hindu"},"relations":[],"meta":{"timestamp":"2017-08-13T06:26:02Z","version":1,"changeset":51073007,"user":"Sunita Kc","uid":6474777}},"geometry":{"type":"Point","coordinates":[84.0998442,28.1352215]}},{"type":"Feature","id":"node/5031560806","properties":{"type":"node","id":5031560806,"tags":{"amenity":"place_of_worship","name":"Kalika Mandir","religion":"hindu"},"relations":[],"meta":{"timestamp":"2017-08-13T06:26:03Z","version":1,"changeset":51073007,"user":"Sunita Kc","uid":6474777}},"geometry":{"type":"Point","coordinates":[84.0909849,28.1077749]}},{"type":"Feature","id":"node/5031561431","properties":{"type":"node","id":5031561431,"tags":{"amenity":"place_of_worship","name":"Shiva Temple","religion":"hindu"},"relations":[],"meta":{"timestamp":"2017-08-13T06:26:03Z","version":1,"changeset":51073007,"user":"Sunita Kc","uid":6474777}},"geometry":{"type":"Point","coordinates":[84.0877502,28.1064666]}},{"type":"Feature","id":"node/5031635779","properties":{"type":"node","id":5031635779,"tags":{"amenity":"place_of_worship","name":"Kalirohini Temple","religion":"hindu"},"relations":[],"meta":{"timestamp":"2017-08-13T07:35:10Z","version":1,"changeset":51074079,"user":"Bibek99","uid":6475007}},"geometry":{"type":"Point","coordinates":[83.9038056,28.26804]}},{"type":"Feature","id":"node/5031635820","properties":{"type":"node","id":5031635820,"tags":{"amenity":"place_of_worship","name":"Kaskikot Temple","religion":"hindu"},"relations":[],"meta":{"timestamp":"2017-08-13T07:35:11Z","version":1,"changeset":51074079,"user":"Bibek99","uid":6475007}},"geometry":{"type":"Point","coordinates":[83.8979329,28.2736977]}},{"type":"Feature","id":"node/5031646229","properties":{"type":"node","id":5031646229,"tags":{"amenity":"place_of_worship","name":"Shiva Temple","religion":"hindu"},"relations":[],"meta":{"timestamp":"2017-08-13T07:35:11Z","version":1,"changeset":51074079,"user":"Bibek99","uid":6475007}},"geometry":{"type":"Point","coordinates":[83.8933859,28.2751805]}},{"type":"Feature","id":"node/5031745882","properties":{"type":"node","id":5031745882,"tags":{"amenity":"place_of_worship","name":"Shree Shova Bhagwati Temple","religion":"hindu"},"relations":[],"meta":{"timestamp":"2018-05-13T18:12:05Z","version":2,"changeset":58930764,"user":"Abash Paudel","uid":6677482}},"geometry":{"type":"Point","coordinates":[83.9925472,28.2232361]}},{"type":"Feature","id":"node/5031801484","properties":{"type":"node","id":5031801484,"tags":{"amenity":"place_of_worship","name":"Bhalam Chandi Temple","religion":"hindu","source":"2cpokhara","toilets":"no"},"relations":[],"meta":{"timestamp":"2018-03-13T10:42:14Z","version":3,"changeset":57140891,"user":"mueschel","uid":616774}},"geometry":{"type":"Point","coordinates":[83.9998689,28.246517]}},{"type":"Feature","id":"node/5031814236","properties":{"type":"node","id":5031814236,"tags":{"amenity":"place_of_worship","drinking_water":"no","name":"Ghari Shiva Mandir","religion":"hindu","source":"2cpokhara","toilets":"no"},"relations":[],"meta":{"timestamp":"2018-03-08T19:15:54Z","version":3,"changeset":57010076,"user":"mueschel","uid":616774}},"geometry":{"type":"Point","coordinates":[84.0161587,28.2481804]}},{"type":"Feature","id":"node/5031846931","properties":{"type":"node","id":5031846931,"tags":{"amenity":"place_of_worship","drinking_water":"no","name":"Thanapati Shiva Mandir","religion":"hindu","source":"2cpokhara","toilets":"no"},"relations":[],"meta":{"timestamp":"2018-03-13T10:42:14Z","version":3,"changeset":57140891,"user":"mueschel","uid":616774}},"geometry":{"type":"Point","coordinates":[84.014902,28.254386]}},{"type":"Feature","id":"node/5031860195","properties":{"type":"node","id":5031860195,"tags":{"amenity":"place_of_worship","name":"Shiva Mandir","religion":"hindu","source":"2cpokhara","toilets":"no"},"relations":[],"meta":{"timestamp":"2018-03-13T10:42:14Z","version":3,"changeset":57140891,"user":"mueschel","uid":616774}},"geometry":{"type":"Point","coordinates":[84.0321842,28.2586163]}},{"type":"Feature","id":"node/5031913248","properties":{"type":"node","id":5031913248,"tags":{"ESTD":"2052","amenity":"place_of_worship","contact:phone":"9846287211","name":"Manakamana Temple","religion":"hindu","source":"2cpokhara"},"relations":[],"meta":{"timestamp":"2018-04-05T16:22:24Z","version":2,"changeset":57840743,"user":"Sagarsubedi205","uid":7632456}},"geometry":{"type":"Point","coordinates":[84.1065095,28.2102984]}},{"type":"Feature","id":"node/5031913265","properties":{"type":"node","id":5031913265,"tags":{"amenity":"place_of_worship","name":"Shivalaya Temple","religion":"hindu"},"relations":[],"meta":{"timestamp":"2017-08-13T10:23:11Z","version":1,"changeset":51077690,"user":"Sunita Kc","uid":6474777}},"geometry":{"type":"Point","coordinates":[84.091461,28.2115523]}},{"type":"Feature","id":"node/5031913270","properties":{"type":"node","id":5031913270,"tags":{"amenity":"place_of_worship","name":"Thulakot Bhairab Guthi","religion":"hindu"},"relations":[],"meta":{"timestamp":"2017-08-13T10:23:11Z","version":1,"changeset":51077690,"user":"Sunita Kc","uid":6474777}},"geometry":{"type":"Point","coordinates":[84.0830355,28.2126585]}},{"type":"Feature","id":"node/5061421427","properties":{"type":"node","id":5061421427,"tags":{"amenity":"place_of_worship","religion":"hindu"},"relations":[],"meta":{"timestamp":"2017-08-27T05:58:03Z","version":1,"changeset":51473368,"user":"Ashish Thapa","uid":4039113}},"geometry":{"type":"Point","coordinates":[83.9830595,28.1919859]}},{"type":"Feature","id":"node/5195632523","properties":{"type":"node","id":5195632523,"tags":{"amenity":"place_of_worship","name":"Devi Mandir","religion":"hindu"},"relations":[],"meta":{"timestamp":"2018-04-13T08:26:25Z","version":2,"changeset":58057099,"user":"Manoj Thapa","uid":781054}},"geometry":{"type":"Point","coordinates":[83.8675347,28.2943667]}},{"type":"Feature","id":"node/5246803722","properties":{"type":"node","id":5246803722,"tags":{"amenity":"place_of_worship","name":"Sarasowti Temple","religion":"hindu"},"relations":[],"meta":{"timestamp":"2018-03-07T12:20:58Z","version":2,"changeset":56966929,"user":"Sagarsubedi205","uid":7632456}},"geometry":{"type":"Point","coordinates":[83.9557817,28.188143]}},{"type":"Feature","id":"node/5426069449","properties":{"type":"node","id":5426069449,"tags":{"amenity":"place_of_worship","denomination":"shaivism","name":"Gautam Kul Mandir","religion":"hindu"},"relations":[],"meta":{"timestamp":"2018-02-21T07:25:25Z","version":1,"changeset":56540949,"user":"Bijay adhikari","uid":7643850}},"geometry":{"type":"Point","coordinates":[83.8970518,28.3138028]}},{"type":"Feature","id":"node/5431185112","properties":{"type":"node","id":5431185112,"tags":{"amenity":"place_of_worship","religion":"hindu"},"relations":[],"meta":{"timestamp":"2018-02-23T11:58:50Z","version":1,"changeset":56607665,"user":"Rabin Ojha","uid":6075053}},"geometry":{"type":"Point","coordinates":[83.9941484,28.2971872]}},{"type":"Feature","id":"node/5431591515","properties":{"type":"node","id":5431591515,"tags":{"amenity":"place_of_worship","denomination":"shaivism","name":"Bishnupaduka Mahistan Temple","religion":"hindu","service_times":"open all time"},"relations":[],"meta":{"timestamp":"2018-06-01T07:40:00Z","version":2,"changeset":59452292,"user":"Prakash Paudel15","uid":8317413}},"geometry":{"type":"Point","coordinates":[83.9343613,28.2750819]}},{"type":"Feature","id":"node/5434552606","properties":{"type":"node","id":5434552606,"tags":{"amenity":"place_of_worship","denomination":"shaivism","name":"Ram Janaki Temple","religion":"hindu","service_times":"sunset,sunrise"},"relations":[],"meta":{"timestamp":"2018-02-25T05:44:39Z","version":1,"changeset":56652372,"user":"Bijay adhikari","uid":7643850}},"geometry":{"type":"Point","coordinates":[83.9345169,28.2853439]}},{"type":"Feature","id":"node/5436576874","properties":{"type":"node","id":5436576874,"tags":{"amenity":"place_of_worship","name":"Shiva Mandir","religion":"hindu"},"relations":[],"meta":{"timestamp":"2018-02-26T04:45:05Z","version":1,"changeset":56677361,"user":"cazar","uid":7644110}},"geometry":{"type":"Point","coordinates":[83.8929286,28.2714146]}},{"type":"Feature","id":"node/5436576878","properties":{"type":"node","id":5436576878,"tags":{"amenity":"place_of_worship","name":"Subedi Kul Mandir","religion":"hindu"},"relations":[],"meta":{"timestamp":"2018-02-26T04:45:05Z","version":1,"changeset":56677361,"user":"cazar","uid":7644110}},"geometry":{"type":"Point","coordinates":[83.8894558,28.2726465]}},{"type":"Feature","id":"node/5440501096","properties":{"type":"node","id":5440501096,"tags":{"amenity":"place_of_worship","religion":"hindu"},"relations":[],"meta":{"timestamp":"2018-02-27T16:30:15Z","version":1,"changeset":56727750,"user":"Bijay adhikari","uid":7643850}},"geometry":{"type":"Point","coordinates":[83.9671379,28.2688149]}},{"type":"Feature","id":"node/5453944565","properties":{"type":"node","id":5453944565,"tags":{"amenity":"place_of_worship","religion":"hindu","source":"2c pokhara"},"relations":[],"meta":{"timestamp":"2018-03-04T11:54:23Z","version":1,"changeset":56868714,"user":"Active Asmita","uid":7644107}},"geometry":{"type":"Point","coordinates":[83.9802356,28.2236865]}},{"type":"Feature","id":"node/5455952755","properties":{"type":"node","id":5455952755,"tags":{"amenity":"place_of_worship","name":"Temple","religion":"hindu","source":"2cpokhara"},"relations":[],"meta":{"timestamp":"2018-03-05T08:35:12Z","version":2,"changeset":56894489,"user":"Sagarsubedi205","uid":7632456}},"geometry":{"type":"Point","coordinates":[83.955294,28.1929428]}},{"type":"Feature","id":"node/5456995081","properties":{"type":"node","id":5456995081,"tags":{"amenity":"place_of_worship","name":"Gubta Kalika","religion":"hindu"},"relations":[],"meta":{"timestamp":"2018-03-05T15:07:29Z","version":1,"changeset":56906453,"user":"cazar","uid":7644110}},"geometry":{"type":"Point","coordinates":[83.9044225,28.272089]}},{"type":"Feature","id":"node/5458065123","properties":{"type":"node","id":5458065123,"tags":{"amenity":"place_of_worship","name":"Temple","religion":"hindu","source":"2cpokhara"},"relations":[],"meta":{"timestamp":"2018-03-06T02:41:25Z","version":1,"changeset":56920817,"user":"Sagarsubedi205","uid":7632456}},"geometry":{"type":"Point","coordinates":[83.9589737,28.189602]}},{"type":"Feature","id":"node/5458132970","properties":{"type":"node","id":5458132970,"tags":{"amenity":"place_of_worship","drinking_water":"yes","name":"Divine Peace Palace","phone":"061465620","religion":"hindu","toilets":"yes"},"relations":[],"meta":{"timestamp":"2018-03-08T19:15:54Z","version":2,"changeset":57010076,"user":"mueschel","uid":616774}},"geometry":{"type":"Point","coordinates":[83.9740366,28.1999028]}},{"type":"Feature","id":"node/5459725516","properties":{"type":"node","id":5459725516,"tags":{"amenity":"place_of_worship","name":"Laxmi Narayan Temple","phone":"9847639748","religion":"hindu","source":"2c pokhara"},"relations":[],"meta":{"timestamp":"2018-03-06T16:59:22Z","version":1,"changeset":56941486,"user":"Active Asmita","uid":7644107}},"geometry":{"type":"Point","coordinates":[83.9769025,28.2184867]}},{"type":"Feature","id":"node/5460773151","properties":{"type":"node","id":5460773151,"tags":{"amenity":"place_of_worship","name":"Shiva Mandir","religion":"hindu","source":"2c pokhara"},"relations":[],"meta":{"timestamp":"2018-03-07T02:57:48Z","version":1,"changeset":56954232,"user":"Active Asmita","uid":7644107}},"geometry":{"type":"Point","coordinates":[83.9691372,28.2200733]}},{"type":"Feature","id":"node/5461845332","properties":{"type":"node","id":5461845332,"tags":{"amenity":"place_of_worship","name":"Mata Machindranath Mandir","religion":"hindu","source":"2cpokhara"},"relations":[],"meta":{"timestamp":"2018-03-07T10:49:36Z","version":1,"changeset":56964115,"user":"Sagarsubedi205","uid":7632456}},"geometry":{"type":"Point","coordinates":[83.9518681,28.1925167]}},{"type":"Feature","id":"node/5462088711","properties":{"type":"node","id":5462088711,"tags":{"amenity":"place_of_worship","name":"Sarasowti Temple","religion":"hindu","source":"2cpokhara"},"relations":[],"meta":{"timestamp":"2018-03-07T12:23:48Z","version":2,"changeset":56967015,"user":"Sagarsubedi205","uid":7632456}},"geometry":{"type":"Point","coordinates":[83.9598906,28.1860876]}},{"type":"Feature","id":"node/5462453633","properties":{"type":"node","id":5462453633,"tags":{"amenity":"place_of_worship","name":"Temple","religion":"hindu","source":"2cpokhara"},"relations":[],"meta":{"timestamp":"2018-03-07T15:00:45Z","version":1,"changeset":56971521,"user":"Sagarsubedi205","uid":7632456}},"geometry":{"type":"Point","coordinates":[83.9651544,28.194597]}},{"type":"Feature","id":"node/5462550866","properties":{"type":"node","id":5462550866,"tags":{"amenity":"place_of_worship","name":"Temple","religion":"hindu","source":"2cpokhara"},"relations":[],"meta":{"timestamp":"2018-03-07T15:50:59Z","version":1,"changeset":56973345,"user":"Sagarsubedi205","uid":7632456}},"geometry":{"type":"Point","coordinates":[83.9695506,28.1983142]}},{"type":"Feature","id":"node/5470221965","properties":{"type":"node","id":5470221965,"tags":{"amenity":"place_of_worship","name":"Bharab Mandir","religion":"hindu"},"relations":[],"meta":{"timestamp":"2018-03-11T04:00:06Z","version":1,"changeset":57072647,"user":"cazar","uid":7644110}},"geometry":{"type":"Point","coordinates":[83.9831601,28.2173098]}},{"type":"Feature","id":"node/5470348246","properties":{"type":"node","id":5470348246,"tags":{"amenity":"place_of_worship","drinking_water":"no","religion":"hindu","source":"2cpokhara","toilets":"no"},"relations":[],"meta":{"timestamp":"2018-03-13T10:42:14Z","version":2,"changeset":57140891,"user":"mueschel","uid":616774}},"geometry":{"type":"Point","coordinates":[84.0321902,28.2619344]}},{"type":"Feature","id":"node/5470383956","properties":{"type":"node","id":5470383956,"tags":{"amenity":"place_of_worship","name":"Devi Temple","religion":"hindu","source":"2cpokhara"},"relations":[],"meta":{"timestamp":"2018-03-11T07:17:07Z","version":1,"changeset":57074377,"user":"Madan Acharya","uid":7707025}},"geometry":{"type":"Point","coordinates":[84.0065771,28.2605653]}},{"type":"Feature","id":"node/5470383989","properties":{"type":"node","id":5470383989,"tags":{"amenity":"place_of_worship","drinking_water":"no","religion":"hindu","source":"2cpokhara","toilets":"no"},"relations":[],"meta":{"timestamp":"2018-03-13T10:42:14Z","version":2,"changeset":57140891,"user":"mueschel","uid":616774}},"geometry":{"type":"Point","coordinates":[84.0093076,28.2579394]}},{"type":"Feature","id":"node/5470383991","properties":{"type":"node","id":5470383991,"tags":{"amenity":"place_of_worship","drinking_water":"no","name":"Mahamaya Devi Temple","religion":"hindu","source":"2cpokhara","toilets":"no"},"relations":[],"meta":{"timestamp":"2018-03-13T10:42:14Z","version":2,"changeset":57140891,"user":"mueschel","uid":616774}},"geometry":{"type":"Point","coordinates":[84.006146,28.2511197]}},{"type":"Feature","id":"node/5470403732","properties":{"type":"node","id":5470403732,"tags":{"contact:phone":"9825169032","name":"Anita Vabisya Badhi Kendra","office":"fortune forcast","religion":"hindu","source":"2cpokhara"},"relations":[],"meta":{"timestamp":"2018-03-11T07:35:55Z","version":1,"changeset":57074580,"user":"Amrit Devkota","uid":6497064}},"geometry":{"type":"Point","coordinates":[84.0794266,28.1492567]}},{"type":"Feature","id":"node/5470403738","properties":{"type":"node","id":5470403738,"tags":{"amenity":"place_of_worship","name":"OM Shiva Mandir Dhungaepatan","religion":"hindu","source":"2cpokhara"},"relations":[],"meta":{"timestamp":"2018-03-11T07:35:55Z","version":1,"changeset":57074580,"user":"Amrit Devkota","uid":6497064}},"geometry":{"type":"Point","coordinates":[84.0784442,28.1497634]}},{"type":"Feature","id":"node/5470473712","properties":{"type":"node","id":5470473712,"tags":{"amenity":"place_of_worship","name":"Siddhayaswor Shiva Mandir","religion":"hindu"},"relations":[],"meta":{"timestamp":"2018-03-11T08:33:58Z","version":1,"changeset":57075309,"user":"Amrit Devkota","uid":6497064}},"geometry":{"type":"Point","coordinates":[84.0776885,28.1541916]}},{"type":"Feature","id":"node/5470474234","properties":{"type":"node","id":5470474234,"tags":{"amenity":"place_of_worship","name":"Shiva Mandir","religion":"hindu","source":"2cpokhara"},"relations":[],"meta":{"timestamp":"2018-03-11T08:33:58Z","version":1,"changeset":57075309,"user":"Amrit Devkota","uid":6497064}},"geometry":{"type":"Point","coordinates":[84.084852,28.1547557]}},{"type":"Feature","id":"node/5470481243","properties":{"type":"node","id":5470481243,"tags":{"amenity":"place_of_worship","name":"Shiva Mandir","religion":"hindu"},"relations":[],"meta":{"timestamp":"2018-03-11T08:38:24Z","version":1,"changeset":57075349,"user":"sandip parajuli","uid":7668145}},"geometry":{"type":"Point","coordinates":[84.064942,28.1526095]}},{"type":"Feature","id":"node/5472132064","properties":{"type":"node","id":5472132064,"tags":{"amenity":"place_of_worship","religion":"hindu","source":"2cpokhara"},"relations":[],"meta":{"timestamp":"2018-03-12T05:41:49Z","version":1,"changeset":57099709,"user":"Sagarsubedi205","uid":7632456}},"geometry":{"type":"Point","coordinates":[83.9872089,28.1802373]}},{"type":"Feature","id":"node/5472132082","properties":{"type":"node","id":5472132082,"tags":{"amenity":"place_of_worship","drinking_water":"yes","name":"Shree Sadaji Siddheshwor Harihar Mandir","religion":"hindu","source":"2cpokhara","toilets":"yes"},"relations":[],"meta":{"timestamp":"2018-03-13T10:42:15Z","version":2,"changeset":57140891,"user":"mueschel","uid":616774}},"geometry":{"type":"Point","coordinates":[83.9925975,28.1766306]}},{"type":"Feature","id":"node/5472132084","properties":{"type":"node","id":5472132084,"tags":{"amenity":"place_of_worship","religion":"hindu","source":"2cpokhara"},"relations":[],"meta":{"timestamp":"2018-03-12T05:41:50Z","version":1,"changeset":57099709,"user":"Sagarsubedi205","uid":7632456}},"geometry":{"type":"Point","coordinates":[83.9923145,28.1760826]}},{"type":"Feature","id":"node/5472132098","properties":{"type":"node","id":5472132098,"tags":{"amenity":"place_of_worship","name":"Temple","religion":"hindu","source":"2cpokhara"},"relations":[],"meta":{"timestamp":"2018-03-12T05:41:50Z","version":1,"changeset":57099709,"user":"Sagarsubedi205","uid":7632456}},"geometry":{"type":"Point","coordinates":[83.9834974,28.1891881]}},{"type":"Feature","id":"node/5472153404","properties":{"type":"node","id":5472153404,"tags":{"amenity":"place_of_worship","name":"Om Karyeshor Mandir","religion":"hindu","source":"2cpokhara"},"relations":[],"meta":{"timestamp":"2018-03-12T06:08:18Z","version":1,"changeset":57100126,"user":"Sagarsubedi205","uid":7632456}},"geometry":{"type":"Point","coordinates":[83.9823984,28.1917519]}},{"type":"Feature","id":"node/5472541771","properties":{"type":"node","id":5472541771,"tags":{"amenity":"place_of_worship","name":"Shree Bishwo Karma Mandir","religion":"hindu"},"relations":[],"meta":{"timestamp":"2018-03-12T09:30:22Z","version":1,"changeset":57104722,"user":"sandip parajuli","uid":7668145}},"geometry":{"type":"Point","coordinates":[84.0675464,28.1500046]}},{"type":"Feature","id":"node/5472577962","properties":{"type":"node","id":5472577962,"tags":{"amenity":"place_of_worship","name":"Shiva Mandir","religion":"hindu"},"relations":[],"meta":{"timestamp":"2018-03-12T09:47:15Z","version":1,"changeset":57105245,"user":"sandip parajuli","uid":7668145}},"geometry":{"type":"Point","coordinates":[84.0569946,28.1449068]}},{"type":"Feature","id":"node/5477468109","properties":{"type":"node","id":5477468109,"tags":{"amenity":"place_of_worship","name":"Bhume Kalika","opening_hours":"sunrise-sunset","religion":"hindu"},"relations":[],"meta":{"timestamp":"2018-03-14T09:23:35Z","version":1,"changeset":57171093,"user":"LonelyNarayan","uid":7644124}},"geometry":{"type":"Point","coordinates":[83.948691,28.2460917]}},{"type":"Feature","id":"node/5477836371","properties":{"type":"node","id":5477836371,"tags":{"amenity":"place_of_worship","name":"Kalika Temple","religion":"hindu"},"relations":[],"meta":{"timestamp":"2018-03-14T12:03:17Z","version":1,"changeset":57176072,"user":"LonelyNarayan","uid":7644124}},"geometry":{"type":"Point","coordinates":[83.9799549,28.2411529]}},{"type":"Feature","id":"node/5479218516","properties":{"type":"node","id":5479218516,"tags":{"amenity":"place_of_worship","name":"Lord Shiva Temple","opening_hours":"sunrise-sunset","religion":"hindu"},"relations":[],"meta":{"timestamp":"2018-03-15T02:38:28Z","version":1,"changeset":57195657,"user":"LonelyNarayan","uid":7644124}},"geometry":{"type":"Point","coordinates":[83.9706553,28.2458507]}},{"type":"Feature","id":"node/5486091364","properties":{"type":"node","id":5486091364,"tags":{"amenity":"place_of_worship","religion":"hindu"},"relations":[],"meta":{"timestamp":"2018-03-18T10:32:26Z","version":1,"changeset":57286895,"user":"reenuka","uid":7644128}},"geometry":{"type":"Point","coordinates":[84.052121,28.1708625]}},{"type":"Feature","id":"node/5488344443","properties":{"type":"node","id":5488344443,"tags":{"amenity":"place_of_worship","name":"Shiva Temple","opening_hours":"sunrise-sunset","religion":"hindu"},"relations":[],"meta":{"timestamp":"2018-03-19T10:07:33Z","version":1,"changeset":57312754,"user":"LonelyNarayan","uid":7644124}},"geometry":{"type":"Point","coordinates":[83.9258225,28.2349953]}},{"type":"Feature","id":"node/5498304774","properties":{"type":"node","id":5498304774,"tags":{"amenity":"place_of_worship","name":"Timilsina Kul Mandir","religion":"hindu"},"relations":[],"meta":{"timestamp":"2018-03-23T08:34:34Z","version":1,"changeset":57447929,"user":"LonelyNarayan","uid":7644124}},"geometry":{"type":"Point","coordinates":[83.9310917,28.248308]}},{"type":"Feature","id":"node/5498511392","properties":{"type":"node","id":5498511392,"tags":{"amenity":"place_of_worship","name":"Mahadev Temple","opening_hours":"sunrise-sunset","religion":"hindu"},"relations":[],"meta":{"timestamp":"2018-03-23T10:10:32Z","version":1,"changeset":57451260,"user":"LonelyNarayan","uid":7644124}},"geometry":{"type":"Point","coordinates":[83.9423852,28.2450621]}},{"type":"Feature","id":"node/5498522275","properties":{"type":"node","id":5498522275,"tags":{"amenity":"place_of_worship","name":"Mahadev Temple","religion":"hindu"},"relations":[],"meta":{"timestamp":"2018-03-23T10:20:59Z","version":1,"changeset":57451565,"user":"LonelyNarayan","uid":7644124}},"geometry":{"type":"Point","coordinates":[83.9387079,28.2454762]}},{"type":"Feature","id":"node/5498522276","properties":{"type":"node","id":5498522276,"tags":{"amenity":"place_of_worship","name":"Lammichane Thapa Kulmandir","religion":"hindu"},"relations":[],"meta":{"timestamp":"2018-03-23T10:20:59Z","version":1,"changeset":57451565,"user":"LonelyNarayan","uid":7644124}},"geometry":{"type":"Point","coordinates":[83.9385617,28.2453769]}},{"type":"Feature","id":"node/5500028601","properties":{"type":"node","id":5500028601,"tags":{"amenity":"place_of_worship","name":"Devi Temple","religion":"hindu"},"relations":[],"meta":{"timestamp":"2018-03-24T00:47:02Z","version":1,"changeset":57473095,"user":"LonelyNarayan","uid":7644124}},"geometry":{"type":"Point","coordinates":[83.9403252,28.2386946]}},{"type":"Feature","id":"node/5500041521","properties":{"type":"node","id":5500041521,"tags":{"amenity":"place_of_worship","name":"Baraha Devi","opening_hours":"sunrise-sunset","religion":"hindu"},"relations":[],"meta":{"timestamp":"2018-03-24T01:10:25Z","version":1,"changeset":57473324,"user":"LonelyNarayan","uid":7644124}},"geometry":{"type":"Point","coordinates":[83.9657687,28.2364155]}},{"type":"Feature","id":"node/5505979658","properties":{"type":"node","id":5505979658,"tags":{"amenity":"place_of_worship","name":"Mudula Karki Kul Mandir","opening_hours":"sunrise-sunset","religion":"hindu"},"relations":[],"meta":{"timestamp":"2018-03-26T14:42:29Z","version":1,"changeset":57537927,"user":"LonelyNarayan","uid":7644124}},"geometry":{"type":"Point","coordinates":[83.924405,28.2560588]}},{"type":"Feature","id":"node/5506973610","properties":{"type":"node","id":5506973610,"tags":{"amenity":"place_of_worship","name":"Timilsina Kul Mandir","opening_hours":"sunrise-sunset","religion":"hindu"},"relations":[],"meta":{"timestamp":"2018-03-27T02:17:10Z","version":1,"changeset":57552826,"user":"LonelyNarayan","uid":7644124}},"geometry":{"type":"Point","coordinates":[83.907672,28.2591585]}},{"type":"Feature","id":"node/5506973612","properties":{"type":"node","id":5506973612,"tags":{"amenity":"place_of_worship","name":"Devi Temple","religion":"hindu"},"relations":[],"meta":{"timestamp":"2018-03-27T02:17:10Z","version":1,"changeset":57552826,"user":"LonelyNarayan","uid":7644124}},"geometry":{"type":"Point","coordinates":[83.9086014,28.2602228]}},{"type":"Feature","id":"node/5509834492","properties":{"type":"node","id":5509834492,"tags":{"amenity":"place_of_worship","name":"Lord Shiva Temple","opening_hours":"sunrise-sunset","religion":"hindu"},"relations":[],"meta":{"timestamp":"2018-03-28T03:26:31Z","version":1,"changeset":57586089,"user":"LonelyNarayan","uid":7644124}},"geometry":{"type":"Point","coordinates":[83.9052996,28.2358649]}},{"type":"Feature","id":"node/5515336763","properties":{"type":"node","id":5515336763,"tags":{"amenity":"place_of_worship","name":"Lamichhanae Pooja Pasal","religion":"hindu","source":"2cpokhara"},"relations":[],"meta":{"timestamp":"2018-03-29T23:24:59Z","version":1,"changeset":57648719,"user":"Amrit Devkota","uid":6497064}},"geometry":{"type":"Point","coordinates":[84.0839284,28.1648102]}},{"type":"Feature","id":"node/5515336777","properties":{"type":"node","id":5515336777,"tags":{"amenity":"place_of_worship","name":"Temple","religion":"hindu","source":"2cpokhara"},"relations":[],"meta":{"timestamp":"2018-03-29T23:25:00Z","version":1,"changeset":57648719,"user":"Amrit Devkota","uid":6497064}},"geometry":{"type":"Point","coordinates":[84.0695668,28.1635507]}},{"type":"Feature","id":"node/5515336799","properties":{"type":"node","id":5515336799,"tags":{"amenity":"place_of_worship","name":"Kagyashwor Shiva Mandir","religion":"hindu","source":"2cpokhara"},"relations":[],"meta":{"timestamp":"2018-03-29T23:25:01Z","version":1,"changeset":57648719,"user":"Amrit Devkota","uid":6497064}},"geometry":{"type":"Point","coordinates":[84.0772761,28.1654909]}},{"type":"Feature","id":"node/5515336800","properties":{"type":"node","id":5515336800,"tags":{"amenity":"place_of_worship","name":"Shree Mukti Sadhan","religion":"hindu","source":"2cpokhara"},"relations":[],"meta":{"timestamp":"2018-03-29T23:25:01Z","version":1,"changeset":57648719,"user":"Amrit Devkota","uid":6497064}},"geometry":{"type":"Point","coordinates":[84.0772305,28.1649216]}},{"type":"Feature","id":"node/5517629161","properties":{"type":"node","id":5517629161,"tags":{"amenity":"place_of_worship","name":"Temple","religion":"hindu"},"relations":[],"meta":{"timestamp":"2018-03-31T03:08:39Z","version":1,"changeset":57678404,"user":"Amrit Devkota","uid":6497064}},"geometry":{"type":"Point","coordinates":[84.0879862,28.1419576]}},{"type":"Feature","id":"node/5517629163","properties":{"type":"node","id":5517629163,"tags":{"amenity":"place_of_worship","name":"Sasae Mai Mandir","religion":"hindu"},"relations":[],"meta":{"timestamp":"2018-03-31T03:08:40Z","version":1,"changeset":57678404,"user":"Amrit Devkota","uid":6497064}},"geometry":{"type":"Point","coordinates":[84.0849392,28.1394623]}},{"type":"Feature","id":"node/5517629203","properties":{"type":"node","id":5517629203,"tags":{"amenity":"place_of_worship","name":"Saraswati Mandir","religion":"hindu","source":"2cpokhara"},"relations":[],"meta":{"timestamp":"2018-03-31T03:08:41Z","version":1,"changeset":57678404,"user":"Amrit Devkota","uid":6497064}},"geometry":{"type":"Point","coordinates":[84.0799563,28.134885]}},{"type":"Feature","id":"node/5517692028","properties":{"type":"node","id":5517692028,"tags":{"amenity":"place_of_worship","name":"Saraswati Mandir","religion":"hindu"},"relations":[],"meta":{"timestamp":"2018-03-31T04:18:51Z","version":1,"changeset":57679072,"user":"Amrit Devkota","uid":6497064}},"geometry":{"type":"Point","coordinates":[84.081105,28.1325865]}},{"type":"Feature","id":"node/5517954434","properties":{"type":"node","id":5517954434,"tags":{"amenity":"place_of_worship","name":"Shree Ram Mandir","religion":"hindu"},"relations":[],"meta":{"timestamp":"2018-03-31T07:48:52Z","version":1,"changeset":57681583,"user":"Amrit Devkota","uid":6497064}},"geometry":{"type":"Point","coordinates":[84.0833262,28.1353164]}},{"type":"Feature","id":"node/5517954435","properties":{"type":"node","id":5517954435,"tags":{"amenity":"place_of_worship","name":"Aatma Gyan Prachar Sangh","religion":"hindu","source":"2cpokhara"},"relations":[],"meta":{"timestamp":"2018-06-04T06:36:43Z","version":2,"changeset":59524800,"user":"Gaurav Thapa","uid":4212590}},"geometry":{"type":"Point","coordinates":[84.0833054,28.1354003]}},{"type":"Feature","id":"node/5517954448","properties":{"type":"node","id":5517954448,"tags":{"amenity":"place_of_worship","name":"Mandir","religion":"hindu","source":"2cpokhara"},"relations":[],"meta":{"timestamp":"2018-03-31T07:48:52Z","version":1,"changeset":57681583,"user":"Amrit Devkota","uid":6497064}},"geometry":{"type":"Point","coordinates":[84.0836544,28.1344368]}},{"type":"Feature","id":"node/5519011133","properties":{"type":"node","id":5519011133,"tags":{"amenity":"place_of_worship","name":"Shiva Mandir","religion":"hindu"},"relations":[],"meta":{"timestamp":"2018-03-31T17:48:33Z","version":1,"changeset":57695080,"user":"Amrit Devkota","uid":6497064}},"geometry":{"type":"Point","coordinates":[84.0266273,28.1550152]}},{"type":"Feature","id":"node/5520184545","properties":{"type":"node","id":5520184545,"tags":{"amenity":"place_of_worship","religion":"hindu","source":"2cpokhara"},"relations":[],"meta":{"timestamp":"2018-04-01T11:39:22Z","version":1,"changeset":57710171,"user":"Sagarsubedi205","uid":7632456}},"geometry":{"type":"Point","coordinates":[84.0447034,28.1449742]}},{"type":"Feature","id":"node/5520225183","properties":{"type":"node","id":5520225183,"tags":{"amenity":"place_of_worship","religion":"hindu","source":"2cpokhara"},"relations":[],"meta":{"timestamp":"2018-04-01T12:00:11Z","version":1,"changeset":57710569,"user":"Sagarsubedi205","uid":7632456}},"geometry":{"type":"Point","coordinates":[84.0429278,28.1461946]}},{"type":"Feature","id":"node/5520522862","properties":{"type":"node","id":5520522862,"tags":{"amenity":"place_of_worship","religion":"hindu","source":"2cpokhara"},"relations":[],"meta":{"timestamp":"2018-04-01T15:09:40Z","version":1,"changeset":57714583,"user":"Sagarsubedi205","uid":7632456}},"geometry":{"type":"Point","coordinates":[84.0344869,28.1468733]}},{"type":"Feature","id":"node/5520522864","properties":{"type":"node","id":5520522864,"tags":{"amenity":"place_of_worship","name":"Aadhait SatSang Mandir","religion":"hindu","source":"2cpokhara"},"relations":[],"meta":{"timestamp":"2018-04-01T15:09:40Z","version":1,"changeset":57714583,"user":"Sagarsubedi205","uid":7632456}},"geometry":{"type":"Point","coordinates":[84.0335494,28.1469691]}},{"type":"Feature","id":"node/5520566220","properties":{"type":"node","id":5520566220,"tags":{"amenity":"place_of_worship","name":"Mahakalika Mandir","religion":"hindu"},"relations":[],"meta":{"timestamp":"2018-04-01T15:35:39Z","version":1,"changeset":57715309,"user":"Sagarsubedi205","uid":7632456}},"geometry":{"type":"Point","coordinates":[84.0442783,28.1285524]}},{"type":"Feature","id":"node/5520566322","properties":{"type":"node","id":5520566322,"tags":{"amenity":"place_of_worship","religion":"hindu"},"relations":[],"meta":{"timestamp":"2018-04-01T15:35:40Z","version":1,"changeset":57715309,"user":"Sagarsubedi205","uid":7632456}},"geometry":{"type":"Point","coordinates":[84.0358025,28.1317125]}},{"type":"Feature","id":"node/5520566327","properties":{"type":"node","id":5520566327,"tags":{"amenity":"place_of_worship","religion":"hindu","source":"2cpokhara"},"relations":[],"meta":{"timestamp":"2018-04-01T15:35:40Z","version":1,"changeset":57715309,"user":"Sagarsubedi205","uid":7632456}},"geometry":{"type":"Point","coordinates":[84.0259789,28.1374235]}},{"type":"Feature","id":"node/5520587145","properties":{"type":"node","id":5520587145,"tags":{"ESTD":"2050 B.S","amenity":"place_of_worship","name":"Shiva Mandir","religion":"hindu","source":"2cpokhara"},"relations":[],"meta":{"timestamp":"2018-04-01T15:50:05Z","version":1,"changeset":57715695,"user":"Sagarsubedi205","uid":7632456}},"geometry":{"type":"Point","coordinates":[84.0468612,28.1227877]}},{"type":"Feature","id":"node/5520587149","properties":{"type":"node","id":5520587149,"tags":{"amenity":"place_of_worship","religion":"hindu","source":"2cpokhara"},"relations":[],"meta":{"timestamp":"2018-04-01T15:50:05Z","version":1,"changeset":57715695,"user":"Sagarsubedi205","uid":7632456}},"geometry":{"type":"Point","coordinates":[84.0294778,28.1355644]}},{"type":"Feature","id":"node/5520862115","properties":{"type":"node","id":5520862115,"tags":{"amenity":"place_of_worship","name":"Mandir","religion":"hindu","source":"2cpokhara"},"relations":[],"meta":{"timestamp":"2018-04-01T18:33:54Z","version":1,"changeset":57719622,"user":"Amrit Devkota","uid":6497064}},"geometry":{"type":"Point","coordinates":[84.0688265,28.1216694]}},{"type":"Feature","id":"node/5522671552","properties":{"type":"node","id":5522671552,"tags":{"amenity":"place_of_worship","name":"Mandir","religion":"hindu","source":"2cpokhara"},"relations":[],"meta":{"timestamp":"2018-04-02T14:10:53Z","version":1,"changeset":57740723,"user":"Amrit Devkota","uid":6497064}},"geometry":{"type":"Point","coordinates":[84.0484136,28.1408128]}},{"type":"Feature","id":"node/5530396402","properties":{"type":"node","id":5530396402,"tags":{"amenity":"place_of_worship","religion":"hindu"},"relations":[],"meta":{"timestamp":"2018-04-05T10:16:35Z","version":1,"changeset":57829877,"user":"Manoj Thapa","uid":781054}},"geometry":{"type":"Point","coordinates":[83.9445122,28.2721728]}},{"type":"Feature","id":"node/5531255782","properties":{"type":"node","id":5531255782,"tags":{"amenity":"place_of_worship","name":"Temple","religion":"hindu","source":"2cpokhara"},"relations":[],"meta":{"timestamp":"2018-04-05T15:56:12Z","version":1,"changeset":57839996,"user":"Amrit Devkota","uid":6497064}},"geometry":{"type":"Point","coordinates":[84.055514,28.2116256]}},{"type":"Feature","id":"node/5531277742","properties":{"type":"node","id":5531277742,"tags":{"amenity":"place_of_worship","name":"Temple","religion":"hindu","source":"2cpokhara"},"relations":[],"meta":{"timestamp":"2018-04-05T16:10:27Z","version":1,"changeset":57840436,"user":"Amrit Devkota","uid":6497064}},"geometry":{"type":"Point","coordinates":[84.0673439,28.2151508]}},{"type":"Feature","id":"node/5531278735","properties":{"type":"node","id":5531278735,"tags":{"amenity":"place_of_worship","name":"Maharudhra Shivalaya Mandir","religion":"hindu","source":"2cpokhara"},"relations":[],"meta":{"timestamp":"2018-04-05T16:09:08Z","version":1,"changeset":57840402,"user":"Sagarsubedi205","uid":7632456}},"geometry":{"type":"Point","coordinates":[84.1114669,28.2041791]}},{"type":"Feature","id":"node/5531278747","properties":{"type":"node","id":5531278747,"tags":{"amenity":"place_of_worship","name":"Tiwari Kal Mandir","religion":"hindu","source":"2cpokhara"},"relations":[],"meta":{"timestamp":"2018-04-05T16:09:09Z","version":1,"changeset":57840402,"user":"Sagarsubedi205","uid":7632456}},"geometry":{"type":"Point","coordinates":[84.1129656,28.2021165]}},{"type":"Feature","id":"node/5531322424","properties":{"type":"node","id":5531322424,"tags":{"historic":"wayside_shrine","religion":"hindu","source":"2cpokhara"},"relations":[],"meta":{"timestamp":"2018-04-05T16:22:24Z","version":1,"changeset":57840743,"user":"Sagarsubedi205","uid":7632456}},"geometry":{"type":"Point","coordinates":[84.1080806,28.2092496]}},{"type":"Feature","id":"node/5534085296","properties":{"type":"node","id":5534085296,"tags":{"amenity":"place_of_worship","name":"Temple","religion":"hindu","source":"2cpokhara"},"relations":[],"meta":{"timestamp":"2018-04-06T16:05:17Z","version":1,"changeset":57870313,"user":"Amrit Devkota","uid":6497064}},"geometry":{"type":"Point","coordinates":[84.0797827,28.2088247]}},{"type":"Feature","id":"node/5543097188","properties":{"type":"node","id":5543097188,"tags":{"amenity":"place_of_worship","name":"Saraswati Temple","religion":"hindu","source":"2cpokhara"},"relations":[],"meta":{"timestamp":"2018-04-10T14:50:54Z","version":1,"changeset":57975078,"user":"Active Asmita","uid":7644107}},"geometry":{"type":"Point","coordinates":[83.9888694,28.2149516]}},{"type":"Feature","id":"node/5549727810","properties":{"type":"node","id":5549727810,"tags":{"amenity":"place_of_worship","name":"Shiva Hari Mandir","religion":"hindu","source":"2cpokhara"},"relations":[],"meta":{"timestamp":"2018-04-13T08:47:51Z","version":1,"changeset":58057634,"user":"Manoj Thapa","uid":781054}},"geometry":{"type":"Point","coordinates":[83.9540756,28.1859729]}},{"type":"Feature","id":"node/5550450327","properties":{"type":"node","id":5550450327,"tags":{"amenity":"place_of_worship","religion":"hindu","source":"2cpokhara"},"relations":[],"meta":{"timestamp":"2018-04-13T14:48:27Z","version":1,"changeset":58066812,"user":"Sagarsubedi205","uid":7632456}},"geometry":{"type":"Point","coordinates":[83.9497921,28.1842364]}},{"type":"Feature","id":"node/5550547039","properties":{"type":"node","id":5550547039,"tags":{"amenity":"place_of_worship","religion":"hindu","source":"2cpokhara"},"relations":[],"meta":{"timestamp":"2018-04-13T15:40:43Z","version":1,"changeset":58068073,"user":"Sagarsubedi205","uid":7632456}},"geometry":{"type":"Point","coordinates":[83.9540179,28.1565984]}},{"type":"Feature","id":"node/5550547046","properties":{"type":"node","id":5550547046,"tags":{"amenity":"place_of_worship","name":"Shiva Mandir","religion":"hindu","source":"2cpokhara"},"relations":[],"meta":{"timestamp":"2018-04-13T15:40:44Z","version":1,"changeset":58068073,"user":"Sagarsubedi205","uid":7632456}},"geometry":{"type":"Point","coordinates":[83.9545678,28.1567066]}},{"type":"Feature","id":"node/5550641551","properties":{"type":"node","id":5550641551,"tags":{"amenity":"place_of_worship","name":"Mandir","religion":"hindu","source":"2cpokhara"},"relations":[],"meta":{"timestamp":"2018-04-13T16:28:30Z","version":1,"changeset":58069326,"user":"Amrit Devkota","uid":6497064}},"geometry":{"type":"Point","coordinates":[83.9685823,28.1602609]}},{"type":"Feature","id":"node/5550675438","properties":{"type":"node","id":5550675438,"tags":{"amenity":"place_of_worship","name":"Bishwakarma Baba Mandir","religion":"hindu","source":"2cpokhara"},"relations":[],"meta":{"timestamp":"2018-04-13T16:50:56Z","version":1,"changeset":58069920,"user":"Amrit Devkota","uid":6497064}},"geometry":{"type":"Point","coordinates":[83.9815843,28.1584235]}},{"type":"Feature","id":"node/5550711334","properties":{"type":"node","id":5550711334,"tags":{"amenity":"place_of_worship","name":"Madha","religion":"hindu","source":"2cpokhara"},"relations":[],"meta":{"timestamp":"2018-04-13T17:11:09Z","version":1,"changeset":58070598,"user":"Amrit Devkota","uid":6497064}},"geometry":{"type":"Point","coordinates":[83.9906099,28.1577034]}},{"type":"Feature","id":"node/5550711335","properties":{"type":"node","id":5550711335,"tags":{"amenity":"place_of_worship","name":"Durga Vagwati Mandir","religion":"hindu","source":"2cpokhara"},"relations":[],"meta":{"timestamp":"2018-04-13T17:11:09Z","version":1,"changeset":58070598,"user":"Amrit Devkota","uid":6497064}},"geometry":{"type":"Point","coordinates":[83.9906582,28.1577826]}},{"type":"Feature","id":"node/5551682367","properties":{"type":"node","id":5551682367,"tags":{"amenity":"place_of_worship","name":"Mandir","religion":"hindu","source":"2cpokhara"},"relations":[],"meta":{"timestamp":"2018-04-14T02:24:54Z","version":1,"changeset":58080290,"user":"Amrit Devkota","uid":6497064}},"geometry":{"type":"Point","coordinates":[83.9956833,28.153721]}},{"type":"Feature","id":"node/5552008215","properties":{"type":"node","id":5552008215,"tags":{"amenity":"place_of_worship","name":"Ganesh mandir","religion":"hindu"},"relations":[],"meta":{"timestamp":"2018-04-14T08:11:11Z","version":1,"changeset":58083865,"user":"Bijay adhikari","uid":7643850}},"geometry":{"type":"Point","coordinates":[83.9856083,28.2376963]}},{"type":"Feature","id":"node/5552634992","properties":{"type":"node","id":5552634992,"tags":{"amenity":"place_of_worship","name":"Temple","religion":"hindu"},"relations":[],"meta":{"timestamp":"2018-04-14T15:06:30Z","version":1,"changeset":58091309,"user":"Amrit Devkota","uid":6497064}},"geometry":{"type":"Point","coordinates":[83.9999735,28.1517901]}},{"type":"Feature","id":"node/5553930276","properties":{"type":"node","id":5553930276,"tags":{"amenity":"place_of_worship","name":"Temple","religion":"hindu"},"relations":[],"meta":{"timestamp":"2018-04-15T06:58:42Z","version":1,"changeset":58103563,"user":"Amrit Devkota","uid":6497064}},"geometry":{"type":"Point","coordinates":[83.9999735,28.1517901]}},{"type":"Feature","id":"node/5554009396","properties":{"type":"node","id":5554009396,"tags":{"amenity":"place_of_worship","name":"Mandir","religion":"hindu","source":"2cpokhara"},"relations":[],"meta":{"timestamp":"2018-04-15T07:49:59Z","version":1,"changeset":58104391,"user":"Amrit Devkota","uid":6497064}},"geometry":{"type":"Point","coordinates":[84.0167736,28.1413651]}},{"type":"Feature","id":"node/5554009402","properties":{"type":"node","id":5554009402,"tags":{"amenity":"place_of_worship","name":"Bhimsen tatha Ganesh mandir","religion":"hindu"},"relations":[],"meta":{"timestamp":"2018-04-15T07:49:59Z","version":1,"changeset":58104391,"user":"Amrit Devkota","uid":6497064}},"geometry":{"type":"Point","coordinates":[84.0089348,28.1480227]}},{"type":"Feature","id":"node/5556787485","properties":{"type":"node","id":5556787485,"tags":{"amenity":"place_of_worship","name":"Shiva Mandir","religion":"hindu","source":"2cpokhara"},"relations":[],"meta":{"timestamp":"2018-04-16T14:02:25Z","version":1,"changeset":58139154,"user":"Amrit Devkota","uid":6497064}},"geometry":{"type":"Point","coordinates":[84.0235408,28.1406952]}},{"type":"Feature","id":"node/5565469735","properties":{"type":"node","id":5565469735,"tags":{"amenity":"place_of_worship","name":"Mai KO Than","religion":"hindu"},"relations":[],"meta":{"timestamp":"2018-04-20T01:41:00Z","version":1,"changeset":58249307,"user":"LonelyNarayan","uid":7644124}},"geometry":{"type":"Point","coordinates":[83.9109128,28.2258965]}},{"type":"Feature","id":"node/5576636497","properties":{"type":"node","id":5576636497,"tags":{"amenity":"place_of_worship","drinking_water":"no","name":"Shiva Mandir","religion":"hindu","source":"2c peset","toilets":"no"},"relations":[],"meta":{"timestamp":"2018-04-25T09:51:15Z","version":2,"changeset":58402755,"user":"mueschel","uid":616774}},"geometry":{"type":"Point","coordinates":[83.9824233,28.2093772]}},{"type":"Feature","id":"node/5577883614","properties":{"type":"node","id":5577883614,"tags":{"amenity":"place_of_worship","drinking_water":"no","name":"Saraswoti Mandir","religion":"hindu","source":"2c peset","toilets":"no"},"relations":[],"meta":{"timestamp":"2018-04-25T09:51:15Z","version":2,"changeset":58402755,"user":"mueschel","uid":616774}},"geometry":{"type":"Point","coordinates":[83.9772821,28.2044015]}},{"type":"Feature","id":"node/5577883615","properties":{"type":"node","id":5577883615,"tags":{"amenity":"place_of_worship","name":"Shiva Mandir","religion":"hindu","source":"2c peset"},"relations":[],"meta":{"timestamp":"2018-05-03T17:28:15Z","version":2,"changeset":58655062,"user":"mueschel","uid":616774}},"geometry":{"type":"Point","coordinates":[83.9772516,28.2119825]}},{"type":"Feature","id":"node/5579903415","properties":{"type":"node","id":5579903415,"tags":{"amenity":"place_of_worship","name":"shiva Mandir","religion":"hindu"},"relations":[],"meta":{"timestamp":"2018-04-26T07:50:06Z","version":1,"changeset":58433851,"user":"reenuka","uid":7644128}},"geometry":{"type":"Point","coordinates":[84.0953553,28.1313233]}},{"type":"Feature","id":"node/5580150197","properties":{"type":"node","id":5580150197,"tags":{"amenity":"place_of_worship","name":"Malaya Patan Temple","religion":"hindu"},"relations":[],"meta":{"timestamp":"2018-04-26T10:11:33Z","version":1,"changeset":58437964,"user":"reenuka","uid":7644128}},"geometry":{"type":"Point","coordinates":[84.1133612,28.1118672]}},{"type":"Feature","id":"node/5581851723","properties":{"type":"node","id":5581851723,"tags":{"amenity":"place_of_worship","name":"Sarswati Temple","religion":"hindu"},"relations":[],"meta":{"timestamp":"2018-04-27T06:27:45Z","version":1,"changeset":58465666,"user":"Kshitizraj Sharma","uid":7004124}},"geometry":{"type":"Point","coordinates":[84.1148257,28.1880805]}},{"type":"Feature","id":"node/5581851724","properties":{"type":"node","id":5581851724,"tags":{"amenity":"place_of_worship","religion":"hindu"},"relations":[],"meta":{"timestamp":"2018-04-27T06:27:45Z","version":1,"changeset":58465666,"user":"Kshitizraj Sharma","uid":7004124}},"geometry":{"type":"Point","coordinates":[84.1170198,28.1868914]}},{"type":"Feature","id":"node/5581851740","properties":{"type":"node","id":5581851740,"tags":{"amenity":"place_of_worship","religion":"hindu"},"relations":[],"meta":{"timestamp":"2018-04-27T06:27:46Z","version":1,"changeset":58465666,"user":"Kshitizraj Sharma","uid":7004124}},"geometry":{"type":"Point","coordinates":[84.1236468,28.180057]}},{"type":"Feature","id":"node/5581851755","properties":{"type":"node","id":5581851755,"tags":{"amenity":"place_of_worship","religion":"hindu"},"relations":[],"meta":{"timestamp":"2018-04-27T06:27:46Z","version":1,"changeset":58465666,"user":"Kshitizraj Sharma","uid":7004124}},"geometry":{"type":"Point","coordinates":[84.1153964,28.1828711]}},{"type":"Feature","id":"node/5581851765","properties":{"type":"node","id":5581851765,"tags":{"amenity":"place_of_worship","religion":"hindu"},"relations":[],"meta":{"timestamp":"2018-04-27T06:27:46Z","version":1,"changeset":58465666,"user":"Kshitizraj Sharma","uid":7004124}},"geometry":{"type":"Point","coordinates":[84.1075429,28.1829429]}},{"type":"Feature","id":"node/5581858114","properties":{"type":"node","id":5581858114,"tags":{"amenity":"place_of_worship","religion":"hindu"},"relations":[],"meta":{"timestamp":"2018-04-27T06:29:32Z","version":1,"changeset":58465713,"user":"Bijay adhikari","uid":7643850}},"geometry":{"type":"Point","coordinates":[84.086291,28.183643]}},{"type":"Feature","id":"node/5581869649","properties":{"type":"node","id":5581869649,"tags":{"amenity":"place_of_worship","religion":"hindu"},"relations":[],"meta":{"timestamp":"2018-04-27T06:38:57Z","version":1,"changeset":58465909,"user":"Kshitizraj Sharma","uid":7004124}},"geometry":{"type":"Point","coordinates":[84.0865043,28.1918394]}},{"type":"Feature","id":"node/5581869666","properties":{"type":"node","id":5581869666,"tags":{"amenity":"place_of_worship","religion":"hindu"},"relations":[],"meta":{"timestamp":"2018-04-27T06:38:58Z","version":1,"changeset":58465909,"user":"Kshitizraj Sharma","uid":7004124}},"geometry":{"type":"Point","coordinates":[84.0862736,28.1838877]}},{"type":"Feature","id":"node/5587634865","properties":{"type":"node","id":5587634865,"tags":{"amenity":"place_of_worship","name":"Ghotane Kul Mandir","opening_hours":"sunrise-sunset","religion":"hindu"},"relations":[],"meta":{"timestamp":"2018-04-30T07:31:46Z","version":1,"changeset":58545757,"user":"LonelyNarayan","uid":7644124}},"geometry":{"type":"Point","coordinates":[83.8911268,28.2384796]}},{"type":"Feature","id":"node/5588186880","properties":{"type":"node","id":5588186880,"tags":{"amenity":"place_of_worship","religion":"hindu"},"relations":[],"meta":{"timestamp":"2018-04-30T11:14:27Z","version":1,"changeset":58551599,"user":"Kshitizraj Sharma","uid":7004124}},"geometry":{"type":"Point","coordinates":[83.9159178,28.2031388]}},{"type":"Feature","id":"node/5588186884","properties":{"type":"node","id":5588186884,"tags":{"amenity":"place_of_worship","religion":"hindu"},"relations":[],"meta":{"timestamp":"2018-04-30T11:14:27Z","version":1,"changeset":58551599,"user":"Kshitizraj Sharma","uid":7004124}},"geometry":{"type":"Point","coordinates":[83.9183673,28.2012726]}},{"type":"Feature","id":"node/5588186885","properties":{"type":"node","id":5588186885,"tags":{"amenity":"place_of_worship","religion":"hindu","source":"2c peset","tourism":"hotel"},"relations":[],"meta":{"timestamp":"2018-04-30T11:14:27Z","version":1,"changeset":58551599,"user":"Kshitizraj Sharma","uid":7004124}},"geometry":{"type":"Point","coordinates":[83.9189346,28.201347]}},{"type":"Feature","id":"node/5588187529","properties":{"type":"node","id":5588187529,"tags":{"amenity":"place_of_worship","name":"Ganesh Mandir","religion":"hindu"},"relations":[],"meta":{"timestamp":"2018-04-30T11:14:28Z","version":1,"changeset":58551599,"user":"Kshitizraj Sharma","uid":7004124}},"geometry":{"type":"Point","coordinates":[83.9232416,28.20224]}},{"type":"Feature","id":"node/5588187530","properties":{"type":"node","id":5588187530,"tags":{"amenity":"place_of_worship","name":"Kul Mandir","religion":"hindu"},"relations":[],"meta":{"timestamp":"2018-04-30T11:14:28Z","version":1,"changeset":58551599,"user":"Kshitizraj Sharma","uid":7004124}},"geometry":{"type":"Point","coordinates":[83.9231417,28.2021596]}},{"type":"Feature","id":"node/5588187551","properties":{"type":"node","id":5588187551,"tags":{"amenity":"place_of_worship","religion":"hindu"},"relations":[],"meta":{"timestamp":"2018-04-30T11:14:29Z","version":1,"changeset":58551599,"user":"Kshitizraj Sharma","uid":7004124}},"geometry":{"type":"Point","coordinates":[83.9136225,28.2076074]}},{"type":"Feature","id":"node/5588187561","properties":{"type":"node","id":5588187561,"tags":{"amenity":"place_of_worship","religion":"hindu"},"relations":[],"meta":{"timestamp":"2018-04-30T11:14:29Z","version":1,"changeset":58551599,"user":"Kshitizraj Sharma","uid":7004124}},"geometry":{"type":"Point","coordinates":[83.9079892,28.2087]}},{"type":"Feature","id":"node/5588187562","properties":{"type":"node","id":5588187562,"tags":{"amenity":"place_of_worship","name":"Shiva temple","religion":"hindu"},"relations":[],"meta":{"timestamp":"2018-04-30T11:14:29Z","version":1,"changeset":58551599,"user":"Kshitizraj Sharma","uid":7004124}},"geometry":{"type":"Point","coordinates":[83.9078128,28.208612]}},{"type":"Feature","id":"node/5588187671","properties":{"type":"node","id":5588187671,"tags":{"amenity":"place_of_worship","name":"Bhumdikot Mandir","religion":"hindu"},"relations":[],"meta":{"timestamp":"2018-04-30T11:14:32Z","version":1,"changeset":58551599,"user":"Kshitizraj Sharma","uid":7004124}},"geometry":{"type":"Point","coordinates":[83.8934477,28.2099607]}},{"type":"Feature","id":"node/5588187703","properties":{"type":"node","id":5588187703,"tags":{"amenity":"place_of_worship","religion":"hindu","source":"2c peset"},"relations":[],"meta":{"timestamp":"2018-04-30T11:14:32Z","version":1,"changeset":58551599,"user":"Kshitizraj Sharma","uid":7004124}},"geometry":{"type":"Point","coordinates":[83.8826819,28.20934]}},{"type":"Feature","id":"node/5589588630","properties":{"type":"node","id":5589588630,"tags":{"amenity":"place_of_worship","religion":"hindu"},"relations":[],"meta":{"timestamp":"2018-05-01T03:14:55Z","version":1,"changeset":58573522,"user":"Bijay adhikari","uid":7643850}},"geometry":{"type":"Point","coordinates":[83.9392135,28.2025715]}},{"type":"Feature","id":"node/5589588670","properties":{"type":"node","id":5589588670,"tags":{"amenity":"place_of_worship","religion":"hindu"},"relations":[],"meta":{"timestamp":"2018-05-01T03:14:56Z","version":1,"changeset":58573522,"user":"Bijay adhikari","uid":7643850}},"geometry":{"type":"Point","coordinates":[83.9452987,28.2002514]}},{"type":"Feature","id":"node/5589588677","properties":{"type":"node","id":5589588677,"tags":{"amenity":"place_of_worship","name":"Bhandari Kul Mandir","religion":"hindu"},"relations":[],"meta":{"timestamp":"2018-05-01T03:14:56Z","version":1,"changeset":58573522,"user":"Bijay adhikari","uid":7643850}},"geometry":{"type":"Point","coordinates":[83.9451385,28.2002786]}},{"type":"Feature","id":"node/5589588948","properties":{"type":"node","id":5589588948,"tags":{"amenity":"place_of_worship","religion":"hindu"},"relations":[],"meta":{"timestamp":"2018-05-01T03:14:58Z","version":1,"changeset":58573522,"user":"Bijay adhikari","uid":7643850}},"geometry":{"type":"Point","coordinates":[83.9512284,28.1967281]}},{"type":"Feature","id":"node/5589615440","properties":{"type":"node","id":5589615440,"tags":{"amenity":"place_of_worship","religion":"hindu"},"relations":[],"meta":{"timestamp":"2018-05-01T03:45:19Z","version":1,"changeset":58573860,"user":"Bijay adhikari","uid":7643850}},"geometry":{"type":"Point","coordinates":[83.9392135,28.2025715]}},{"type":"Feature","id":"node/5589615479","properties":{"type":"node","id":5589615479,"tags":{"amenity":"place_of_worship","religion":"hindu"},"relations":[],"meta":{"timestamp":"2018-05-01T03:45:20Z","version":1,"changeset":58573860,"user":"Bijay adhikari","uid":7643850}},"geometry":{"type":"Point","coordinates":[83.9452987,28.2002514]}},{"type":"Feature","id":"node/5589615486","properties":{"type":"node","id":5589615486,"tags":{"amenity":"place_of_worship","name":"Bhandari Kul Mandir","religion":"hindu"},"relations":[],"meta":{"timestamp":"2018-05-01T03:45:20Z","version":1,"changeset":58573860,"user":"Bijay adhikari","uid":7643850}},"geometry":{"type":"Point","coordinates":[83.9451385,28.2002786]}},{"type":"Feature","id":"node/5589615541","properties":{"type":"node","id":5589615541,"tags":{"amenity":"place_of_worship","religion":"hindu"},"relations":[],"meta":{"timestamp":"2018-05-01T03:45:21Z","version":1,"changeset":58573860,"user":"Bijay adhikari","uid":7643850}},"geometry":{"type":"Point","coordinates":[83.9512284,28.1967281]}},{"type":"Feature","id":"node/5589968230","properties":{"type":"node","id":5589968230,"tags":{"amenity":"place_of_worship","name":"Shiva temple","religion":"hindu"},"relations":[],"meta":{"timestamp":"2018-05-01T09:14:39Z","version":1,"changeset":58578918,"user":"Bijay adhikari","uid":7643850}},"geometry":{"type":"Point","coordinates":[83.9241207,28.1826997]}},{"type":"Feature","id":"node/5589968270","properties":{"type":"node","id":5589968270,"tags":{"amenity":"place_of_worship","religion":"hindu"},"relations":[],"meta":{"timestamp":"2018-05-01T09:14:40Z","version":1,"changeset":58578918,"user":"Bijay adhikari","uid":7643850}},"geometry":{"type":"Point","coordinates":[83.9117999,28.1858511]}},{"type":"Feature","id":"node/5598345180","properties":{"type":"node","id":5598345180,"tags":{"amenity":"place_of_worship","name":"NAwadurga Bhagwati Mandir","religion":"hindu"},"relations":[],"meta":{"timestamp":"2018-05-27T05:48:25Z","version":2,"changeset":59306511,"user":"Ro Sun","uid":3112087}},"geometry":{"type":"Point","coordinates":[84.0095108,28.2139874]}},{"type":"Feature","id":"node/5598609658","properties":{"type":"node","id":5598609658,"tags":{"amenity":"place_of_worship","religion":"hindu"},"relations":[],"meta":{"timestamp":"2018-05-05T12:39:42Z","version":1,"changeset":58706737,"user":"Bijay adhikari","uid":7643850}},"geometry":{"type":"Point","coordinates":[84.0129058,28.2204792]}},{"type":"Feature","id":"node/5598643488","properties":{"type":"node","id":5598643488,"tags":{"amenity":"place_of_worship","religion":"hindu"},"relations":[],"meta":{"timestamp":"2018-05-05T13:16:08Z","version":1,"changeset":58707321,"user":"Bijay adhikari","uid":7643850}},"geometry":{"type":"Point","coordinates":[84.0258998,28.2213714]}},{"type":"Feature","id":"node/5598643498","properties":{"type":"node","id":5598643498,"tags":{"amenity":"place_of_worship","religion":"hindu"},"relations":[],"meta":{"timestamp":"2018-05-05T13:16:08Z","version":1,"changeset":58707321,"user":"Bijay adhikari","uid":7643850}},"geometry":{"type":"Point","coordinates":[84.036296,28.2474432]}},{"type":"Feature","id":"node/5598643502","properties":{"type":"node","id":5598643502,"tags":{"amenity":"place_of_worship","religion":"hindu"},"relations":[],"meta":{"timestamp":"2018-05-05T13:16:08Z","version":1,"changeset":58707321,"user":"Bijay adhikari","uid":7643850}},"geometry":{"type":"Point","coordinates":[84.0440328,28.250581]}},{"type":"Feature","id":"node/5598643505","properties":{"type":"node","id":5598643505,"tags":{"amenity":"place_of_worship","religion":"hindu"},"relations":[],"meta":{"timestamp":"2018-05-05T13:16:09Z","version":1,"changeset":58707321,"user":"Bijay adhikari","uid":7643850}},"geometry":{"type":"Point","coordinates":[84.0451795,28.2513914]}},{"type":"Feature","id":"node/5598643514","properties":{"type":"node","id":5598643514,"tags":{"amenity":"place_of_worship","religion":"hindu"},"relations":[],"meta":{"timestamp":"2018-05-05T13:16:09Z","version":1,"changeset":58707321,"user":"Bijay adhikari","uid":7643850}},"geometry":{"type":"Point","coordinates":[84.0464804,28.2491964]}},{"type":"Feature","id":"node/5598644128","properties":{"type":"node","id":5598644128,"tags":{"amenity":"place_of_worship","religion":"hindu"},"relations":[],"meta":{"timestamp":"2018-05-05T13:16:09Z","version":1,"changeset":58707321,"user":"Bijay adhikari","uid":7643850}},"geometry":{"type":"Point","coordinates":[84.0475995,28.2197643]}},{"type":"Feature","id":"node/5608576305","properties":{"type":"node","id":5608576305,"tags":{"amenity":"place_of_worship","religion":"hindu","source":"2cpokhara"},"relations":[],"meta":{"timestamp":"2018-05-10T06:30:22Z","version":1,"changeset":58839266,"user":"Abash Paudel","uid":6677482}},"geometry":{"type":"Point","coordinates":[84.0134007,28.2301273]}},{"type":"Feature","id":"node/5615543398","properties":{"type":"node","id":5615543398,"tags":{"amenity":"place_of_worship","religion":"hindu"},"relations":[],"meta":{"timestamp":"2018-05-13T18:12:01Z","version":1,"changeset":58930764,"user":"Abash Paudel","uid":6677482}},"geometry":{"type":"Point","coordinates":[83.99671,28.2206712]}},{"type":"Feature","id":"node/5615546341","properties":{"type":"node","id":5615546341,"tags":{"amenity":"place_of_worship","name":"Temple","religion":"hindu","source":"2cpokhara"},"relations":[],"meta":{"timestamp":"2018-05-13T18:12:04Z","version":1,"changeset":58930764,"user":"Abash Paudel","uid":6677482}},"geometry":{"type":"Point","coordinates":[83.9920241,28.2227604]}},{"type":"Feature","id":"node/5616651944","properties":{"type":"node","id":5616651944,"tags":{"amenity":"place_of_worship","religion":"hindu"},"relations":[],"meta":{"timestamp":"2018-05-14T07:04:24Z","version":1,"changeset":58941471,"user":"Abash Paudel","uid":6677482}},"geometry":{"type":"Point","coordinates":[83.99361,28.2183758]}},{"type":"Feature","id":"node/5616651945","properties":{"type":"node","id":5616651945,"tags":{"amenity":"place_of_worship","denomination":"shaivism","name":"Satya Sai Kendra","religion":"hindu"},"relations":[],"meta":{"timestamp":"2018-05-14T07:04:24Z","version":1,"changeset":58941471,"user":"Abash Paudel","uid":6677482}},"geometry":{"type":"Point","coordinates":[83.9936777,28.218361]}},{"type":"Feature","id":"node/5619247410","properties":{"type":"node","id":5619247410,"tags":{"amenity":"place_of_worship","religion":"hindu","source":"2cpokhara"},"relations":[],"meta":{"timestamp":"2018-05-15T09:01:06Z","version":1,"changeset":58976461,"user":"Abash Paudel","uid":6677482}},"geometry":{"type":"Point","coordinates":[83.8495794,28.2272135]}},{"type":"Feature","id":"node/4841430357","properties":{"type":"node","id":4841430357,"tags":{},"relations":[],"meta":{}},"geometry":{"type":"Point","coordinates":[83.9898482,28.2171298]}}],"createdOn":1528366784264}