{"type":"FeatureCollection","features":[{"type":"Feature","id":"way/120510479","properties":{"type":"way","id":120510479,"tags":{"name":"Fish Tail Lodge","name:de":"Fish Tail Lodge","name:ne":"फिस टेल लज","phone":"061-465071","source":"2C Field Visit 2018","tourism":"hotel","website":"fishtail-lodge.com"},"relations":[],"meta":{"timestamp":"2018-06-21T04:04:02Z","version":7,"changeset":60028696,"user":"Gaurav Thapa","uid":4212590}},"geometry":{"type":"Point","coordinates":[83.96391923214287,28.200910260714288]}},{"type":"Feature","id":"way/120511724","properties":{"type":"way","id":120511724,"tags":{"addr:street":"Lalupate Marg","building":"yes","building:levels":"2","email":"jamesarzoon@gmail.com","internet_access":"wlan","name":"Hotel Tilicho","opening_hours":"24/7","operator":"Shiva ji","phone":"061662021","tourism":"hotel"},"relations":[],"meta":{"timestamp":"2017-09-08T11:19:05Z","version":5,"changeset":51841188,"user":"santosh69","uid":5294143}},"geometry":{"type":"Point","coordinates":[83.9590788875,28.214220674999996]}},{"type":"Feature","id":"way/120638652","properties":{"type":"way","id":120638652,"tags":{"beds":"136","contact:email":"info@barahi.com","facility":"4 big halls, swimming pool, culture program, nepali cultural programs","name":"Barahi Hotel","name:ne":"बाराहि होटल","phone":"061-460617, 463526","rooms":"50","tourism":"hotel","website":"www.barahi.com"},"relations":[],"meta":{"timestamp":"2018-06-07T10:18:41Z","version":6,"changeset":59632034,"user":"Ro Sun","uid":3112087}},"geometry":{"type":"Point","coordinates":[83.95858447857142,28.20809725714286]}},{"type":"Feature","id":"way/120639613","properties":{"type":"way","id":120639613,"tags":{"addr:city":"Pokhara","addr:postcode":"33700","addr:street":"Baidam Road","building":"yes","email":"htlmeera@gmail.com","name":"Hotel Meera","name:en":"Hotel Meera Pvt. Ltd","name:ne":"मीरा होटेल","phone":"61-462031; 061-463091; 061-464923","stars":"2","tourism":"hotel","website":"www.hotelmeera.com"},"relations":[],"meta":{"timestamp":"2018-06-25T04:54:37Z","version":10,"changeset":60135012,"user":"Gaurav Thapa","uid":4212590}},"geometry":{"type":"Point","coordinates":[83.95725195,28.209364500000003]}},{"type":"Feature","id":"way/120639615","properties":{"type":"way","id":120639615,"tags":{"beds":"70","building":"yes","contact:email":"tulsipkr@gmail.com","contact:facebook":"hoteltulsipvtltd","name":"Tulsi","name:ne":"तुलसी","phone":"462895,461928,460313","rooms":"35","tourism":"hotel","website":"www.hoteltulsipokhara.com"},"relations":[],"meta":{"timestamp":"2018-06-21T05:05:05Z","version":7,"changeset":60029819,"user":"Gaurav Thapa","uid":4212590}},"geometry":{"type":"Point","coordinates":[83.95796535,28.209663900000002]}},{"type":"Feature","id":"way/134382236","properties":{"type":"way","id":134382236,"tags":{"beds":"33","building":"yes","contact:email":"info@tigermountainpokhara.com","email":"info@tigermountainpokhara.com","internet_access":"yes","name":"Tiger Moutain Pokhara Lodge","name:ne":"टाईगर माउण्टेन पोखरा लज","opening_hours":"5:00-20:00","operator":"private","phone":"061-4720580","rooms":"19","source":"2cpokhara","tourism":"hotel","website":"http://www.tigermountainpokhara.com"},"relations":[],"meta":{"timestamp":"2018-06-07T10:18:42Z","version":6,"changeset":59632034,"user":"Ro Sun","uid":3112087}},"geometry":{"type":"Point","coordinates":[84.04243975625003,28.210635531250002]}},{"type":"Feature","id":"way/198565131","properties":{"type":"way","id":198565131,"tags":{"email":"","name":"Hotel Fewa","name:ne":"होटेल फेवा","phone":"061-463151","stars":"2","tourism":"hotel"},"relations":[],"meta":{"timestamp":"2018-06-25T04:48:24Z","version":5,"changeset":60134910,"user":"Gaurav Thapa","uid":4212590}},"geometry":{"type":"Point","coordinates":[83.95557175,28.212216525]}},{"type":"Feature","id":"way/203864524","properties":{"type":"way","id":203864524,"tags":{"barrier":"wall","email":"info@mountkailashresort.com","name":"Mount Kailash Resort","name:de":"Mount Kailash Resort","name:ne":"माउन्ट कैलाश रिर्सोट","phone":"+977 61465703","tourism":"hotel","website":"http://www.mountkailashresort.com/"},"relations":[],"meta":{"timestamp":"2018-01-08T11:07:20Z","version":9,"changeset":55261380,"user":"Ro Sun","uid":3112087}},"geometry":{"type":"Point","coordinates":[83.96301682142858,28.20480476428571]}},{"type":"Feature","id":"way/203993206","properties":{"type":"way","id":203993206,"tags":{"beds":"50","contact:facebook":"hotelunipokhara","name":"Hotel U and I","name:ne":"होटेल यु एंड आइ","opening_hours":"24/7","phone":"061-462838","tourism":"hotel"},"relations":[],"meta":{"timestamp":"2018-06-07T10:18:42Z","version":5,"changeset":59632034,"user":"Ro Sun","uid":3112087}},"geometry":{"type":"Point","coordinates":[83.96842615,28.20317455]}},{"type":"Feature","id":"way/220704655","properties":{"type":"way","id":220704655,"tags":{"amenity":"restaurant","building":"yes","internet_access":"wlan","internet_access:fee":"no","name":"Lake View Resort","name:ne":"लेक भ्यु रिसोर्ट","operator":"Lake View Resort","phone":"061-461477","tourism":"hotel","website":"http://www.lakeviewpokhara.com"},"relations":[],"meta":{"timestamp":"2018-06-07T10:18:42Z","version":5,"changeset":59632034,"user":"Ro Sun","uid":3112087}},"geometry":{"type":"Point","coordinates":[83.962344925,28.204802400000002]}},{"type":"Feature","id":"way/248821262","properties":{"type":"way","id":248821262,"tags":{"addr:city":"Pokhara","addr:housename":"Kotee Home Hotel","addr:postcode":"33700","addr:street":"Baidam Road","beds":"50","building":"yes","contact:email":"info@koteehomehotel.com","name":"Kotee Home Hotel","name:ne":"कोटी होम होटेल","phone":"61-464008,464009,61-463997","rooms":"24","tourism":"hotel","website":"www.koteehomehotel.com"},"relations":[],"meta":{"timestamp":"2018-06-07T10:18:42Z","version":5,"changeset":59632034,"user":"Ro Sun","uid":3112087}},"geometry":{"type":"Point","coordinates":[83.95732425,28.209620875]}},{"type":"Feature","id":"way/274294909","properties":{"type":"way","id":274294909,"tags":{"internet_access":"wlan","internet_access:fee":"yes","name":"Trek-O-Tel Pokhara","name:ne":"ट्रेक - ओ - टेल पोखरा","note":"VIP accomodations,WiFi,Parking,European food items & Liquor","opening_hours":"00:00-24:00","ownership":"Yogendra Sakhya","phone":"061-464996","smoking":"no","stars":"3","start_date":"2001","tourism":"hotel","website":"www.nepalshotel.com","wheelchair":"yes"},"relations":[],"meta":{"timestamp":"2017-04-13T08:58:14Z","version":3,"changeset":47735559,"user":"Alisha12","uid":4204463}},"geometry":{"type":"Point","coordinates":[83.96161358333335,28.20560871666667]}},{"type":"Feature","id":"way/281421349","properties":{"type":"way","id":281421349,"tags":{"addr:city":"Pokhara","addr:street":"Lallamarga","building":"commercial","name":"The North Face Inn","name:ne":"द नथ्र फेस इन","phone":"+977 61 464987","smoking":"yes","tourism":"hotel","website":"http://www.northfaceinn.com/"},"relations":[],"meta":{"timestamp":"2016-10-06T07:06:00Z","version":3,"changeset":42676213,"user":"Bishal9841","uid":3573216}},"geometry":{"type":"Point","coordinates":[83.9597264,28.211987399999998]}},{"type":"Feature","id":"way/307258498","properties":{"type":"way","id":307258498,"tags":{"internet_access":"yes","internet_access:fee":"yes","name":"Hotel LakeSide","name:de":"LakeSide Hotel","smoking":"isolated","stars":"2","tourism":"hotel","wheelchair":"yes"},"relations":[],"meta":{"timestamp":"2018-06-21T05:05:06Z","version":5,"changeset":60029819,"user":"Gaurav Thapa","uid":4212590}},"geometry":{"type":"Point","coordinates":[83.9632814375,28.204398812500003]}},{"type":"Feature","id":"way/307258499","properties":{"type":"way","id":307258499,"tags":{"email":"info@pokharamoonlight.com","internet_access":"yes","internet_access:fee":"no","name":"Hotel Moonlight Resort","name:ne":"होटल मुनलाईट रिसोर्ट प्रा. लि.","phone":"061-462501","smoking":"yes","stars":"2","tourism":"hotel","website":"http://pokharamoonlight.com/","wheelchair":"yes"},"relations":[],"meta":{"timestamp":"2018-06-25T05:03:45Z","version":7,"changeset":60134944,"user":"Gaurav Thapa","uid":4212590}},"geometry":{"type":"Point","coordinates":[83.9626333,28.204603887499996]}},{"type":"Feature","id":"way/332646087","properties":{"type":"way","id":332646087,"tags":{"addr:city":"pokhara","addr:street":"majheripatan","name":"Gorkha Village Resort","name:ne":"गोर्खा विलेज रिसोर्ट","tourism":"hotel"},"relations":[],"meta":{"timestamp":"2017-01-08T05:26:35Z","version":4,"changeset":44993833,"user":"Manoj Thapa","uid":781054}},"geometry":{"type":"Point","coordinates":[84.03155094883718,28.171070455813954]}},{"type":"Feature","id":"way/338653865","properties":{"type":"way","id":338653865,"tags":{"addr:city":"Pokhara Lekhnath Metropolitan City","addr:place":"Lakeside","addr:street":"Sedi Bagar","building":"yes","name":"Waterfront Resort","name:ne":"वाटर फ्रोन्ट रिसोर्ट","operator":"KGH Hotels","phone":"+977 061-466303","tourism":"hotel","website":"https://www.waterfronthotelnepal.com"},"relations":[],"meta":{"timestamp":"2018-06-06T09:28:15Z","version":5,"changeset":59595599,"user":"marek kleciak","uid":338611}},"geometry":{"type":"Point","coordinates":[83.95135438,28.221999540000002]}},{"type":"Feature","id":"way/341361179","properties":{"type":"way","id":341361179,"tags":{"building":"yes","contact:email":"lakestar@mail.com.np","name:en":"Hotel Lake Star","phone":"061-465172, 465264","tourism":"hotel","website":"www.hotellakestar.com"},"relations":[],"meta":{"timestamp":"2018-06-07T10:18:42Z","version":3,"changeset":59632034,"user":"Ro Sun","uid":3112087}},"geometry":{"type":"Point","coordinates":[83.9607177,28.2100309]}},{"type":"Feature","id":"way/364313534","properties":{"type":"way","id":364313534,"tags":{"addr:city":"Pokhara","building":"yes","building:levels":"3","name":"Studio Apartments","name:en":"Pokhara Studio Inn","name:ne":"स्टुडियो अपार्टमेन्ट","tourism":"hotel"},"relations":[],"meta":{"timestamp":"2017-02-24T13:41:48Z","version":4,"changeset":46368015,"user":"Pradip Khatiwada","uid":4789912}},"geometry":{"type":"Point","coordinates":[83.966495125,28.212539125]}},{"type":"Feature","id":"way/364363160","properties":{"type":"way","id":364363160,"tags":{"beds":"30","building":"hotel","building:levels":"6","contact:facebook":"hotelorchid","contact:mail":"info@hotelorchidnepal.com","name":"Hotel Orchid","name:ne":"होटल ऒरचिड","phone":"61-466697, 466706","smoking":"separated","tourism":"hotel","website":"www.hotelorchidnepal.com"},"relations":[],"meta":{"timestamp":"2018-06-07T10:18:43Z","version":5,"changeset":59632034,"user":"Ro Sun","uid":3112087}},"geometry":{"type":"Point","coordinates":[83.96273159999998,28.207861349999998]}},{"type":"Feature","id":"way/364363163","properties":{"type":"way","id":364363163,"tags":{"beds":"40","building":"hotel","contact:facebook":"hoteltarapokhara","contact:mail":"info@hoteltaranepal.com","name":"Hotel Tara","name:ne":"होटल तारा","phone":"+97761466496, 466497, 9846355765","tourism":"hotel","website":"www.hoteltaranepal.com"},"relations":[],"meta":{"timestamp":"2018-06-07T10:18:43Z","version":5,"changeset":59632034,"user":"Ro Sun","uid":3112087}},"geometry":{"type":"Point","coordinates":[83.96251804,28.207697059999997]}},{"type":"Feature","id":"way/364363168","properties":{"type":"way","id":364363168,"tags":{"addr:city":"Pokhara","addr:postcode":"44600","addr:street":"Gauri Ghat","building":"yes","building:levels":"9","name":"Hotel City Inn","phone":"+97761467229","tourism":"hotel","website":"www.hotelcityinnpokhara.com","wheelchair":"yes"},"relations":[],"meta":{"timestamp":"2016-11-29T08:11:45Z","version":4,"changeset":44028295,"user":"Parassrest","uid":3569249}},"geometry":{"type":"Point","coordinates":[83.961651625,28.206306675]}},{"type":"Feature","id":"way/366662853","properties":{"type":"way","id":366662853,"tags":{"barrier":"wall","name":"Atithi Resort & Spa","tourism":"hotel"},"relations":[],"meta":{"timestamp":"2015-09-05T05:46:17Z","version":2,"changeset":33808427,"user":"Emmece","uid":2175648}},"geometry":{"type":"Point","coordinates":[83.96646096923078,28.206297238461538]}},{"type":"Feature","id":"way/369194643","properties":{"type":"way","id":369194643,"tags":{"addr:street":"Gauri Ghat","name":"Temple Tree Resort & Spa","name:ne":"होटल टेम्पल ट्री","phone":"+977 61 46 58 19","tourism":"hotel","website":"http://templetreenepal.com"},"relations":[],"meta":{"timestamp":"2018-04-12T08:19:20Z","version":6,"changeset":58028223,"user":"Ro Sun","uid":3112087}},"geometry":{"type":"Point","coordinates":[83.96346041199999,28.205957316]}},{"type":"Feature","id":"way/369206849","properties":{"type":"way","id":369206849,"tags":{"building":"hotel","name":"Hotel Diplomat","tourism":"hotel"},"relations":[],"meta":{"timestamp":"2018-04-11T12:15:27Z","version":3,"changeset":58001361,"user":"Shrestha Khum","uid":7644104}},"geometry":{"type":"Point","coordinates":[83.95906425000001,28.2071895]}},{"type":"Feature","id":"way/369212612","properties":{"type":"way","id":369212612,"tags":{"building":"yes","name":"Hotel Himalayan Inn","tourism":"hotel"},"relations":[],"meta":{"timestamp":"2017-04-13T08:58:15Z","version":3,"changeset":47735559,"user":"Alisha12","uid":4204463}},"geometry":{"type":"Point","coordinates":[83.9627909,28.2069374]}},{"type":"Feature","id":"way/369212614","properties":{"type":"way","id":369212614,"tags":{"building":"yes","name":"Hotel Fewa Holi Inn","tourism":"hotel"},"relations":[],"meta":{"timestamp":"2017-04-13T08:58:15Z","version":2,"changeset":47735559,"user":"Alisha12","uid":4204463}},"geometry":{"type":"Point","coordinates":[83.96274685,28.206854200000002]}},{"type":"Feature","id":"way/369214244","properties":{"type":"way","id":369214244,"tags":{"beds":"25","building":"yes","name:en":"Hotel Fishtail Villa","phone":"+977-9856027108","rooms":"13","tourism":"hotel","website":"www.fishtailvilla.com"},"relations":[],"meta":{"timestamp":"2018-06-21T04:48:14Z","version":4,"changeset":60029422,"user":"Gaurav Thapa","uid":4212590}},"geometry":{"type":"Point","coordinates":[83.95919534999999,28.2096687]}},{"type":"Feature","id":"way/369214245","properties":{"type":"way","id":369214245,"tags":{"beds":"80","building":"hotel","contact:email":"info@hoteldandelion.com","internet_access":"yes","internet_access:fee":"no","name":"Hotel Dandelion","name:ne":"होटल डान्डेलिवन","operator":"Buddha Bogati","phone":"61-463648,464030","smoking":"yes","stars":"3","tourism":"hotel","website":"www.hoteldandelion.com","wheelchair":"yes"},"relations":[],"meta":{"timestamp":"2018-06-07T10:18:43Z","version":5,"changeset":59632034,"user":"Ro Sun","uid":3112087}},"geometry":{"type":"Point","coordinates":[83.95956084999999,28.2087851]}},{"type":"Feature","id":"way/369214250","properties":{"type":"way","id":369214250,"tags":{"beds":"47","building":"yes","contact:email":"info@hotelcandleinn.com","name:en":"Hotel Candle Inn","phone":"61-463128,463100","rooms":"20","tourism":"hotel","website":"hotelcandleinn.com"},"relations":[],"meta":{"timestamp":"2018-06-07T10:18:43Z","version":3,"changeset":59632034,"user":"Ro Sun","uid":3112087}},"geometry":{"type":"Point","coordinates":[83.95872171428572,28.208944057142855]}},{"type":"Feature","id":"way/369214252","properties":{"type":"way","id":369214252,"tags":{"addr:city":"Pokhara","addr:street":"Baidam Road","addr:unit":"30","atm":"yes","beds":"150","building":"yes","contact:email":"sakuraguest@hotmail.com","internet_access":"wlan","name":"Hotel Sakura","name:en":"Hotel Sakura","name:ne":"होटल साकुरा","opening_hours":"24/7","operator":"Laxman Subedi","phone":"061-462555","tourism":"hotel","wheelchair":"limited"},"relations":[],"meta":{"timestamp":"2018-06-21T04:48:14Z","version":6,"changeset":60029422,"user":"Gaurav Thapa","uid":4212590}},"geometry":{"type":"Point","coordinates":[83.95917197777779,28.20851028888889]}},{"type":"Feature","id":"way/370275971","properties":{"type":"way","id":370275971,"tags":{"addr:city":"Pokhara","addr:housenumber":"8","addr:postcode":"33700","addr:street":"Dhital","ele":"1540 m","name":"Mystique Highland Resort","name:ne":"मिस्टीक हाइल्यान्ड रिसोर्ट","operator":"Anup Adhikari","phone":"+977 061 696663","smoking":"isolated","tourism":"hotel","website":"http://www.astahm.com","wheelchair":"limited"},"relations":[],"meta":{"timestamp":"2016-08-16T08:04:24Z","version":3,"changeset":41483995,"user":"Bishal9841","uid":3573216}},"geometry":{"type":"Point","coordinates":[83.907278475,28.29404879999999]}},{"type":"Feature","id":"way/388220548","properties":{"type":"way","id":388220548,"tags":{"addr:city":"Pokhara","addr:place":"Fulbari","contact:email":"info@fulbari.com.np","internet_access":"yes","name":"Fulbari Hotel","name:ne":"फुलबारी होटेल","phone":"+977-61-432451 / 430277","stars":"5","tourism":"hotel","website":"http://www.fulbari.com"},"relations":[],"meta":{"timestamp":"2017-06-13T08:09:21Z","version":5,"changeset":49491694,"user":"Alisha12","uid":4204463}},"geometry":{"type":"Point","coordinates":[83.99956806666667,28.17707361111111]}},{"type":"Feature","id":"way/403265472","properties":{"type":"way","id":403265472,"tags":{"addr:city":"Pokhara","addr:district":"Lakeside","building":"commercial","name":"Silver Oaks Inn","name:ne":"सिल्भर औक्स होटल","phone":"061-462147","tourism":"hotel","website":"http://www.hotelpokhara.com/"},"relations":[],"meta":{"timestamp":"2018-06-21T04:48:15Z","version":6,"changeset":60029422,"user":"Gaurav Thapa","uid":4212590}},"geometry":{"type":"Point","coordinates":[83.95990205,28.21257335]}},{"type":"Feature","id":"way/403841420","properties":{"type":"way","id":403841420,"tags":{"contact:email":"harry_hat@hotmail.com","name":"Harvest Nest Guest House","name:ne":"हारभेस्ट नेस्ट गेस्ट हाउस","phone":"9856021586, 061-462647","tourism":"hotel","website":"www.harvest-moon.com.np"},"relations":[],"meta":{"timestamp":"2018-06-07T10:18:44Z","version":6,"changeset":59632034,"user":"Ro Sun","uid":3112087}},"geometry":{"type":"Point","coordinates":[83.96175788000001,28.20979454]}},{"type":"Feature","id":"way/403841423","properties":{"type":"way","id":403841423,"tags":{"beds":"30","name":"Hotel Blevenue","name:ne":"होटल ब्लिभेन्यु","phone":"9846325593","tourism":"hotel","website":"www.hotelbienvenuepkr.com"},"relations":[],"meta":{"timestamp":"2018-06-07T10:18:44Z","version":6,"changeset":59632034,"user":"Ro Sun","uid":3112087}},"geometry":{"type":"Point","coordinates":[83.959738,28.207948599999998]}},{"type":"Feature","id":"way/403841424","properties":{"type":"way","id":403841424,"tags":{"beds":"60","email":"delightinnhotel@gmail.com","name":"Hotel Delight Inn","name:ne":"होटल दिलाईट ईन","opening_hours":"24/7","phone":"061-464214","tourism":"hotel","website":"www.delightinnhotel.com"},"relations":[],"meta":{"timestamp":"2018-06-26T05:39:44Z","version":5,"changeset":60168466,"user":"Gaurav Thapa","uid":4212590}},"geometry":{"type":"Point","coordinates":[83.96111485,28.2074781]}},{"type":"Feature","id":"way/403841426","properties":{"type":"way","id":403841426,"tags":{"name":"Hotel Family Home","name:ne":"होटल फेमिली होम","tourism":"hotel"},"relations":[],"meta":{"timestamp":"2018-03-18T10:56:06Z","version":3,"changeset":57287461,"user":"Gaurav Thapa","uid":4212590}},"geometry":{"type":"Point","coordinates":[83.95971465,28.2091839]}},{"type":"Feature","id":"way/403841427","properties":{"type":"way","id":403841427,"tags":{"name":"Hotel Grace","name:ne":"होटल ग्रेस","phone":"9813508781","tourism":"hotel"},"relations":[],"meta":{"timestamp":"2018-06-18T04:07:54Z","version":6,"changeset":59928297,"user":"Gaurav Thapa","uid":4212590}},"geometry":{"type":"Point","coordinates":[83.96078503999999,28.208197740000003]}},{"type":"Feature","id":"way/403841428","properties":{"type":"way","id":403841428,"tags":{"beds":"15","contact:email":"hotelgreatpokhara@gmail.com","contact:facebook":"hotelgreatpokhara","name":"Hotel Great Pokhara","name:ne":"होटल र्गेट पोखरा","phone":"61-467014","tourism":"hotel"},"relations":[],"meta":{"timestamp":"2018-06-07T10:18:45Z","version":6,"changeset":59632034,"user":"Ro Sun","uid":3112087}},"geometry":{"type":"Point","coordinates":[83.961507875,28.209849624999997]}},{"type":"Feature","id":"way/403841429","properties":{"type":"way","id":403841429,"tags":{"name":"Green Home Apartment","name:ne":"होटल र्गीन हाउस","phone":"9846035048","tourism":"hotel"},"relations":[],"meta":{"timestamp":"2018-06-07T10:18:45Z","version":6,"changeset":59632034,"user":"Ro Sun","uid":3112087}},"geometry":{"type":"Point","coordinates":[83.96185,28.209774579999998]}},{"type":"Feature","id":"way/403841430","properties":{"type":"way","id":403841430,"tags":{"name":"Hotel Hakuniwa","name:ne":"होटल हाकुनीवा","tourism":"hotel"},"relations":[],"meta":{"timestamp":"2016-10-06T07:05:58Z","version":3,"changeset":42676213,"user":"Bishal9841","uid":3573216}},"geometry":{"type":"Point","coordinates":[83.961798475,28.209113675]}},{"type":"Feature","id":"way/403841433","properties":{"type":"way","id":403841433,"tags":{"beds":"26","contact:email":"hotelmountaindream_osho@gmail.com","name":"Hotel Maintain Dream","name:ne":"होटल मेन्टेन र्डिम","phone":"61-466551","tourism":"hotel"},"relations":[],"meta":{"timestamp":"2018-06-07T10:18:45Z","version":6,"changeset":59632034,"user":"Ro Sun","uid":3112087}},"geometry":{"type":"Point","coordinates":[83.960969575,28.20965865]}},{"type":"Feature","id":"way/403841435","properties":{"type":"way","id":403841435,"tags":{"beds":"40","contact:email":"panoramhtl@gmail.com","email":"panorama@fewanet.com.np","name":"Hotel Panaroma","name:ne":"होटल प्यानारोमा","phone":"61-461983","tourism":"hotel","website":"www.hotelpanorama.com.np"},"relations":[],"meta":{"timestamp":"2018-06-07T10:18:45Z","version":5,"changeset":59632034,"user":"Ro Sun","uid":3112087}},"geometry":{"type":"Point","coordinates":[83.9599168,28.208889160000002]}},{"type":"Feature","id":"way/403841436","properties":{"type":"way","id":403841436,"tags":{"contact:email":"admin@thehotelpoint.com","email":"info@thehotelpoint.com","name":"Hotel Point","name:ne":"होटल प्वाइन्ट","phone":"061-467019","tourism":"hotel","website":"www.hotelpoint.com"},"relations":[],"meta":{"timestamp":"2018-06-07T10:18:45Z","version":6,"changeset":59632034,"user":"Ro Sun","uid":3112087}},"geometry":{"type":"Point","coordinates":[83.959240925,28.2078663]}},{"type":"Feature","id":"way/403841437","properties":{"type":"way","id":403841437,"tags":{"contact:email":"info@ranssapartment.com","name":"Hotel Ranks Appartment","name:ne":"होटल रयाङकस ापार्टमेन्ट","tourism":"hotel","website":"www.ranssapartment.com"},"relations":[],"meta":{"timestamp":"2018-03-10T04:14:12Z","version":4,"changeset":57049942,"user":"Shrestha Khum","uid":7644104}},"geometry":{"type":"Point","coordinates":[83.9609576,28.209452099999996]}},{"type":"Feature","id":"way/403841438","properties":{"type":"way","id":403841438,"tags":{"beds":"9","name":"Hotel Rosemarry","name:ne":"होटल रोज म्यारी","phone":"061-466920","tourism":"hotel"},"relations":[],"meta":{"timestamp":"2018-06-07T10:18:45Z","version":5,"changeset":59632034,"user":"Ro Sun","uid":3112087}},"geometry":{"type":"Point","coordinates":[83.96008718,28.20786827]}},{"type":"Feature","id":"way/403841439","properties":{"type":"way","id":403841439,"tags":{"name":"Hotel Rosemarry","name:ne":"होटल रोजम्यारी","tourism":"hotel"},"relations":[],"meta":{"timestamp":"2018-06-21T04:48:15Z","version":4,"changeset":60029422,"user":"Gaurav Thapa","uid":4212590}},"geometry":{"type":"Point","coordinates":[83.95988598333334,28.207813966666667]}},{"type":"Feature","id":"way/403841440","properties":{"type":"way","id":403841440,"tags":{"beds":"25","name":"Hotel Sheraphic","name:ne":"होटल सेराफिक","phone":"061-461010","tourism":"hotel"},"relations":[],"meta":{"timestamp":"2018-06-07T10:18:46Z","version":5,"changeset":59632034,"user":"Ro Sun","uid":3112087}},"geometry":{"type":"Point","coordinates":[83.9598490125,28.209811512500004]}},{"type":"Feature","id":"way/403841441","properties":{"type":"way","id":403841441,"tags":{"email":"snowleopardhotel@gmail.com","name":"Hotel Snow Leopard","name:ne":"होटल स्नो लिवपाड","phone":"61-466144,464708","tourism":"hotel","website":"www.hotelsnowleopard.webs.com"},"relations":[],"meta":{"timestamp":"2018-06-24T11:45:47Z","version":5,"changeset":60118805,"user":"Gaurav Thapa","uid":4212590}},"geometry":{"type":"Point","coordinates":[83.960538,28.208053775]}},{"type":"Feature","id":"way/403841443","properties":{"type":"way","id":403841443,"tags":{"name":"hotel white castel","name:ne":"होटल ह्वाइट क्यासल","tourism":"hotel"},"relations":[],"meta":{"timestamp":"2016-10-06T07:06:00Z","version":2,"changeset":42676213,"user":"Bishal9841","uid":3573216}},"geometry":{"type":"Point","coordinates":[83.96063095,28.20832045]}},{"type":"Feature","id":"way/403841447","properties":{"type":"way","id":403841447,"tags":{"contact:email":"pokharaecoresort@gmail.com","email":"info@pokharaecoresort.com","name":"Pokhara Eco Resort","name:ne":"पोखरा इको रीसोर्ट","phone":"61-463991","rooms":"40","tourism":"hotel"},"relations":[],"meta":{"timestamp":"2018-06-07T10:18:46Z","version":5,"changeset":59632034,"user":"Ro Sun","uid":3112087}},"geometry":{"type":"Point","coordinates":[83.9598845,28.208827199999998]}},{"type":"Feature","id":"way/403841452","properties":{"type":"way","id":403841452,"tags":{"beds":"10","contact:email":"villapapillon@yahoo.com","facility":"family environment, organic veg garden, honey- bee and honey making, old ancient house also available to live","name":"Villa Papillon","name:ne":"भिल्ला पापीलोन","phone":"061-465030, 9804144630","tourism":"hotel"},"relations":[],"meta":{"timestamp":"2018-06-18T04:07:54Z","version":5,"changeset":59928297,"user":"Gaurav Thapa","uid":4212590}},"geometry":{"type":"Point","coordinates":[83.9613285,28.208327680000004]}},{"type":"Feature","id":"way/403990958","properties":{"type":"way","id":403990958,"tags":{"name":"hotel adhmirekhara","name:ne":"होटेल अध्मिरेखारा","tourism":"hotel"},"relations":[],"meta":{"timestamp":"2016-10-06T10:04:04Z","version":2,"changeset":42679721,"user":"ayushupreti22","uid":3911278}},"geometry":{"type":"Point","coordinates":[83.96872998333332,28.207740599999997]}},{"type":"Feature","id":"way/404670071","properties":{"type":"way","id":404670071,"tags":{"contact:email":"salesktm@pokharagrande.com","contact:website":"http://www.pokharagrande.com","name":"Pokhara Grande Hotel","name:ne":"पोखरा ग्रान्डी होटेल","phone":"+977-14-005030","tourism":"hotel"},"relations":[],"meta":{"timestamp":"2018-06-07T10:18:46Z","version":6,"changeset":59632034,"user":"Ro Sun","uid":3112087}},"geometry":{"type":"Point","coordinates":[83.97422955625,28.1919874625]}},{"type":"Feature","id":"way/405587923","properties":{"type":"way","id":405587923,"tags":{"name":"Royal Palm","name:ne":"रोयल पाल्म","stars":"3","tourism":"hotel"},"relations":[],"meta":{"timestamp":"2016-09-14T10:59:51Z","version":3,"changeset":42146603,"user":"Parassrest","uid":3569249}},"geometry":{"type":"Point","coordinates":[84.01972153571428,28.196985335714285]}},{"type":"Feature","id":"way/406806386","properties":{"type":"way","id":406806386,"tags":{"addr:city":"Pokhara","addr:street":"Peaceful Road","building":"yes","description":"Hotel and Restaurant","name":"Pleasant Home","phone":"061-464514","tourism":"hotel"},"relations":[],"meta":{"timestamp":"2016-11-14T07:11:04Z","version":4,"changeset":43632243,"user":"CSea","uid":4844426}},"geometry":{"type":"Point","coordinates":[83.963348,28.206463400000004]}},{"type":"Feature","id":"way/407043567","properties":{"type":"way","id":407043567,"tags":{"building":"yes","established":"2010","internet_access":"wlan","internet_access:fee":"no","name":"Hotel Raniban Arcade","note":"Parking,LED TV with HD channels,Telephone,WiFi,Best accomodations","opening_hours":"6:00-23:00","ownership":"Durga Sharma","phone":"9818826122","smoking":"no","stars":"3","tourism":"hotel"},"relations":[],"meta":{"timestamp":"2018-06-21T05:05:06Z","version":3,"changeset":60029819,"user":"Gaurav Thapa","uid":4212590}},"geometry":{"type":"Point","coordinates":[83.96059821666667,28.20615085]}},{"type":"Feature","id":"way/407057494","properties":{"type":"way","id":407057494,"tags":{"building":"yes","internet_access":"yes","internet_access:fee":"no","name":"Hotel P-Raj","operator":"private","tourism":"hotel"},"relations":[],"meta":{"timestamp":"2017-08-13T07:45:51Z","version":2,"changeset":51074272,"user":"Bibek99","uid":6475007}},"geometry":{"type":"Point","coordinates":[83.91034884999999,28.23383895]}},{"type":"Feature","id":"way/412376737","properties":{"type":"way","id":412376737,"tags":{"building":"yes","name":"Hotel Goodwill","tourism":"hotel"},"relations":[],"meta":{"timestamp":"2018-06-21T07:05:25Z","version":4,"changeset":60032877,"user":"Gaurav Thapa","uid":4212590}},"geometry":{"type":"Point","coordinates":[83.95980826666667,28.213951249999997]}},{"type":"Feature","id":"way/412669212","properties":{"type":"way","id":412669212,"tags":{"beds":"135","name":"Dayatra Courtyard","phone":"61-462462","tourism":"hotel","website":"www.hoteldayatra.com"},"relations":[],"meta":{"timestamp":"2018-06-07T10:18:46Z","version":4,"changeset":59632034,"user":"Ro Sun","uid":3112087}},"geometry":{"type":"Point","coordinates":[83.958549275,28.21070345]}},{"type":"Feature","id":"way/415115194","properties":{"type":"way","id":415115194,"tags":{"addr:city":"pokhara lekhnath municipality","addr:street":"Lakeside Marg","building":"yes","name":"Hotel Adam","operator":"private","tourism":"hotel"},"relations":[],"meta":{"timestamp":"2017-09-12T12:27:46Z","version":4,"changeset":51971394,"user":"R0bst3r","uid":1783785}},"geometry":{"type":"Point","coordinates":[83.95691508333333,28.212043499999996]}},{"type":"Feature","id":"way/415733667","properties":{"type":"way","id":415733667,"tags":{"building":"yes","name":"Thapa hotel","smoking":"yes","tourism":"hotel"},"relations":[],"meta":{"timestamp":"2016-08-08T05:52:03Z","version":2,"changeset":41316532,"user":"Alisha12","uid":4204463}},"geometry":{"type":"Point","coordinates":[83.99014625,28.1945403]}},{"type":"Feature","id":"way/416517385","properties":{"type":"way","id":416517385,"tags":{"building":"yes","level":"2","name":"Hotel Mountain View","tourism":"hotel"},"relations":[],"meta":{"timestamp":"2016-05-08T09:08:15Z","version":1,"changeset":39177449,"user":"Sandpthapa","uid":3934066}},"geometry":{"type":"Point","coordinates":[83.96787317500001,28.20230795]}},{"type":"Feature","id":"way/417564939","properties":{"type":"way","id":417564939,"tags":{"addr:place":"Bajepokharai","building":"yes","name":"Foksing Hill Resort","name:ne":"फुकुओका हिल रिसोर्ट","tourism":"hotel"},"relations":[],"meta":{"timestamp":"2017-08-11T09:52:00Z","version":3,"changeset":51027691,"user":"gaurav bhattarai","uid":6465157}},"geometry":{"type":"Point","coordinates":[83.99447905000001,28.154294800000002]}},{"type":"Feature","id":"way/418249573","properties":{"type":"way","id":418249573,"tags":{"building":"yes","internet_access":"wlan","internet_access:fee":"no","name":"Siddhartha Garden","rooms":"8","smoking":"outside","stars":"3","tourism":"hotel","wheelchair":"no"},"relations":[],"meta":{"timestamp":"2018-07-15T07:51:55Z","version":3,"changeset":60726652,"user":"Bhawak","uid":4923175}},"geometry":{"type":"Point","coordinates":[83.940450475,28.2014038]}},{"type":"Feature","id":"way/418939831","properties":{"type":"way","id":418939831,"tags":{"building":"yes","contact:email":"info@annapurnaview.com","name":"Annapurna View Sarangkot","opening_hours":"8:00-22:00","phone":"+977061620345 ,061531052","tourism":"hotel"},"relations":[],"meta":{"timestamp":"2018-06-07T10:18:47Z","version":3,"changeset":59632034,"user":"Ro Sun","uid":3112087}},"geometry":{"type":"Point","coordinates":[83.94417547333335,28.25000869333333]}},{"type":"Feature","id":"way/418939886","properties":{"type":"way","id":418939886,"tags":{"addr:city":"pokhara lekhnath metropolitan city","addr:place":"Sarangkot","addr:street":"Sarangkot","name":"Bhanjyang Village and Lodge","opening_hours":"su-sa 05:00-23:00","tourism":"hotel"},"relations":[],"meta":{"timestamp":"2017-08-10T09:43:38Z","version":3,"changeset":50995788,"user":"usha51","uid":6448132}},"geometry":{"type":"Point","coordinates":[83.94540864999999,28.248075325]}},{"type":"Feature","id":"way/419635600","properties":{"type":"way","id":419635600,"tags":{"beds":"50","building":"yes","contact:email":"hoteliceland65@gmail.com","name:en":"Hotel Iceland","phone":"061-462012,465737","rooms":"32","tourism":"hotel","website":"hotelicelandinn.com"},"relations":[],"meta":{"timestamp":"2018-06-07T10:18:47Z","version":3,"changeset":59632034,"user":"Ro Sun","uid":3112087}},"geometry":{"type":"Point","coordinates":[83.95938155,28.2098216]}},{"type":"Feature","id":"way/419639077","properties":{"type":"way","id":419639077,"tags":{"beds":"30","building":"yes","email":"info@hotelabc.com.np","name":"Hotel ABC","name:en":"Hotel ABC","phone":"61-461934","rooms":"14","tourism":"hotel","website":"www.hotelabc.com.np"},"relations":[],"meta":{"timestamp":"2018-06-21T04:48:15Z","version":4,"changeset":60029422,"user":"Gaurav Thapa","uid":4212590}},"geometry":{"type":"Point","coordinates":[83.95766785999999,28.209079660000004]}},{"type":"Feature","id":"way/419643154","properties":{"type":"way","id":419643154,"tags":{"building":"hotel","building:levels":"4","name":"Hotel Blossom","phone":"0061464110;0061461746","tourism":"hotel","website":"www.hotelblossom.com.np"},"relations":[],"meta":{"timestamp":"2017-10-01T14:50:21Z","version":3,"changeset":52538694,"user":"GOwin","uid":1041828}},"geometry":{"type":"Point","coordinates":[83.959115325,28.211278025000002]}},{"type":"Feature","id":"way/419643160","properties":{"type":"way","id":419643160,"tags":{"beds":"30","building":"yes","contact:email":"khadkasurya135@gmail.com","name:en":"Bagaicha Resort & Spa","phone":"9802830243, 061-466772","rooms":"16","tourism":"hotel","website":"www.bagaicharesort.com"},"relations":[],"meta":{"timestamp":"2018-06-07T10:18:47Z","version":3,"changeset":59632034,"user":"Ro Sun","uid":3112087}},"geometry":{"type":"Point","coordinates":[83.958864475,28.208593225]}},{"type":"Feature","id":"way/419643170","properties":{"type":"way","id":419643170,"tags":{"beds":"25","building":"yes","contact:email":"hoteltimes017@gmail.com","name:en":"Hotel Times","phone":"061-463054","rooms":"13","tourism":"hotel"},"relations":[],"meta":{"timestamp":"2018-06-07T10:18:47Z","version":3,"changeset":59632034,"user":"Ro Sun","uid":3112087}},"geometry":{"type":"Point","coordinates":[83.96046825,28.210407699999998]}},{"type":"Feature","id":"way/419643203","properties":{"type":"way","id":419643203,"tags":{"building":"hotel","building:levels":"4","contact:email":"come2nepal2016@gmail.com","name":"Hotel Shivam","old_name":"Green Globe Hotel","phone":"9803040951","tourism":"hotel","website":"www.hotelshivam.com.np"},"relations":[],"meta":{"timestamp":"2018-06-07T10:18:48Z","version":4,"changeset":59632034,"user":"Ro Sun","uid":3112087}},"geometry":{"type":"Point","coordinates":[83.9591092,28.210949999999997]}},{"type":"Feature","id":"way/419645376","properties":{"type":"way","id":419645376,"tags":{"beds":"50","building":"yes","contact:email":"hulkhotelpkr@gmail.com","name:en":"Hotel Hulk","phone":"61-467319","rooms":"23","tourism":"hotel"},"relations":[],"meta":{"timestamp":"2018-06-07T10:18:48Z","version":3,"changeset":59632034,"user":"Ro Sun","uid":3112087}},"geometry":{"type":"Point","coordinates":[83.95873717500001,28.209213624999997]}},{"type":"Feature","id":"way/419645383","properties":{"type":"way","id":419645383,"tags":{"beds":"30","building":"yes","name":"Hotel Liberty","name:en":"Hotel Liberty","phone":"61-466861","tourism":"hotel","website":"www.fishtailexperiences.com"},"relations":[],"meta":{"timestamp":"2018-06-21T05:05:06Z","version":4,"changeset":60029819,"user":"Gaurav Thapa","uid":4212590}},"geometry":{"type":"Point","coordinates":[83.95749705,28.20919875]}},{"type":"Feature","id":"way/419645391","properties":{"type":"way","id":419645391,"tags":{"beds":"40","building":"yes","facility":"suitable for family livings","name:en":"Hotel Mount Fuji","phone":"9846278269,9806618363","rooms":"11","tourism":"hotel"},"relations":[],"meta":{"timestamp":"2018-06-07T10:18:48Z","version":4,"changeset":59632034,"user":"Ro Sun","uid":3112087}},"geometry":{"type":"Point","coordinates":[83.9588754,28.209353750000002]}},{"type":"Feature","id":"way/419645398","properties":{"type":"way","id":419645398,"tags":{"building":"yes","name:en":"Hotel The Cock","tourism":"hotel"},"relations":[],"meta":{"timestamp":"2018-03-13T06:47:12Z","version":2,"changeset":57134732,"user":"Shrestha Khum","uid":7644104}},"geometry":{"type":"Point","coordinates":[83.95865,28.209602975]}},{"type":"Feature","id":"way/420576823","properties":{"type":"way","id":420576823,"tags":{"building":"yes","name":"Apsara Hotel & Lodge","source":"2c pokhara","tourism":"hotel"},"relations":[],"meta":{"timestamp":"2018-03-19T16:58:44Z","version":2,"changeset":57324179,"user":"Active Asmita","uid":7644107}},"geometry":{"type":"Point","coordinates":[83.98712685,28.219463475]}},{"type":"Feature","id":"way/420748115","properties":{"type":"way","id":420748115,"tags":{"addr:city":"Pokhara Lekhanath Metropolitan City","building":"yes","name":"Hotel The City Corner","phone":"+977 9846042192","tourism":"hotel"},"relations":[],"meta":{"timestamp":"2018-06-07T10:18:48Z","version":3,"changeset":59632034,"user":"Ro Sun","uid":3112087}},"geometry":{"type":"Point","coordinates":[84.06242045,28.160586025000004]}},{"type":"Feature","id":"way/421273065","properties":{"type":"way","id":421273065,"tags":{"building":"yes","building:levels":"3","name":"Hotel The Lake","tourism":"hotel"},"relations":[],"meta":{"timestamp":"2017-09-13T09:04:04Z","version":3,"changeset":51997855,"user":"Ashish Thapa","uid":4039113}},"geometry":{"type":"Point","coordinates":[83.96697981666667,28.20431465]}},{"type":"Feature","id":"way/421273068","properties":{"type":"way","id":421273068,"tags":{"building":"yes","name":"Ming Tang Garden Cottage","phone":"061-465271, ‌+977-9818761488","tourism":"hotel"},"relations":[],"meta":{"timestamp":"2018-06-21T04:48:15Z","version":4,"changeset":60029422,"user":"Gaurav Thapa","uid":4212590}},"geometry":{"type":"Point","coordinates":[83.966007125,28.20363845]}},{"type":"Feature","id":"way/421273089","properties":{"type":"way","id":421273089,"tags":{"building":"yes","name":"Baba Lodge","tourism":"hotel"},"relations":[],"meta":{"timestamp":"2017-04-13T06:09:07Z","version":2,"changeset":47731122,"user":"Alisha12","uid":4204463}},"geometry":{"type":"Point","coordinates":[83.96604482500001,28.20385655]}},{"type":"Feature","id":"way/421305655","properties":{"type":"way","id":421305655,"tags":{"Estd":"1969","building":"yes","name":"Hotel Dragon","name:ne":"होटेल द्रागन","phone":"061-460238","source":"2cpokhara","stars":"2","tourism":"hotel"},"relations":[],"meta":{"timestamp":"2018-06-25T04:45:46Z","version":5,"changeset":60134872,"user":"Gaurav Thapa","uid":4212590}},"geometry":{"type":"Point","coordinates":[83.97212075555554,28.196529288888893]}},{"type":"Feature","id":"way/421440079","properties":{"type":"way","id":421440079,"tags":{"beds":"18","building":"yes","email":"hotelyeti222@hotmail.com","name":"Hotel Yeti","phone":"061-462768","tourism":"hotel","website":"www.hotelyeti.com.np"},"relations":[],"meta":{"timestamp":"2018-06-21T04:48:15Z","version":5,"changeset":60029422,"user":"Gaurav Thapa","uid":4212590}},"geometry":{"type":"Point","coordinates":[83.964218,28.20509485]}},{"type":"Feature","id":"way/421450695","properties":{"type":"way","id":421450695,"tags":{"building":"yes","name":"Hotel Marcopolo","phone":"+977467446","tourism":"hotel"},"relations":[],"meta":{"timestamp":"2018-06-07T10:18:49Z","version":3,"changeset":59632034,"user":"Ro Sun","uid":3112087}},"geometry":{"type":"Point","coordinates":[83.96578257499999,28.206301349999997]}},{"type":"Feature","id":"way/421736942","properties":{"type":"way","id":421736942,"tags":{"building":"yes","name":"hotel beizing","tourism":"hotel"},"relations":[],"meta":{"timestamp":"2018-03-14T16:19:32Z","version":4,"changeset":57183663,"user":"Aleks-Berlin","uid":85218}},"geometry":{"type":"Point","coordinates":[83.96509114999999,28.207157716666668]}},{"type":"Feature","id":"way/421737508","properties":{"type":"way","id":421737508,"tags":{"beds":"40","building":"yes","contact:person":"jeev raj upadhyay","email":"jeevrjup@gmail.com","name":"Hotel Swiss Home","tourism":"hotel"},"relations":[],"meta":{"timestamp":"2018-06-21T04:48:15Z","version":4,"changeset":60029422,"user":"Gaurav Thapa","uid":4212590}},"geometry":{"type":"Point","coordinates":[83.965486775,28.2047828]}},{"type":"Feature","id":"way/421745987","properties":{"type":"way","id":421745987,"tags":{"building":"yes","name":"Hotel Mantra Inn","tourism":"hotel"},"relations":[],"meta":{"timestamp":"2017-02-17T09:13:25Z","version":3,"changeset":46158960,"user":"Daman Neupane","uid":3480991}},"geometry":{"type":"Point","coordinates":[83.95992991666667,28.21434263333333]}},{"type":"Feature","id":"way/422030809","properties":{"type":"way","id":422030809,"tags":{"building":"yes","contact:email":"hotelaashika@yahoo.com","name":"Hotel Aashika","phone":"061-462446","source":"2cpokhara","tourism":"hotel"},"relations":[],"meta":{"timestamp":"2018-06-07T10:18:49Z","version":3,"changeset":59632034,"user":"Ro Sun","uid":3112087}},"geometry":{"type":"Point","coordinates":[83.97164455,28.1956088]}},{"type":"Feature","id":"way/422034674","properties":{"type":"way","id":422034674,"tags":{"building":"yes","name":"Hotel Stay Pokhara","phone":"061-464532","source":"2cpokhara","tourism":"hotel"},"relations":[],"meta":{"timestamp":"2018-06-07T10:18:49Z","version":3,"changeset":59632034,"user":"Ro Sun","uid":3112087}},"geometry":{"type":"Point","coordinates":[83.969789775,28.195275674999998]}},{"type":"Feature","id":"way/422034711","properties":{"type":"way","id":422034711,"tags":{"building":"yes","email":"sportshotelpokhara@gmail.com","internet_access:fee":"no","name":"Sports Hotel Pokhara","source":"2cpokhara","tourism":"hotel"},"relations":[],"meta":{"timestamp":"2018-06-26T05:30:05Z","version":3,"changeset":60168253,"user":"Gaurav Thapa","uid":4212590}},"geometry":{"type":"Point","coordinates":[83.9715724,28.1961273]}},{"type":"Feature","id":"way/422035735","properties":{"type":"way","id":422035735,"tags":{"building":"yes","name":"Hotel Rita Inn","phone":"9846238468","source":"2cpokhara","tourism":"hotel"},"relations":[],"meta":{"timestamp":"2018-06-07T10:18:49Z","version":3,"changeset":59632034,"user":"Ro Sun","uid":3112087}},"geometry":{"type":"Point","coordinates":[83.973476325,28.19681885]}},{"type":"Feature","id":"way/422037607","properties":{"type":"way","id":422037607,"tags":{"building":"yes","name":"Trekking Lodge","tourism":"hotel"},"relations":[],"meta":{"timestamp":"2017-04-10T13:21:10Z","version":2,"changeset":47623333,"user":"Bishal9841","uid":3573216}},"geometry":{"type":"Point","coordinates":[83.94817932500001,28.2442275]}},{"type":"Feature","id":"way/422038207","properties":{"type":"way","id":422038207,"tags":{"building":"yes","name":"Crony Cottage Lodge","tourism":"hotel"},"relations":[],"meta":{"timestamp":"2017-04-10T13:21:09Z","version":2,"changeset":47623333,"user":"Bishal9841","uid":3573216}},"geometry":{"type":"Point","coordinates":[83.9477688,28.245116825000004]}},{"type":"Feature","id":"way/423579021","properties":{"type":"way","id":423579021,"tags":{"internet_access":"yes","internet_access:fee":"no","name":"Hotel Third Pole","name:en":"Hotel Third Pole","name:ne":"होटल थर्ड पोल","tourism":"hotel"},"relations":[],"meta":{"timestamp":"2018-06-21T05:05:06Z","version":4,"changeset":60029819,"user":"Gaurav Thapa","uid":4212590}},"geometry":{"type":"Point","coordinates":[83.95929660769231,28.214668446153844]}},{"type":"Feature","id":"way/426549361","properties":{"type":"way","id":426549361,"tags":{"building":"yes","name":"Indreni Guest House","tourism":"hotel"},"relations":[],"meta":{"timestamp":"2017-10-16T11:54:15Z","version":3,"changeset":52979933,"user":"Simpleminded","uid":4585091}},"geometry":{"type":"Point","coordinates":[83.98277425,28.21063625]}},{"type":"Feature","id":"way/433245732","properties":{"type":"way","id":433245732,"tags":{"addr:city":"Pokhara","addr:housenumber":"Pumdi-Bhumdi, Ward No 25","addr:street":"Chisapani","email":"info@thepavilionshimalaya.com","name":"The Pavilions Himalaya","name:ne":"दि प्याभिलियोन्स हिमालय","phone":"+977 6169 4379","tourism":"hotel","website":"http://thepavilionshimalayas.com"},"relations":[],"meta":{"timestamp":"2016-09-16T09:01:05Z","version":2,"changeset":42197828,"user":"Parassrest","uid":3569249}},"geometry":{"type":"Point","coordinates":[83.93167134,28.180885600000003]}},{"type":"Feature","id":"way/438939806","properties":{"type":"way","id":438939806,"tags":{"addr:city":"Pokhara Lekhnath Metropolitan City","addr:place":"Lakeside","addr:street":"Khapaudi","building":"yes","name":"Fire and Fishing Hotel","phone":"9806572712","tourism":"hotel"},"relations":[],"meta":{"timestamp":"2018-06-07T10:18:49Z","version":3,"changeset":59632034,"user":"Ro Sun","uid":3112087}},"geometry":{"type":"Point","coordinates":[83.93623655,28.2277697]}},{"type":"Feature","id":"way/445003228","properties":{"type":"way","id":445003228,"tags":{"beds":"14","building":"yes","name":"Little Buddha Guest House","rooms":"7","tourism":"hotel"},"relations":[],"meta":{"timestamp":"2018-04-11T06:26:11Z","version":4,"changeset":57992957,"user":"Manoj Thapa","uid":781054}},"geometry":{"type":"Point","coordinates":[83.963685,28.205474975]}},{"type":"Feature","id":"way/445006403","properties":{"type":"way","id":445006403,"tags":{"beds":"20","building":"yes","email":"kajigc@gmail.com","name":"Hotel Sarang Pokhara","phone":"+97761463619","tourism":"hotel"},"relations":[],"meta":{"timestamp":"2018-06-07T10:18:50Z","version":5,"changeset":59632034,"user":"Ro Sun","uid":3112087}},"geometry":{"type":"Point","coordinates":[83.96554334166667,28.205714675000007]}},{"type":"Feature","id":"way/445006438","properties":{"type":"way","id":445006438,"tags":{"beds":"50","building":"yes","contact:email":"info@sunroutehotel.com","contact:person":"pradip kunwar","name":"Hotel Sun Route Restaurant","phone":"56032909","tourism":"hotel","website":"www.sunroutehotel.com"},"relations":[],"meta":{"timestamp":"2018-06-07T10:18:50Z","version":5,"changeset":59632034,"user":"Ro Sun","uid":3112087}},"geometry":{"type":"Point","coordinates":[83.9658708,28.2058336]}},{"type":"Feature","id":"way/448597502","properties":{"type":"way","id":448597502,"tags":{"name":"Sangri-La Village Resort Pokhara","name:en":"सांग्रिला होटेल","stars":"4","tourism":"hotel"},"relations":[],"meta":{"timestamp":"2016-10-20T09:08:41Z","version":2,"changeset":43027622,"user":"Manoj Thapa","uid":781054}},"geometry":{"type":"Point","coordinates":[83.97496448666668,28.18652374]}},{"type":"Feature","id":"way/451699586","properties":{"type":"way","id":451699586,"tags":{"addr:city":"Pokhara","building":"yes","name":"Ever Green Guest House","phone":"061-463503 9856025139","tourism":"hotel"},"relations":[],"meta":{"timestamp":"2018-06-07T10:18:50Z","version":3,"changeset":59632034,"user":"Ro Sun","uid":3112087}},"geometry":{"type":"Point","coordinates":[83.96756707499999,28.2027023]}},{"type":"Feature","id":"way/486500345","properties":{"type":"way","id":486500345,"tags":{"building":"yes","email":"snowhilllodge@hotmail.com","name":"Snow Hill Lodge","phone":"061-465685","tourism":"hotel","website":"http://www.snowhilllodge.com.np"},"relations":[],"meta":{"timestamp":"2018-06-21T04:48:15Z","version":5,"changeset":60029422,"user":"Gaurav Thapa","uid":4212590}},"geometry":{"type":"Point","coordinates":[83.966276875,28.2036875]}},{"type":"Feature","id":"way/486528825","properties":{"type":"way","id":486528825,"tags":{"beds":"25","contact:mail":"gaurishankargh@hotmail.com","name":"Gauri Shankar Guest House","phone":"061-466671","tourism":"hotel","website":"www.gaurishankar.com"},"relations":[],"meta":{"timestamp":"2018-06-07T10:18:50Z","version":3,"changeset":59632034,"user":"Ro Sun","uid":3112087}},"geometry":{"type":"Point","coordinates":[83.96187662499999,28.206459875]}},{"type":"Feature","id":"way/486538028","properties":{"type":"way","id":486538028,"tags":{"building":"hotel","name":"Silver Sky Hotel","tourism":"hotel"},"relations":[],"meta":{"timestamp":"2018-03-18T10:56:07Z","version":3,"changeset":57287461,"user":"Gaurav Thapa","uid":4212590}},"geometry":{"type":"Point","coordinates":[83.95984705000001,28.2115513]}},{"type":"Feature","id":"way/489529936","properties":{"type":"way","id":489529936,"tags":{"building":"yes","name":"Home stay","tourism":"hotel"},"relations":[],"meta":{"timestamp":"2017-04-26T08:37:00Z","version":1,"changeset":48155035,"user":"DB Purja","uid":4066513}},"geometry":{"type":"Point","coordinates":[84.11156475,28.329986575000003]}},{"type":"Feature","id":"way/489560839","properties":{"type":"way","id":489560839,"tags":{"building":"yes","name":"Home Stay","tourism":"hotel"},"relations":[],"meta":{"timestamp":"2017-04-26T10:59:51Z","version":1,"changeset":48159256,"user":"DB Purja","uid":4066513}},"geometry":{"type":"Point","coordinates":[84.10843127499999,28.330017549999997]}},{"type":"Feature","id":"way/514481745","properties":{"type":"way","id":514481745,"tags":{"addr:city":"Pokhara Lekhnath Metropolitan City","addr:street":"Methlang","name":"Rock Garden Resort Pvt. Ltd","phone":"9856080552","tourism":"hotel"},"relations":[],"meta":{"timestamp":"2018-06-07T10:18:50Z","version":2,"changeset":59632034,"user":"Ro Sun","uid":3112087}},"geometry":{"type":"Point","coordinates":[83.96478532307691,28.231067269230774]}},{"type":"Feature","id":"way/514704137","properties":{"type":"way","id":514704137,"tags":{"addr:city":"Pokhara Lekhnath Metropolitan City","addr:place":"Samidanda Tole","addr:street":"Arghun Base lekhnath Janmasthal Marg","name":"Archale Height Resort","tourism":"hotel"},"relations":[],"meta":{"timestamp":"2017-08-11T08:14:34Z","version":1,"changeset":51024700,"user":"rmpaudel123","uid":6447862}},"geometry":{"type":"Point","coordinates":[84.07032907499999,28.1971546]}},{"type":"Feature","id":"way/524552629","properties":{"type":"way","id":524552629,"tags":{"building":"yes","name":"Hotel Lake Tower","tourism":"hotel"},"relations":[],"meta":{"timestamp":"2017-09-14T05:39:52Z","version":1,"changeset":52026251,"user":"Ashish Thapa","uid":4039113}},"geometry":{"type":"Point","coordinates":[83.961386425,28.2113893]}},{"type":"Feature","id":"way/524552631","properties":{"type":"way","id":524552631,"tags":{"building":"yes","name":"Maharaja Hotel","tourism":"hotel"},"relations":[],"meta":{"timestamp":"2017-09-14T05:39:52Z","version":1,"changeset":52026251,"user":"Ashish Thapa","uid":4039113}},"geometry":{"type":"Point","coordinates":[83.96151327499999,28.2112283]}},{"type":"Feature","id":"way/528996328","properties":{"type":"way","id":528996328,"tags":{"barrier":"fence","name":"Nirvana Hotel","name:ne":"निर्भाना होटेल","tourism":"hotel"},"relations":[],"meta":{"timestamp":"2017-09-30T14:33:58Z","version":1,"changeset":52513391,"user":"GOwin","uid":1041828}},"geometry":{"type":"Point","coordinates":[83.96040134285715,28.206451214285714]}},{"type":"Feature","id":"way/540638412","properties":{"type":"way","id":540638412,"tags":{"email":"info@rupakotresort.com","name":"Rupakot Resort","phone":"61 622660","rooms":"42","tourism":"hotel","wall":"dry_stone"},"relations":[],"meta":{"timestamp":"2018-05-24T10:08:29Z","version":2,"changeset":59236954,"user":"Ro Sun","uid":3112087}},"geometry":{"type":"Point","coordinates":[84.13034543888888,28.155037999999994]}},{"type":"Feature","id":"way/545413357","properties":{"type":"way","id":545413357,"tags":{"building":"yes","name":"Bodhi Suites and Spa","name:en":"Bodhi Suites and Spa","tourism":"hotel"},"relations":[],"meta":{"timestamp":"2018-06-21T04:48:16Z","version":3,"changeset":60029422,"user":"Gaurav Thapa","uid":4212590}},"geometry":{"type":"Point","coordinates":[83.959820075,28.209672825000002]}},{"type":"Feature","id":"way/545413362","properties":{"type":"way","id":545413362,"tags":{"beds":"45","building":"yes","contact:email":"info@ranssapartment.com","name:en":"Hotel Prime","phone":"61-464573, 466601","tourism":"hotel","website":"www.thehotelprime.com"},"relations":[],"meta":{"timestamp":"2018-06-07T10:18:51Z","version":3,"changeset":59632034,"user":"Ro Sun","uid":3112087}},"geometry":{"type":"Point","coordinates":[83.96068825,28.2091713]}},{"type":"Feature","id":"way/562935083","properties":{"type":"way","id":562935083,"tags":{"internet_access":"yes","internet_access:fee":"Free","name":"Hotel Darsan","phone":"061- 541005","smoking":"yes","tourism":"hotel"},"relations":[],"meta":{"timestamp":"2018-06-07T10:18:51Z","version":3,"changeset":59632034,"user":"Ro Sun","uid":3112087}},"geometry":{"type":"Point","coordinates":[83.985735225,28.215803625]}},{"type":"Feature","id":"way/569217540","properties":{"type":"way","id":569217540,"tags":{"name:en":"Mera Guest House","phone":"9846231322,061-461924","tourism":"hotel"},"relations":[],"meta":{"timestamp":"2018-06-07T10:18:51Z","version":2,"changeset":59632034,"user":"Ro Sun","uid":3112087}},"geometry":{"type":"Point","coordinates":[83.95851344,28.209628759999998]}},{"type":"Feature","id":"way/569217541","properties":{"type":"way","id":569217541,"tags":{"beds":"50","email":"landofgreenary@yahoo.com","name":"Hotel Green Land","phone":"61-461591,465537","rooms":"22","tourism":"hotel"},"relations":[],"meta":{"timestamp":"2018-06-21T04:48:16Z","version":3,"changeset":60029422,"user":"Gaurav Thapa","uid":4212590}},"geometry":{"type":"Point","coordinates":[83.9587406,28.209637775]}},{"type":"Feature","id":"way/569217542","properties":{"type":"way","id":569217542,"tags":{"beds":"30","name":"Hotel Nobel Inn","phone":"61-464926,462507","rooms":"17","tourism":"hotel","website":"www.nobleinn.com"},"relations":[],"meta":{"timestamp":"2018-06-21T04:48:16Z","version":3,"changeset":60029422,"user":"Gaurav Thapa","uid":4212590}},"geometry":{"type":"Point","coordinates":[83.95888498000001,28.20963226]}},{"type":"Feature","id":"way/569252084","properties":{"type":"way","id":569252084,"tags":{"beds":"30","contact:email":"manager.vardanresort@gmail.com","name:en":"Vardan resort and Apartment","phone":"9846790699,061-465830","rooms":"15","tourism":"hotel","website":"www.vardanresort.com"},"relations":[],"meta":{"timestamp":"2018-06-07T10:18:51Z","version":3,"changeset":59632034,"user":"Ro Sun","uid":3112087}},"geometry":{"type":"Point","coordinates":[83.959609625,28.210306674999998]}},{"type":"Feature","id":"way/572982802","properties":{"type":"way","id":572982802,"tags":{"addr:city":"pokhara lekhnath metropolitan city","addr:place":"Sarangkot","addr:street":"Sarangkot","name":"Sherpa Resort","opening_hours":"su-sa 06:00-23:00","phone":"9827160186","tourism":"hotel","website":"www.sherparesort.com"},"relations":[],"meta":{"timestamp":"2018-06-21T05:15:59Z","version":3,"changeset":60030050,"user":"Gaurav Thapa","uid":4212590}},"geometry":{"type":"Point","coordinates":[83.94495557142857,28.24870113571428]}},{"type":"Feature","id":"node/267667122","properties":{"type":"node","id":267667122,"tags":{"facility":"restaurnat,bar,laundry","name":"Rockland Hotel","name:en":"Hotel Rockland","name:ne":"रक ल्यान्ड होटल","phone":"061-461953","tourism":"hotel"},"relations":[],"meta":{"timestamp":"2018-06-24T11:12:59Z","version":4,"changeset":60118157,"user":"Gaurav Thapa","uid":4212590}},"geometry":{"type":"Point","coordinates":[83.9631084,28.2113597]}},{"type":"Feature","id":"node/316985065","properties":{"type":"node","id":316985065,"tags":{"ele":"795","email":"basecamppkr@wlink.com.np","name":"Base Camp Resort","name:ne":"बेस क्याम्प रिसोर्ट","phone":"061-464653","stars":"2","tourism":"hotel"},"relations":[],"meta":{"timestamp":"2018-06-25T04:44:25Z","version":10,"changeset":60134851,"user":"Gaurav Thapa","uid":4212590}},"geometry":{"type":"Point","coordinates":[83.9662542,28.2043486]}},{"type":"Feature","id":"node/568542954","properties":{"type":"node","id":568542954,"tags":{"name":"Hotel Landmark","name:ne":"ल्यान्ड मार्क होटल","tourism":"hotel"},"relations":[],"meta":{"timestamp":"2016-10-24T07:41:03Z","version":4,"changeset":43116139,"user":"Gaurav Thapa","uid":4212590}},"geometry":{"type":"Point","coordinates":[83.9575377,28.2078818]}},{"type":"Feature","id":"node/605254986","properties":{"type":"node","id":605254986,"tags":{"name":"Hotel Green Land","name:ne":"होटेल ग्रीन ल्याण्ड","tourism":"hotel"},"relations":[],"meta":{"timestamp":"2016-09-12T08:05:09Z","version":5,"changeset":42093897,"user":"Alisha12","uid":4204463}},"geometry":{"type":"Point","coordinates":[83.8487103,28.3006837]}},{"type":"Feature","id":"node/763684019","properties":{"type":"node","id":763684019,"tags":{"addr:city":"Pokhara","addr:street":"pahari marg","beds":"20","name":"Hotel Lake Diamond","name:ne":"होटल लेक डाइमन्ड","phone":"642064,9846048134","tourism":"hotel","website":"www.hotellakediamond.com"},"relations":[],"meta":{"timestamp":"2018-06-07T10:18:24Z","version":7,"changeset":59632034,"user":"Ro Sun","uid":3112087}},"geometry":{"type":"Point","coordinates":[83.9598865,28.2103363]}},{"type":"Feature","id":"node/763689090","properties":{"type":"node","id":763689090,"tags":{"name":"Eden Hotel","name:ne":"ईदेन होटल","tourism":"hotel"},"relations":[],"meta":{"timestamp":"2016-08-15T09:40:34Z","version":3,"changeset":41463889,"user":"Parassrest","uid":3569249}},"geometry":{"type":"Point","coordinates":[83.9614103,28.2068464]}},{"type":"Feature","id":"node/973821299","properties":{"type":"node","id":973821299,"tags":{"name":"Snow Hill Lodge","name:ne":"स्नो हिल लज","tourism":"hotel"},"relations":[],"meta":{"timestamp":"2016-08-08T11:41:57Z","version":4,"changeset":41322315,"user":"Parassrest","uid":3569249}},"geometry":{"type":"Point","coordinates":[83.9665202,28.2035185]}},{"type":"Feature","id":"node/978322936","properties":{"type":"node","id":978322936,"tags":{"contact:email":"hotelsnowlandpkr@gmail.com","name":"Snowland Hotel","name:ne":"स्नोल्यान्ड होटल","phone":"+977-9856099999, 061-462384; 061-462572","rooms":"42","stars":"2","tourism":"hotel","website":"www.hotelsnowlandpokhara.com"},"relations":[],"meta":{"timestamp":"2018-06-25T05:56:00Z","version":9,"changeset":60136312,"user":"Gaurav Thapa","uid":4212590}},"geometry":{"type":"Point","coordinates":[83.9576381,28.2089262]}},{"type":"Feature","id":"node/978322941","properties":{"type":"node","id":978322941,"tags":{"name":"Shining Star Hotel","name:ne":"साइनिंग इसटार होटल","tourism":"hotel"},"relations":[],"meta":{"timestamp":"2016-08-21T08:18:08Z","version":3,"changeset":41588753,"user":"Bishal9841","uid":3573216}},"geometry":{"type":"Point","coordinates":[83.9590916,28.2173093]}},{"type":"Feature","id":"node/978322957","properties":{"type":"node","id":978322957,"tags":{"name":"Hotel Tropicana","name:ne":"होटल ट्रोपिकना","phone":"061-462118","tourism":"hotel"},"relations":[],"meta":{"timestamp":"2018-06-07T10:18:24Z","version":7,"changeset":59632034,"user":"Ro Sun","uid":3112087}},"geometry":{"type":"Point","coordinates":[83.9590312,28.2171335]}},{"type":"Feature","id":"node/978322959","properties":{"type":"node","id":978322959,"tags":{"name":"Mandap Hotel","name:ne":"मंन्ड़प होटल","tourism":"hotel"},"relations":[],"meta":{"timestamp":"2017-04-18T08:58:30Z","version":4,"changeset":47898405,"user":"ayushupreti22","uid":3911278}},"geometry":{"type":"Point","coordinates":[83.9589863,28.2169848]}},{"type":"Feature","id":"node/978322978","properties":{"type":"node","id":978322978,"tags":{"name":"Crown Hotel","name:ne":"क्राउन होटल","phone":"061-464821","tourism":"hotel","website":"crownhotelpokhara.com"},"relations":[],"meta":{"timestamp":"2018-06-07T10:18:25Z","version":6,"changeset":59632034,"user":"Ro Sun","uid":3112087}},"geometry":{"type":"Point","coordinates":[83.958772,28.2158708]}},{"type":"Feature","id":"node/978322981","properties":{"type":"node","id":978322981,"tags":{"name":"Plaza Annapurna Hotel","name:ne":"प्लाजा अन्नपुर्ण होटल","tourism":"hotel"},"relations":[],"meta":{"timestamp":"2016-09-22T07:12:42Z","version":5,"changeset":42339979,"user":"Alisha12","uid":4204463}},"geometry":{"type":"Point","coordinates":[83.9587271,28.2156626]}},{"type":"Feature","id":"node/978322982","properties":{"type":"node","id":978322982,"tags":{"name":"Peace Plaza Hotel","name:ne":"पीस प्लाजा होटल","tourism":"hotel"},"relations":[],"meta":{"timestamp":"2017-04-18T08:17:41Z","version":4,"changeset":47897157,"user":"ayushupreti22","uid":3911278}},"geometry":{"type":"Point","coordinates":[83.9581447,28.2152126]}},{"type":"Feature","id":"node/978322998","properties":{"type":"node","id":978322998,"tags":{"name":"Nepal Hotel","name:ne":"नेपाल होटेल","tourism":"hotel"},"relations":[],"meta":{"timestamp":"2017-04-13T04:57:43Z","version":5,"changeset":47729927,"user":"ayushupreti22","uid":3911278}},"geometry":{"type":"Point","coordinates":[83.9599162,28.21378]}},{"type":"Feature","id":"node/978323003","properties":{"type":"node","id":978323003,"tags":{"name":"Buddha Hotel","name:ne":"बुद्ध होटल","tourism":"hotel"},"relations":[],"meta":{"timestamp":"2018-06-24T10:51:45Z","version":4,"changeset":60117759,"user":"Gaurav Thapa","uid":4212590}},"geometry":{"type":"Point","coordinates":[83.9614901,28.2131091]}},{"type":"Feature","id":"node/978323045","properties":{"type":"node","id":978323045,"tags":{"internet_access":"wlan","name":"Comfort Inn Hotel","name:ne":"कम्फोर्ट इन् होटेल","name:ru":"К2","tourism":"hotel"},"relations":[],"meta":{"timestamp":"2018-06-21T04:48:11Z","version":6,"changeset":60029422,"user":"Gaurav Thapa","uid":4212590}},"geometry":{"type":"Point","coordinates":[83.967112,28.204008]}},{"type":"Feature","id":"node/1338303817","properties":{"type":"node","id":1338303817,"tags":{"amenity":"restaurant","contact:email":"bikithap@gmail.com","internet_access":"yes","internet_access:fee":"no","name":"View Top Lodge and Restaurant","opening_hours":"09:00-20:00","operator":"Bikash Thapa","phone":"9846292257 ,9746064324","smoking":"separated","tourism":"hotel"},"relations":[],"meta":{"timestamp":"2018-06-21T05:15:58Z","version":7,"changeset":60030050,"user":"Gaurav Thapa","uid":4212590}},"geometry":{"type":"Point","coordinates":[83.9481824,28.243297]}},{"type":"Feature","id":"node/1338303819","properties":{"type":"node","id":1338303819,"tags":{"name":"Lake View Lodge","name:ne":"लेक भ्यु लज","tourism":"hotel"},"relations":[],"meta":{"timestamp":"2018-06-21T05:15:58Z","version":4,"changeset":60030050,"user":"Gaurav Thapa","uid":4212590}},"geometry":{"type":"Point","coordinates":[83.9486021,28.2441623]}},{"type":"Feature","id":"node/1352229250","properties":{"type":"node","id":1352229250,"tags":{"name":"Mums Garden Resort","name:ne":"मोम्स गार्देन रिसोर्ट","tourism":"hotel"},"relations":[],"meta":{"timestamp":"2016-08-08T11:41:56Z","version":3,"changeset":41322315,"user":"Parassrest","uid":3569249}},"geometry":{"type":"Point","coordinates":[83.9668909,28.2034965]}},{"type":"Feature","id":"node/1352234860","properties":{"type":"node","id":1352234860,"tags":{"name":"Celesty Inn","name:ne":"सेलेष्टी ईन","tourism":"hotel"},"relations":[],"meta":{"timestamp":"2017-04-18T08:56:17Z","version":6,"changeset":47898346,"user":"Parassrest","uid":3569249}},"geometry":{"type":"Point","coordinates":[83.9592412,28.2127203]}},{"type":"Feature","id":"node/1352234861","properties":{"type":"node","id":1352234861,"tags":{"internet_access":"wlan","internet_access:fee":"no","name":"Green Tara","name:ne":"ग्रिन तारा","tourism":"hotel"},"relations":[],"meta":{"timestamp":"2016-12-02T09:23:02Z","version":7,"changeset":44109190,"user":"Alisha12","uid":4204463}},"geometry":{"type":"Point","coordinates":[83.9601334,28.206892]}},{"type":"Feature","id":"node/1352234872","properties":{"type":"node","id":1352234872,"tags":{"addr:street":"lakeside road","name":"Sacred Valley Inn","name:ne":"ईस्केयर्ड भ्यालि ईन","tourism":"hotel"},"relations":[],"meta":{"timestamp":"2017-04-10T14:53:22Z","version":5,"changeset":47626362,"user":"Niels Wabeke","uid":5647149}},"geometry":{"type":"Point","coordinates":[83.9590937,28.2066529]}},{"type":"Feature","id":"node/1352234875","properties":{"type":"node","id":1352234875,"tags":{"name":"Viewpoint Hotel","name:ne":"भ्यु पोईन्ट","tourism":"hotel"},"relations":[],"meta":{"timestamp":"2017-04-13T08:08:20Z","version":5,"changeset":47734136,"user":"Ro Sun","uid":3112087}},"geometry":{"type":"Point","coordinates":[83.9615708,28.2062232]}},{"type":"Feature","id":"node/1352860975","properties":{"type":"node","id":1352860975,"tags":{"contact:website":"http://www.hotelmandala.com.np","name":"Mandala","name:ne":"मंडला","phone":"+977061464690","tourism":"hotel"},"relations":[],"meta":{"timestamp":"2018-06-07T10:18:25Z","version":4,"changeset":59632034,"user":"Ro Sun","uid":3112087}},"geometry":{"type":"Point","coordinates":[83.9589027,28.2147532]}},{"type":"Feature","id":"node/1366437371","properties":{"type":"node","id":1366437371,"tags":{"contact:facebook":"https://www.facebook.com/Machhapuchhre-guest-house-412745145530831/","name":"Machhapuchhre Guest House","name:ne":"माछापुछ्रे गेस्ट हाउस","opening_hours":"24/7","phone":"061-466082","tourism":"hotel"},"relations":[],"meta":{"timestamp":"2018-06-07T10:18:25Z","version":9,"changeset":59632034,"user":"Ro Sun","uid":3112087}},"geometry":{"type":"Point","coordinates":[83.958934,28.2160911]}},{"type":"Feature","id":"node/1366523178","properties":{"type":"node","id":1366523178,"tags":{"tourism":"hotel"},"relations":[],"meta":{"timestamp":"2012-12-14T09:27:12Z","version":4,"changeset":14268926,"user":"rene66","uid":522521}},"geometry":{"type":"Point","coordinates":[83.8602314,28.3003452]}},{"type":"Feature","id":"node/1366598697","properties":{"type":"node","id":1366598697,"tags":{"tourism":"hotel"},"relations":[],"meta":{"timestamp":"2011-09-20T14:43:33Z","version":2,"changeset":9351884,"user":"Dima M","uid":433361}},"geometry":{"type":"Point","coordinates":[83.8235952,28.2926673]}},{"type":"Feature","id":"node/1513693555","properties":{"type":"node","id":1513693555,"tags":{"internet_access":"wlan","name":"Butterfly Lodge","name:ne":"बटरफ्लाई लज","phone":"061-461892","tourism":"hotel","website":"butterfly-lodge.org"},"relations":[],"meta":{"timestamp":"2018-06-07T10:18:25Z","version":7,"changeset":59632034,"user":"Ro Sun","uid":3112087}},"geometry":{"type":"Point","coordinates":[83.9581343,28.2128021]}},{"type":"Feature","id":"node/1555308346","properties":{"type":"node","id":1555308346,"tags":{"name":"Lake City Hotel","name:ne":"लेक सिटी होटल","tourism":"hotel"},"relations":[],"meta":{"timestamp":"2017-04-13T05:34:19Z","version":3,"changeset":47730400,"user":"Bishal9841","uid":3573216}},"geometry":{"type":"Point","coordinates":[83.9573939,28.2136366]}},{"type":"Feature","id":"node/1555308355","properties":{"type":"node","id":1555308355,"tags":{"name":"Dharma Hotel","name:ne":"धर्म होटेल","tourism":"hotel"},"relations":[],"meta":{"timestamp":"2017-09-14T05:06:06Z","version":4,"changeset":52025812,"user":"Ashish Thapa","uid":4039113}},"geometry":{"type":"Point","coordinates":[83.963816,28.2048582]}},{"type":"Feature","id":"node/1736446048","properties":{"type":"node","id":1736446048,"tags":{"description":"Guesthouse","name":"Robin's Nest","tourism":"hotel"},"relations":[],"meta":{"timestamp":"2018-06-22T09:06:30Z","version":2,"changeset":60068962,"user":"Gaurav Thapa","uid":4212590}},"geometry":{"type":"Point","coordinates":[84.109183,28.1638]}},{"type":"Feature","id":"node/1979816718","properties":{"type":"node","id":1979816718,"tags":{"name":"Blue Heaven Guesthouse","name:ne":"ब्लु हेबेन गेस्ट होउस","tourism":"hotel"},"relations":[],"meta":{"timestamp":"2016-08-09T09:56:01Z","version":3,"changeset":41341581,"user":"Parassrest","uid":3569249}},"geometry":{"type":"Point","coordinates":[83.9634769,28.2064597]}},{"type":"Feature","id":"node/2087062151","properties":{"type":"node","id":2087062151,"tags":{"beds":"20","contact:email":"pageni_20@yahoo.com","internet_access":"wlan","name":"Global Inn","name:en":"Global Inn","name:ne":"ग्लोबल इन","phone":"9846027252","tourism":"hotel","website":"www.hotelglobalinnpokhara.com"},"relations":[],"meta":{"timestamp":"2018-06-07T10:18:25Z","version":7,"changeset":59632034,"user":"Ro Sun","uid":3112087}},"geometry":{"type":"Point","coordinates":[83.9597651,28.2082905]}},{"type":"Feature","id":"node/2087062207","properties":{"type":"node","id":2087062207,"tags":{"beds":"30","contact:email":"hotelfourseasons@rocketmail.com","email":"info@hotelfourseasons.com.np","internet_access":"wlan","name":"Four Seasons","name:en":"Four Seasons","name:ne":"फोर सिजन्स","tourism":"hotel","website":"www.hotelfourseasons.com.np"},"relations":[],"meta":{"timestamp":"2018-04-08T09:42:53Z","version":6,"changeset":57908724,"user":"Ro Sun","uid":3112087}},"geometry":{"type":"Point","coordinates":[83.9594651,28.208399]}},{"type":"Feature","id":"node/2087062504","properties":{"type":"node","id":2087062504,"tags":{"name":"Holy Heaven","name:ne":"होलि हेभन होटल","tourism":"hotel"},"relations":[],"meta":{"timestamp":"2016-10-06T07:06:02Z","version":2,"changeset":42676213,"user":"Bishal9841","uid":3573216}},"geometry":{"type":"Point","coordinates":[83.9593222,28.2083702]}},{"type":"Feature","id":"node/2139797790","properties":{"type":"node","id":2139797790,"tags":{"name":"Sangam Hotel","name:ne":"संगम होटल","tourism":"hotel"},"relations":[],"meta":{"timestamp":"2016-08-08T12:01:25Z","version":3,"changeset":41322692,"user":"Bishal9841","uid":3573216}},"geometry":{"type":"Point","coordinates":[83.9714593,28.201024]}},{"type":"Feature","id":"node/2142193501","properties":{"type":"node","id":2142193501,"tags":{"name":"Hotel Holiday Pokhara","name:ne":"होटल होलिडे पोखरा","phone":"061-464763","source":"2cpokhara","tourism":"hotel"},"relations":[],"meta":{"timestamp":"2018-06-07T10:18:25Z","version":4,"changeset":59632034,"user":"Ro Sun","uid":3112087}},"geometry":{"type":"Point","coordinates":[83.9699876,28.1991659]}},{"type":"Feature","id":"node/2142193505","properties":{"type":"node","id":2142193505,"tags":{"contact:email":"hotelkc@hotmail.com","name":"Hotel K.C.","name:ne":"होटेल के.सि.","phone":"061-462560","source":"2cpokhara","tourism":"hotel"},"relations":[],"meta":{"timestamp":"2018-06-10T06:41:03Z","version":5,"changeset":59704731,"user":"marek kleciak","uid":338611}},"geometry":{"type":"Point","coordinates":[83.9696009,28.196854]}},{"type":"Feature","id":"node/2142193507","properties":{"type":"node","id":2142193507,"tags":{"contact:email":"www.newhotelnatureland.com","name":"Hotel Nature Land","name:ne":"होटल नेचर ल्यान्ड","opening_hours":"7:00-22:00","tourism":"hotel"},"relations":[],"meta":{"timestamp":"2018-03-08T06:34:13Z","version":4,"changeset":56988890,"user":"dgitto","uid":554973}},"geometry":{"type":"Point","coordinates":[83.9705967,28.1997781]}},{"type":"Feature","id":"node/2142193509","properties":{"type":"node","id":2142193509,"tags":{"name":"Jharana Hotel","name:ne":"झर्ना होटेल","tourism":"hotel"},"relations":[],"meta":{"timestamp":"2016-08-14T04:50:49Z","version":2,"changeset":41440084,"user":"Parassrest","uid":3569249}},"geometry":{"type":"Point","coordinates":[83.9695695,28.1967182]}},{"type":"Feature","id":"node/2142193510","properties":{"type":"node","id":2142193510,"tags":{"name":"Monalisa Hotel","name:ne":"मोना लिजा होटेल","phone":"061-463863","source":"2cpokhara","tourism":"hotel"},"relations":[],"meta":{"timestamp":"2018-06-07T10:18:26Z","version":4,"changeset":59632034,"user":"Ro Sun","uid":3112087}},"geometry":{"type":"Point","coordinates":[83.9695357,28.1966266]}},{"type":"Feature","id":"node/2321752889","properties":{"type":"node","id":2321752889,"tags":{"internet_access":"wlan","internet_access:fee":"no","name":"The Pokhara United","name:ne":"पोखरा युनाईटेड","smoking":"yes","tourism":"hotel","wheelchair":"no"},"relations":[],"meta":{"timestamp":"2016-10-06T04:40:01Z","version":2,"changeset":42674188,"user":"Parassrest","uid":3569249}},"geometry":{"type":"Point","coordinates":[83.961346,28.2148888]}},{"type":"Feature","id":"node/2469797444","properties":{"type":"node","id":2469797444,"tags":{"name":"Peace Dragon Lodge","name:ne":"शान्ति ड्रयागन लज","source":"http://www.peacedragonlodge.com/contact-us.php","tourism":"hotel"},"relations":[],"meta":{"timestamp":"2016-08-21T08:24:30Z","version":3,"changeset":41588847,"user":"Bishal9841","uid":3573216}},"geometry":{"type":"Point","coordinates":[83.9473581,28.2002225]}},{"type":"Feature","id":"node/2470947626","properties":{"type":"node","id":2470947626,"tags":{"name":"Nature's Grace Lodge","name:en":"Nature's Grace Lodge","name:ne":"नेचर'स ग्रेस लज","tourism":"hotel"},"relations":[],"meta":{"timestamp":"2018-06-21T04:48:11Z","version":4,"changeset":60029422,"user":"Gaurav Thapa","uid":4212590}},"geometry":{"type":"Point","coordinates":[83.9588803,28.212777]}},{"type":"Feature","id":"node/2696863149","properties":{"type":"node","id":2696863149,"tags":{"name":"Vagabond Guest House","name:ne":"भागा बोन्ड गेष्ट हाउस","tourism":"hotel"},"relations":[],"meta":{"timestamp":"2016-12-08T09:50:58Z","version":4,"changeset":44254414,"user":"Alisha12","uid":4204463}},"geometry":{"type":"Point","coordinates":[83.9621953,28.2058922]}},{"type":"Feature","id":"node/2962824642","properties":{"type":"node","id":2962824642,"tags":{"contact:email":"bishnumsb10@gmail.com","name":"Hotel Double Tree Pokhara","name:ne":"होटल डबल ट्री पोखरा","phone":"977- 061466463 / 98560-20678 / 9846324653","tourism":"hotel","website":"http://www.doubletreepokhara.com"},"relations":[],"meta":{"timestamp":"2018-06-07T10:18:26Z","version":4,"changeset":59632034,"user":"Ro Sun","uid":3112087}},"geometry":{"type":"Point","coordinates":[83.9579385,28.2122507]}},{"type":"Feature","id":"node/3043193221","properties":{"type":"node","id":3043193221,"tags":{"beds":"40","contact:mail":"info@hotelsplendidview.com","name":"Splendid View","name:ne":"ईस्प्लेदित भ्यु","opening_hours":"24/7","phone":"61-466034, 466035, 9856020202","tourism":"hotel","website":"www.hotelsplendidview.com"},"relations":[],"meta":{"timestamp":"2018-06-07T10:18:26Z","version":4,"changeset":59632034,"user":"Ro Sun","uid":3112087}},"geometry":{"type":"Point","coordinates":[83.9613731,28.2064854]}},{"type":"Feature","id":"node/3043193222","properties":{"type":"node","id":3043193222,"tags":{"name":"Lotus Inn","tourism":"hotel"},"relations":[],"meta":{"timestamp":"2014-10-04T20:52:12Z","version":2,"changeset":25860241,"user":"Jordi1024","uid":1738656}},"geometry":{"type":"Point","coordinates":[83.9608068,28.2066935]}},{"type":"Feature","id":"node/3043193223","properties":{"type":"node","id":3043193223,"tags":{"name":"Travel Inn","name:ne":"ट्रयाभल ईन","tourism":"hotel"},"relations":[],"meta":{"timestamp":"2016-12-08T09:50:58Z","version":3,"changeset":44254414,"user":"Alisha12","uid":4204463}},"geometry":{"type":"Point","coordinates":[83.9617135,28.2060962]}},{"type":"Feature","id":"node/3111728284","properties":{"type":"node","id":3111728284,"tags":{"name":"Unicorn","name:ne":"युनिकण","phone":"061-462730","tourism":"hotel"},"relations":[],"meta":{"timestamp":"2018-06-07T10:18:26Z","version":5,"changeset":59632034,"user":"Ro Sun","uid":3112087}},"geometry":{"type":"Point","coordinates":[83.9582002,28.2137288]}},{"type":"Feature","id":"node/3111728286","properties":{"type":"node","id":3111728286,"tags":{"name":"Golden Holiday","name:ne":"गोल्डेन होलिडे","tourism":"hotel"},"relations":[],"meta":{"timestamp":"2016-08-15T09:40:34Z","version":2,"changeset":41463889,"user":"Parassrest","uid":3569249}},"geometry":{"type":"Point","coordinates":[83.9608764,28.206939]}},{"type":"Feature","id":"node/3151990585","properties":{"type":"node","id":3151990585,"tags":{"name":"Hotel Green Park","name:ne":"होटेल ग्रीन पार्क","operator":"sanjog baral","tourism":"hotel"},"relations":[],"meta":{"timestamp":"2017-04-13T06:09:06Z","version":4,"changeset":47731122,"user":"Alisha12","uid":4204463}},"geometry":{"type":"Point","coordinates":[83.9655482,28.2042609]}},{"type":"Feature","id":"node/3151993415","properties":{"type":"node","id":3151993415,"tags":{"name":"Sunroute","name:ne":"सन रुट","operator":"Pradip Kunwar","tourism":"hotel"},"relations":[],"meta":{"timestamp":"2016-08-09T08:08:40Z","version":2,"changeset":41339664,"user":"Parassrest","uid":3569249}},"geometry":{"type":"Point","coordinates":[83.9653856,28.2044944]}},{"type":"Feature","id":"node/3156046161","properties":{"type":"node","id":3156046161,"tags":{"internet_access":"wlan","internet_access:fee":"no","name":"New United Hotel","name:ne":"न्यु युनाइटेड होटेल","tourism":"hotel"},"relations":[],"meta":{"timestamp":"2016-08-15T09:08:45Z","version":3,"changeset":41463390,"user":"Parassrest","uid":3569249}},"geometry":{"type":"Point","coordinates":[83.9602186,28.207062]}},{"type":"Feature","id":"node/3235716261","properties":{"type":"node","id":3235716261,"tags":{"name":"Hana no ie","tourism":"hotel"},"relations":[],"meta":{"timestamp":"2014-12-15T07:58:07Z","version":2,"changeset":27476031,"user":"motomchan","uid":1644886}},"geometry":{"type":"Point","coordinates":[83.90999,28.2978001]}},{"type":"Feature","id":"node/3235730611","properties":{"type":"node","id":3235730611,"tags":{"name":"New Solitary Lodge","name:ne":"न्यु सोलिटरी लज","opening_hours":"24/7","phone":"061-461804","tourism":"hotel","website":"solitarylodge.com"},"relations":[],"meta":{"timestamp":"2018-06-07T10:18:26Z","version":5,"changeset":59632034,"user":"Ro Sun","uid":3112087}},"geometry":{"type":"Point","coordinates":[83.9667287,28.2104508]}},{"type":"Feature","id":"node/3235753514","properties":{"type":"node","id":3235753514,"tags":{"name":"Annapurna Eco Village","name:ne":"अन्नपुर्ण इको भिलेज","operator":"Marry Gold","tourism":"hotel"},"relations":[],"meta":{"timestamp":"2016-08-16T09:42:04Z","version":2,"changeset":41485712,"user":"Bishal9841","uid":3573216}},"geometry":{"type":"Point","coordinates":[83.9099271,28.2936892]}},{"type":"Feature","id":"node/3341076709","properties":{"type":"node","id":3341076709,"tags":{"name":"Donosti Lakeside Hotel","name:ne":"डोनोस्टी लेकसाइड होटल","tourism":"hotel"},"relations":[],"meta":{"timestamp":"2017-04-13T08:56:35Z","version":4,"changeset":47735516,"user":"Parassrest","uid":3569249}},"geometry":{"type":"Point","coordinates":[83.9580688,28.2103765]}},{"type":"Feature","id":"node/3476013169","properties":{"type":"node","id":3476013169,"tags":{"name":"Hotel President","name:ne":"प्रेसिडेन्ट","phone":"061-462056","tourism":"hotel","website":"hotelpresident.com.np"},"relations":[],"meta":{"timestamp":"2018-06-21T07:05:25Z","version":5,"changeset":60032877,"user":"Gaurav Thapa","uid":4212590}},"geometry":{"type":"Point","coordinates":[83.960064,28.2159728]}},{"type":"Feature","id":"node/3476013201","properties":{"type":"node","id":3476013201,"tags":{"beds":"20","name":"The Happy Heart Hotel","phone":"+9779846066781","rooms":"10","source":"2C Pokhara Field Survey 2018","tourism":"hotel"},"relations":[],"meta":{"timestamp":"2018-06-07T10:18:26Z","version":5,"changeset":59632034,"user":"Ro Sun","uid":3112087}},"geometry":{"type":"Point","coordinates":[83.8114198,28.2187485]}},{"type":"Feature","id":"node/3476013217","properties":{"type":"node","id":3476013217,"tags":{"name":"Mount Everest","name:ne":"माउण्ट एभरेष्ट","phone":"061-461846","rooms":"25","tourism":"hotel"},"relations":[],"meta":{"timestamp":"2018-06-07T10:18:26Z","version":4,"changeset":59632034,"user":"Ro Sun","uid":3112087}},"geometry":{"type":"Point","coordinates":[83.9638667,28.2121066]}},{"type":"Feature","id":"node/3476013218","properties":{"type":"node","id":3476013218,"tags":{"name":"Lake Top","name:ne":"लेक् टप","tourism":"hotel"},"relations":[],"meta":{"timestamp":"2016-08-08T09:00:43Z","version":2,"changeset":41319343,"user":"ayushupreti22","uid":3911278}},"geometry":{"type":"Point","coordinates":[83.9627334,28.2125073]}},{"type":"Feature","id":"node/3476013219","properties":{"type":"node","id":3476013219,"tags":{"name":"Himsagar","name:ne":"हिमसागर","tourism":"hotel"},"relations":[],"meta":{"timestamp":"2016-08-11T09:34:51Z","version":2,"changeset":41384858,"user":"ayushupreti22","uid":3911278}},"geometry":{"type":"Point","coordinates":[83.9622864,28.2127346]}},{"type":"Feature","id":"node/3476013222","properties":{"type":"node","id":3476013222,"tags":{"name":"Alpine Villa","name:ne":"अल्पएं विला","tourism":"hotel"},"relations":[],"meta":{"timestamp":"2016-08-11T09:44:41Z","version":2,"changeset":41385036,"user":"ayushupreti22","uid":3911278}},"geometry":{"type":"Point","coordinates":[83.9619828,28.2129702]}},{"type":"Feature","id":"node/3476013224","properties":{"type":"node","id":3476013224,"tags":{"name":"Mountain Village","name:ne":"माउंट भिलेज","tourism":"hotel"},"relations":[],"meta":{"timestamp":"2016-09-22T08:09:21Z","version":2,"changeset":42341109,"user":"Alisha12","uid":4204463}},"geometry":{"type":"Point","coordinates":[83.960485,28.2148314]}},{"type":"Feature","id":"node/3476013308","properties":{"type":"node","id":3476013308,"tags":{"name":"Tibet Home","name:ne":"तिब्बत होम","tourism":"hotel"},"relations":[],"meta":{"timestamp":"2016-09-22T08:09:21Z","version":2,"changeset":42341109,"user":"Alisha12","uid":4204463}},"geometry":{"type":"Point","coordinates":[83.9603517,28.2154677]}},{"type":"Feature","id":"node/3476013309","properties":{"type":"node","id":3476013309,"tags":{"name":"Hotel Lake Inn","name:ne":"लेक इन्","phone":"061-461496","tourism":"hotel","website":"hotellakeinn.com.np"},"relations":[],"meta":{"timestamp":"2018-06-07T10:18:27Z","version":4,"changeset":59632034,"user":"Ro Sun","uid":3112087}},"geometry":{"type":"Point","coordinates":[83.9595972,28.2164175]}},{"type":"Feature","id":"node/3521349635","properties":{"type":"node","id":3521349635,"tags":{"name":"Broadway Inn","name:ne":"ब्रोडवे ईन","tourism":"hotel"},"relations":[],"meta":{"timestamp":"2016-08-15T09:40:33Z","version":2,"changeset":41463889,"user":"Parassrest","uid":3569249}},"geometry":{"type":"Point","coordinates":[83.9614841,28.2061533]}},{"type":"Feature","id":"node/3521349641","properties":{"type":"node","id":3521349641,"tags":{"name":"Glacier Hotel","name:ne":"ग्लेसियर होटल","phone":"+977-061-463722","tourism":"hotel"},"relations":[],"meta":{"timestamp":"2018-06-21T05:05:04Z","version":4,"changeset":60029819,"user":"Gaurav Thapa","uid":4212590}},"geometry":{"type":"Point","coordinates":[83.9612735,28.2058277]}},{"type":"Feature","id":"node/3521349642","properties":{"type":"node","id":3521349642,"tags":{"contact:mail":"info@hotelhimalayaninn.com, himalayaninnnepal@gmail.com","name":"Himalayan Inn","name:ne":"हिमालयन ईन","phone":"61-465708, 466041 , 9856027312","tourism":"hotel","website":"www.hotelhimalayainn.com"},"relations":[],"meta":{"timestamp":"2018-06-07T10:18:27Z","version":5,"changeset":59632034,"user":"Ro Sun","uid":3112087}},"geometry":{"type":"Point","coordinates":[83.9627781,28.2071891]}},{"type":"Feature","id":"node/3521349643","properties":{"type":"node","id":3521349643,"tags":{"name":"Hotel Holiday","name:ne":"होटल होलिडे","tourism":"hotel"},"relations":[],"meta":{"timestamp":"2017-04-13T08:25:42Z","version":3,"changeset":47734653,"user":"Ro Sun","uid":3112087}},"geometry":{"type":"Point","coordinates":[83.9627361,28.2071115]}},{"type":"Feature","id":"node/3521349654","properties":{"type":"node","id":3521349654,"tags":{"contact:mail":"info@trekkersinn.com","name":"Trekker's Inn","name:ne":"ट्रेकर ईन","phone":"061-463244, 462456","tourism":"hotel","website":"www.trekkersinn.com"},"relations":[],"meta":{"timestamp":"2018-06-07T10:18:27Z","version":6,"changeset":59632034,"user":"Ro Sun","uid":3112087}},"geometry":{"type":"Point","coordinates":[83.9617524,28.2061417]}},{"type":"Feature","id":"node/3634990906","properties":{"type":"node","id":3634990906,"tags":{"name":"Monai","name:ne":"मोनाइ होटल","tourism":"hotel"},"relations":[],"meta":{"timestamp":"2017-04-13T07:24:39Z","version":4,"changeset":47732959,"user":"Gaurav Thapa","uid":4212590}},"geometry":{"type":"Point","coordinates":[83.9570306,28.212325]}},{"type":"Feature","id":"node/3634990908","properties":{"type":"node","id":3634990908,"tags":{"name":"Hotel New Family & Restaurant","name:ne":"निउ फेमिली","tourism":"hotel"},"relations":[],"meta":{"timestamp":"2017-06-15T09:35:40Z","version":3,"changeset":49554035,"user":"Alisha12","uid":4204463}},"geometry":{"type":"Point","coordinates":[83.9577686,28.2116471]}},{"type":"Feature","id":"node/3634990910","properties":{"type":"node","id":3634990910,"tags":{"name":"Hotel Panas","name:ne":"पानस","phone":"061-461837","tourism":"hotel"},"relations":[],"meta":{"timestamp":"2018-06-07T10:18:27Z","version":5,"changeset":59632034,"user":"Ro Sun","uid":3112087}},"geometry":{"type":"Point","coordinates":[83.9575011,28.2117391]}},{"type":"Feature","id":"node/3634990914","properties":{"type":"node","id":3634990914,"tags":{"addr:housenumber":"354","addr:street":"Lakeside Marg","name":"Simrik","name:ne":"सिम्रीक होटल","phone":"061-463266","tourism":"hotel"},"relations":[],"meta":{"timestamp":"2017-02-17T08:54:45Z","version":5,"changeset":46158567,"user":"sjoshi","uid":5328093}},"geometry":{"type":"Point","coordinates":[83.9572696,28.2126457]}},{"type":"Feature","id":"node/3634990919","properties":{"type":"node","id":3634990919,"tags":{"name":"Hotel Vimal and Thakali Kitchen","name:ne":"होटल बिमल ऐण्ड थकाली किचेन","phone":"061-462306","tourism":"hotel"},"relations":[],"meta":{"timestamp":"2018-06-07T10:18:27Z","version":7,"changeset":59632034,"user":"Ro Sun","uid":3112087}},"geometry":{"type":"Point","coordinates":[83.9572454,28.2128067]}},{"type":"Feature","id":"node/3635819236","properties":{"type":"node","id":3635819236,"tags":{"name":"Mountain Top","name:ne":"माउन्टेन टप","tourism":"hotel"},"relations":[],"meta":{"timestamp":"2016-08-22T09:04:25Z","version":2,"changeset":41609733,"user":"Bishal9841","uid":3573216}},"geometry":{"type":"Point","coordinates":[83.9569503,28.2113272]}},{"type":"Feature","id":"node/3706552393","properties":{"type":"node","id":3706552393,"tags":{"name":"Hotel Nilkamal","tourism":"hotel"},"relations":[],"meta":{"timestamp":"2018-06-24T11:36:33Z","version":3,"changeset":60118607,"user":"Gaurav Thapa","uid":4212590}},"geometry":{"type":"Point","coordinates":[83.9848188,28.2101514]}},{"type":"Feature","id":"node/3706552394","properties":{"type":"node","id":3706552394,"tags":{"name":"Hotel Park","name:ne":"होटेल पार्क","tourism":"hotel"},"relations":[],"meta":{"timestamp":"2016-08-07T10:56:34Z","version":2,"changeset":41302007,"user":"Manoj Thapa","uid":781054}},"geometry":{"type":"Point","coordinates":[83.9850441,28.210064]}},{"type":"Feature","id":"node/3851245541","properties":{"type":"node","id":3851245541,"tags":{"addr:city":"Sarangkot","addr:postcode":"00977","addr:street":"Khapaudi","name":"Fire and Fish Home Stay & Restaurant","name:ne":"फायर एण्ड फिस होम इस्टे एण्ड रेष्टुरेण्ट","operator":"Shiva Thapa","smoking":"outside","tourism":"hotel"},"relations":[],"meta":{"timestamp":"2016-08-25T05:22:39Z","version":2,"changeset":41678895,"user":"Parassrest","uid":3569249}},"geometry":{"type":"Point","coordinates":[83.940148,28.2271007]}},{"type":"Feature","id":"node/3851256257","properties":{"type":"node","id":3851256257,"tags":{"addr:city":"Pokhara","addr:postcode":"00977","addr:street":"Dam Side Marg","name":"LB Guest House","name:ne":"एल.वि गेस्ट हाउस","operator":"Lok Baral","smoking":"outside","tourism":"hotel"},"relations":[],"meta":{"timestamp":"2016-08-11T06:20:53Z","version":2,"changeset":41381447,"user":"Bishal9841","uid":3573216}},"geometry":{"type":"Point","coordinates":[83.97057,28.1998639]}},{"type":"Feature","id":"node/3942819957","properties":{"type":"node","id":3942819957,"tags":{"addr:street":"Barahi path","beds":"25","email":"info@hotelgarudainn.com","internet_access":"wlan","internet_access:fee":"yes","name":"Family Home Pokhara","name:en":"Hotel Garuda Inn","name:ne":"फेमीली हॊम पोखरा","phone":"+977 61 463024","smoking":"no","tourism":"hotel","website":"http://www.hotelgarudainn.com","wheelchair":"no"},"relations":[],"meta":{"timestamp":"2018-03-09T08:12:24Z","version":5,"changeset":57023542,"user":"Shrestha Khum","uid":7644104}},"geometry":{"type":"Point","coordinates":[83.959708,28.209084]}},{"type":"Feature","id":"node/4040347885","properties":{"type":"node","id":4040347885,"tags":{"name":"Naudada MoMo and Resturant","name:ne":"नौ डाँडा मोःमोः एण्ड रेटुरेन्ट","tourism":"hotel"},"relations":[],"meta":{"timestamp":"2016-09-25T08:28:05Z","version":3,"changeset":42418326,"user":"Ro Sun","uid":3112087}},"geometry":{"type":"Point","coordinates":[83.9848737,28.242583]}},{"type":"Feature","id":"node/4040404795","properties":{"type":"node","id":4040404795,"tags":{"name":"A-One Mo:Mo","name:ne":"ए ओन मो मो","tourism":"hotel"},"relations":[],"meta":{"timestamp":"2017-11-17T09:16:39Z","version":5,"changeset":53868245,"user":"zahira27","uid":4931422}},"geometry":{"type":"Point","coordinates":[83.9797445,28.2632908]}},{"type":"Feature","id":"node/4040413663","properties":{"type":"node","id":4040413663,"tags":{"name":"Family Taas House And Guest House","name:ne":"फ्यामली तास घर एण्ड गेष्ट हाउस","tourism":"hotel"},"relations":[],"meta":{"timestamp":"2016-08-12T05:17:40Z","version":3,"changeset":41402684,"user":"Parassrest","uid":3569249}},"geometry":{"type":"Point","coordinates":[83.9889681,28.2451934]}},{"type":"Feature","id":"node/4040424249","properties":{"type":"node","id":4040424249,"tags":{"name":"Rasmi Hotel And lodge","name:ne":"रश्मी होटेल एण्ड लज","tourism":"hotel"},"relations":[],"meta":{"timestamp":"2016-11-28T08:39:17Z","version":3,"changeset":44001244,"user":"Alisha12","uid":4204463}},"geometry":{"type":"Point","coordinates":[83.9889622,28.24517]}},{"type":"Feature","id":"node/4040439264","properties":{"type":"node","id":4040439264,"tags":{"name":"Aamako Aasirbad hotel","name:ne":"आमाको आसिर्बाद होटेल","tourism":"hotel"},"relations":[],"meta":{"timestamp":"2016-08-21T08:21:00Z","version":3,"changeset":41588792,"user":"Alisha12","uid":4204463}},"geometry":{"type":"Point","coordinates":[83.9751145,28.259753]}},{"type":"Feature","id":"node/4040454014","properties":{"type":"node","id":4040454014,"tags":{"name":"Sijan Hotel","name:ne":"सिजन होटेल","tourism":"hotel"},"relations":[],"meta":{"timestamp":"2018-07-15T04:55:53Z","version":4,"changeset":60724738,"user":"Bhawak","uid":4923175}},"geometry":{"type":"Point","coordinates":[83.9779314,28.2564832]}},{"type":"Feature","id":"node/4061436885","properties":{"type":"node","id":4061436885,"tags":{"beds":"20","contact:email":"hotelror@yahoo.com","name":"R & R Guest House","name:ne":"आर एन्ड आर गेस्ट हाउस","phone":"061-466137, 9846037175","tourism":"hotel"},"relations":[],"meta":{"timestamp":"2018-06-07T10:18:27Z","version":5,"changeset":59632034,"user":"Ro Sun","uid":3112087}},"geometry":{"type":"Point","coordinates":[83.9617331,28.2094747]}},{"type":"Feature","id":"node/4061466542","properties":{"type":"node","id":4061466542,"tags":{"contact:email":"info@hotelnightingale.com","contact:person":"buddhiman sharma","email":"buddhi1975@gmail.com","name":"Hotel Nightingale","name:ne":"होटेल नाईतिङ्गल","phone":"9856078100, 9856018533","tourism":"hotel","website":"hotelnightingale.com"},"relations":[],"meta":{"timestamp":"2018-06-07T10:18:27Z","version":6,"changeset":59632034,"user":"Ro Sun","uid":3112087}},"geometry":{"type":"Point","coordinates":[83.9640127,28.204789]}},{"type":"Feature","id":"node/4061844969","properties":{"type":"node","id":4061844969,"tags":{"internet_access":"yes","name":"Hotel Asia","name:ne":"होटेल एशिया","operator":"061-466338","tourism":"hotel"},"relations":[],"meta":{"timestamp":"2017-04-13T06:09:06Z","version":4,"changeset":47731122,"user":"Alisha12","uid":4204463}},"geometry":{"type":"Point","coordinates":[83.9660356,28.2040825]}},{"type":"Feature","id":"node/4061844970","properties":{"type":"node","id":4061844970,"tags":{"internet_access":"yes","name":"Hotel Dahlia","name:ne":"होटेल दलिहा","tourism":"hotel"},"relations":[],"meta":{"timestamp":"2017-04-13T06:09:06Z","version":4,"changeset":47731122,"user":"Alisha12","uid":4204463}},"geometry":{"type":"Point","coordinates":[83.965882,28.2041727]}},{"type":"Feature","id":"node/4061844971","properties":{"type":"node","id":4061844971,"tags":{"name":"Hotel Miracle","name:ne":"होटेल मिराकल","phone":"+97761463116","tourism":"hotel"},"relations":[],"meta":{"timestamp":"2018-06-07T10:18:28Z","version":6,"changeset":59632034,"user":"Ro Sun","uid":3112087}},"geometry":{"type":"Point","coordinates":[83.9653883,28.2064835]}},{"type":"Feature","id":"node/4061845193","properties":{"type":"node","id":4061845193,"tags":{"name":"Hotel Mount Kailash and Restaurant","phone":"9846038805, 9819126711","tourism":"hotel"},"relations":[],"meta":{"timestamp":"2018-06-07T10:18:28Z","version":5,"changeset":59632034,"user":"Ro Sun","uid":3112087}},"geometry":{"type":"Point","coordinates":[83.966763,28.2045795]}},{"type":"Feature","id":"node/4061845194","properties":{"type":"node","id":4061845194,"tags":{"name":"Mount Grace Spa","tourism":"hotel"},"relations":[],"meta":{"timestamp":"2017-09-14T05:06:06Z","version":3,"changeset":52025812,"user":"Ashish Thapa","uid":4039113}},"geometry":{"type":"Point","coordinates":[83.9651103,28.2042865]}},{"type":"Feature","id":"node/4062775505","properties":{"type":"node","id":4062775505,"tags":{"email":"hrara@hotmail.com","internet_access":"wlan","name":"Hotel Rara","name:ne":"होटेल रारा","phone":"+977-9856022440","tourism":"hotel"},"relations":[],"meta":{"timestamp":"2018-06-21T04:48:12Z","version":9,"changeset":60029422,"user":"Gaurav Thapa","uid":4212590}},"geometry":{"type":"Point","coordinates":[83.9652449,28.2046206]}},{"type":"Feature","id":"node/4063123590","properties":{"type":"node","id":4063123590,"tags":{"beds":"30","name":"Hotel Rabi","name:ne":"होटेल रबि","opening_hours":"24/7","phone":"061-520441","source":"2c peset","tourism":"hotel"},"relations":[],"meta":{"timestamp":"2018-06-07T10:18:28Z","version":7,"changeset":59632034,"user":"Ro Sun","uid":3112087}},"geometry":{"type":"Point","coordinates":[83.9819,28.211437]}},{"type":"Feature","id":"node/4068343419","properties":{"type":"node","id":4068343419,"tags":{"name":"Hotel Dhaulagiri","name:ne":"होटेल धौलागिरी","tourism":"hotel"},"relations":[],"meta":{"timestamp":"2016-08-08T05:24:47Z","version":2,"changeset":41316247,"user":"Parassrest","uid":3569249}},"geometry":{"type":"Point","coordinates":[83.9814148,28.2119581]}},{"type":"Feature","id":"node/4069373398","properties":{"type":"node","id":4069373398,"tags":{"amenity":"love_hotel","name":"Hotel Daju Bhai","name:ne":"होटल दाजुभाइ","tourism":"hotel"},"relations":[],"meta":{"timestamp":"2018-04-11T07:26:40Z","version":3,"changeset":57994303,"user":"Shrestha Khum","uid":7644104}},"geometry":{"type":"Point","coordinates":[83.9610753,28.2072232]}},{"type":"Feature","id":"node/4131826922","properties":{"type":"node","id":4131826922,"tags":{"name":"The Pipal Tree House","name:ne":"पिपल रूख हाउस","tourism":"hotel"},"relations":[],"meta":{"timestamp":"2016-10-06T05:52:55Z","version":3,"changeset":42674962,"user":"ayushupreti22","uid":3911278}},"geometry":{"type":"Point","coordinates":[83.9735255,28.2155637]}},{"type":"Feature","id":"node/4161718440","properties":{"type":"node","id":4161718440,"tags":{"name":"Welcome Guest House & Appartment","name:ne":"वयल गेस्ट हाउस एन्ड अपार्टमेन्ट","tourism":"hotel"},"relations":[],"meta":{"timestamp":"2016-08-14T06:55:57Z","version":2,"changeset":41441139,"user":"Bishal9841","uid":3573216}},"geometry":{"type":"Point","coordinates":[83.9652701,28.2118402]}},{"type":"Feature","id":"node/4171287796","properties":{"type":"node","id":4171287796,"tags":{"name":"Mountain Country Lodge","name:ne":"माउण्टेन कन्ट्री लज","tourism":"hotel"},"relations":[],"meta":{"timestamp":"2016-10-06T04:40:00Z","version":2,"changeset":42674188,"user":"Parassrest","uid":3569249}},"geometry":{"type":"Point","coordinates":[83.9604398,28.2144986]}},{"type":"Feature","id":"node/4172949863","properties":{"type":"node","id":4172949863,"tags":{"name":"Hotel Mustang","name:ne":"होटेल मुस्तांग","tourism":"hotel"},"relations":[],"meta":{"timestamp":"2016-08-08T05:24:47Z","version":2,"changeset":41316247,"user":"Parassrest","uid":3569249}},"geometry":{"type":"Point","coordinates":[83.9814821,28.2120107]}},{"type":"Feature","id":"node/4191244518","properties":{"type":"node","id":4191244518,"tags":{"name":"Kumar Hotel","name:ne":"कुमार होटेल","tourism":"hotel"},"relations":[],"meta":{"timestamp":"2016-08-07T11:24:49Z","version":2,"changeset":41302447,"user":"Manoj Thapa","uid":781054}},"geometry":{"type":"Point","coordinates":[83.9846167,28.2116622]}},{"type":"Feature","id":"node/4196693146","properties":{"type":"node","id":4196693146,"tags":{"name":"Safal Hostel","phone":"9846021226,9846103082","source":"2c pokhara","tourism":"hotel"},"relations":[],"meta":{"timestamp":"2018-03-07T15:33:28Z","version":4,"changeset":56972633,"user":"Active Asmita","uid":7644107}},"geometry":{"type":"Point","coordinates":[83.986219,28.2272733]}},{"type":"Feature","id":"node/4201550390","properties":{"type":"node","id":4201550390,"tags":{"addr:street":"Lake side","email":"sam.villagestay@gmail.com","name":"Hotel Village Inn","name:ne":"होटेल भिलेज ईन","opening_hours":"Mo-Su 05:00-00:00","phone":"9779856030972","tourism":"hotel"},"relations":[],"meta":{"timestamp":"2018-06-21T07:05:25Z","version":4,"changeset":60032877,"user":"Gaurav Thapa","uid":4212590}},"geometry":{"type":"Point","coordinates":[83.9605185,28.2146185]}},{"type":"Feature","id":"node/4213256289","properties":{"type":"node","id":4213256289,"tags":{"addr:street":"Mansawar","name":"Tourist residency and apartments","name:ne":"पर्यटकिय रेसीडेन्सी एन्ड अपार्टमेन्ट","opening_hours":"24/7","phone":"985-6036987","tourism":"hotel"},"relations":[],"meta":{"timestamp":"2018-04-10T14:57:18Z","version":3,"changeset":57975296,"user":"Shrestha Khum","uid":7644104}},"geometry":{"type":"Point","coordinates":[83.9651579,28.2133284]}},{"type":"Feature","id":"node/4236730189","properties":{"type":"node","id":4236730189,"tags":{"addr:housenumber":"6","addr:postcode":"33700","addr:street":"Baidam Road","name":"The Coast","name:ne":"द कोष्ट","tourism":"hotel"},"relations":[],"meta":{"timestamp":"2018-06-24T10:40:07Z","version":5,"changeset":60117533,"user":"Gaurav Thapa","uid":4212590}},"geometry":{"type":"Point","coordinates":[83.9587806,28.2166995]}},{"type":"Feature","id":"node/4237413590","properties":{"type":"node","id":4237413590,"tags":{"name":"Bishnu Lodge","name:en":"Bishnu Lodge","name:ne":"विष्णु लज","tourism":"hotel"},"relations":[],"meta":{"timestamp":"2018-06-24T09:58:49Z","version":5,"changeset":60116745,"user":"Gaurav Thapa","uid":4212590}},"geometry":{"type":"Point","coordinates":[83.9563043,28.2213258]}},{"type":"Feature","id":"node/4240852652","properties":{"type":"node","id":4240852652,"tags":{"name":"Ram Hotel","name:ne":"राम होटल","tourism":"hotel"},"relations":[],"meta":{"timestamp":"2018-01-06T09:18:59Z","version":3,"changeset":55206381,"user":"Gaurav Thapa","uid":4212590}},"geometry":{"type":"Point","coordinates":[83.9945298,28.2091393]}},{"type":"Feature","id":"node/4244075089","properties":{"type":"node","id":4244075089,"tags":{"name":"Hotel Motherland","name:ne":"होटल मदरल्यानड","tourism":"hotel"},"relations":[],"meta":{"timestamp":"2016-09-22T05:25:28Z","version":4,"changeset":42338570,"user":"Alisha12","uid":4204463}},"geometry":{"type":"Point","coordinates":[83.9597856,28.2134931]}},{"type":"Feature","id":"node/4296155915","properties":{"type":"node","id":4296155915,"tags":{"name":"Hotel Laxmi","name:ne":"होटल लक्ष्मि","tourism":"hotel"},"relations":[],"meta":{"timestamp":"2016-08-12T09:53:45Z","version":2,"changeset":41407154,"user":"Bishal9841","uid":3573216}},"geometry":{"type":"Point","coordinates":[83.9782592,28.2124005]}},{"type":"Feature","id":"node/4349317491","properties":{"type":"node","id":4349317491,"tags":{"internet_access":"wlan","name":"Hotel Sunflower","name:ne":"होटल सनफ्लॉवर","tourism":"hotel"},"relations":[],"meta":{"timestamp":"2016-09-22T05:40:08Z","version":2,"changeset":42338727,"user":"Alisha12","uid":4204463}},"geometry":{"type":"Point","coordinates":[83.9616836,28.2136375]}},{"type":"Feature","id":"node/4388632089","properties":{"type":"node","id":4388632089,"tags":{"contact:email":"hoteltravelinn@gmail.com","name":"Travel Inn Hotel","name:ne":"ट्राभल इन होटल","phone":"9846534451,9804147828","tourism":"hotel","website":"www.hoteltravelin.com"},"relations":[],"meta":{"timestamp":"2018-06-07T10:18:28Z","version":4,"changeset":59632034,"user":"Ro Sun","uid":3112087}},"geometry":{"type":"Point","coordinates":[83.9581865,28.2102531]}},{"type":"Feature","id":"node/4394342889","properties":{"type":"node","id":4394342889,"tags":{"internet_access":"wlan","name":"Hotel Gautam Garden","name:es":"Hotel Gautam Garden","name:ne":"होटेल गौतम गार्डेन","tourism":"hotel"},"relations":[],"meta":{"timestamp":"2018-06-21T05:15:58Z","version":3,"changeset":60030050,"user":"Gaurav Thapa","uid":4212590}},"geometry":{"type":"Point","coordinates":[83.9578229,28.2263585]}},{"type":"Feature","id":"node/4409219260","properties":{"type":"node","id":4409219260,"tags":{"name":"Forest View Guest House","name:ne":"फोरेष्ट भ्यु गेष्ट हाउस","tourism":"hotel"},"relations":[],"meta":{"timestamp":"2018-06-24T10:02:47Z","version":4,"changeset":60116821,"user":"Gaurav Thapa","uid":4212590}},"geometry":{"type":"Point","coordinates":[83.9589735,28.2182865]}},{"type":"Feature","id":"node/4413371589","properties":{"type":"node","id":4413371589,"tags":{"internet_access":"wlan","name":"Hotel Pancharatna","name:en":"Hotel Pancharatna","name:fr":"Hotel Pancharatna","name:ne":"होटेल पञ्चरत्न","tourism":"hotel"},"relations":[],"meta":{"timestamp":"2018-06-24T10:01:37Z","version":5,"changeset":60116799,"user":"Gaurav Thapa","uid":4212590}},"geometry":{"type":"Point","coordinates":[83.958847,28.2185915]}},{"type":"Feature","id":"node/4427632889","properties":{"type":"node","id":4427632889,"tags":{"email":"beehivepokhara@gmail.com","internet_access":"wlan","name":"The Bee Hive","name:en":"Hotel the beehive","phone":"061-466906","tourism":"hotel","website":"www.thebeehivepokhara.com"},"relations":[],"meta":{"timestamp":"2018-06-24T10:44:50Z","version":5,"changeset":60117621,"user":"Gaurav Thapa","uid":4212590}},"geometry":{"type":"Point","coordinates":[83.9649519,28.2062185]}},{"type":"Feature","id":"node/4457499189","properties":{"type":"node","id":4457499189,"tags":{"name":"Hotel Haven 'O' Ganga","name:en":"Hotel Haven 'O' Ganga","phone":"+977-061-467535; +977-061-467536","tourism":"hotel","website":"www.havenoganga.com"},"relations":[],"meta":{"timestamp":"2018-06-24T11:39:21Z","version":4,"changeset":60118660,"user":"Gaurav Thapa","uid":4212590}},"geometry":{"type":"Point","coordinates":[83.9600836,28.2108892]}},{"type":"Feature","id":"node/4464369789","properties":{"type":"node","id":4464369789,"tags":{"addr:city":"Pokhara","addr:housenumber":"6","addr:postcode":"33700","addr:street":"Baidam Road","email":"angelnepal10@yahoo.info","internet_access":"wlan","internet_access:fee":"no","name":"Hotel Angel Pokhara","name:en":"Hotel Angel","name:ko":"호텔 엔젤","opening_hours":"24/7","phone":"+97761464713","rooms":"14","smoking":"outside","tourism":"hotel","website":"http://www.hotelangelpokhara.com"},"relations":[],"meta":{"timestamp":"2018-06-21T04:48:12Z","version":5,"changeset":60029422,"user":"Gaurav Thapa","uid":4212590}},"geometry":{"type":"Point","coordinates":[83.959206,28.2073597]}},{"type":"Feature","id":"node/4466271892","properties":{"type":"node","id":4466271892,"tags":{"addr:street":"Pardi Bazaar","name":"Hotel Jal Mahal","name:en":"Hotel Jal Mahal","tourism":"hotel"},"relations":[],"meta":{"timestamp":"2018-06-24T10:46:47Z","version":2,"changeset":60117665,"user":"Gaurav Thapa","uid":4212590}},"geometry":{"type":"Point","coordinates":[83.9814656,28.1954529]}},{"type":"Feature","id":"node/4499960405","properties":{"type":"node","id":4499960405,"tags":{"addr:city":"Pokhara","addr:housenumber":"49.9","addr:street":"Peaceful Road","amenity":"restaurant","beds":"80","cuisine":"american;asian;chicken;chinese;japanese;pasta;vegetarian","email":"info@hotelcrownhimalayas.com","internet_access":"wlan","name":"Crown Plaza Himalayas","name:en":"Hotel Crown Himalayas","opening_hours":"24/7","operator":"Manager","phone":"00977-61-462300/301/303","stars":"3","tourism":"hotel","website":"http://www.hotelcrownhimalayas.com.np"},"relations":[],"meta":{"timestamp":"2018-06-17T06:32:10Z","version":3,"changeset":59907957,"user":"Ramesh Ghimire Bivhor","uid":8430206}},"geometry":{"type":"Point","coordinates":[83.9636518,28.206793]}},{"type":"Feature","id":"node/4508212089","properties":{"type":"node","id":4508212089,"tags":{"addr:housenumber":"480","addr:postcode":"33700","addr:street":"lakeside-6 pokhara","email":"115899585@qq.com","internet_access":"wlan","name":"Lucky Inn","name:zh":"如意客栈","opening_hours":"24/7","operator":"陈艳平","phone":"9815153332","tourism":"hotel"},"relations":[],"meta":{"timestamp":"2018-06-24T10:39:17Z","version":4,"changeset":60117519,"user":"Gaurav Thapa","uid":4212590}},"geometry":{"type":"Point","coordinates":[83.9590849,28.2178231]}},{"type":"Feature","id":"node/4508724698","properties":{"type":"node","id":4508724698,"tags":{"contact:email":"hlgarden51@gmail.com","name":"Hotel Lake Garden","phone":"9856031951,9846202556,9817171931","tourism":"hotel"},"relations":[],"meta":{"timestamp":"2018-06-07T10:18:29Z","version":4,"changeset":59632034,"user":"Ro Sun","uid":3112087}},"geometry":{"type":"Point","coordinates":[83.959998,28.2106552]}},{"type":"Feature","id":"node/4520259290","properties":{"type":"node","id":4520259290,"tags":{"addr:street":"Khahare, Lakeside","email":"sweetdreamsnepal@gmail.com","internet_access":"wlan","name":"Sweet Dreams Guest House","name:en":"Sweet Dreams Guest House","opening_hours":"24/7","operator":"Raju Kandel","phone":"9825187484","tourism":"hotel"},"relations":[],"meta":{"timestamp":"2018-06-24T10:01:37Z","version":4,"changeset":60116799,"user":"Gaurav Thapa","uid":4212590}},"geometry":{"type":"Point","coordinates":[83.9589818,28.2194556]}},{"type":"Feature","id":"node/4524357392","properties":{"type":"node","id":4524357392,"tags":{"addr:city":"Pokhara","addr:postcode":"33700","addr:street":"Bagaicha Marg","email":"info@hotelloveandlight.com","internet_access":"wlan","internet_access:fee":"no","name":"Hotel Love and Light","name:en":"Hotel Love and Light","opening_hours":"Mo-Su 06:00-22:00","operator":"Hotel Love and Light","phone":"+977061464090","rooms":"14","tourism":"hotel","website":"http://hotelloveandlight.com"},"relations":[],"meta":{"timestamp":"2017-07-13T10:44:23Z","version":2,"changeset":50254569,"user":"Pink Lee","uid":4829863}},"geometry":{"type":"Point","coordinates":[83.9625392,28.2090644]}},{"type":"Feature","id":"node/4529876789","properties":{"type":"node","id":4529876789,"tags":{"name":"Lychee Garden Resort","name:en":"Lychee garden resort","tourism":"hotel"},"relations":[],"meta":{"timestamp":"2017-04-17T07:02:26Z","version":2,"changeset":47858575,"user":"Gaurav Thapa","uid":4212590}},"geometry":{"type":"Point","coordinates":[83.9475933,28.2078259]}},{"type":"Feature","id":"node/4539823790","properties":{"type":"node","id":4539823790,"tags":{"internet_access":"wlan","name":"Hotel Peace Pokhara","name:en":"Hotel Peace Pokhara","tourism":"hotel"},"relations":[],"meta":{"timestamp":"2018-06-24T10:51:45Z","version":2,"changeset":60117759,"user":"Gaurav Thapa","uid":4212590}},"geometry":{"type":"Point","coordinates":[83.9609358,28.2130332]}},{"type":"Feature","id":"node/4540409489","properties":{"type":"node","id":4540409489,"tags":{"name":"Hotel Lake Top","name:en":"Hotel Lake Top","tourism":"hotel"},"relations":[],"meta":{"timestamp":"2018-06-24T10:52:22Z","version":2,"changeset":60117780,"user":"Gaurav Thapa","uid":4212590}},"geometry":{"type":"Point","coordinates":[83.962477,28.2126515]}},{"type":"Feature","id":"node/4547631289","properties":{"type":"node","id":4547631289,"tags":{"name":"Hotel Green Lake View","name:en":"Hotel Green Lake View","name:ne":"होटल ग्रीन लेक भिउं","tourism":"hotel"},"relations":[],"meta":{"timestamp":"2018-06-24T10:53:43Z","version":4,"changeset":60117814,"user":"Gaurav Thapa","uid":4212590}},"geometry":{"type":"Point","coordinates":[83.956579,28.220901]}},{"type":"Feature","id":"node/4556416994","properties":{"type":"node","id":4556416994,"tags":{"beds":"24","email":"thirdeyeinn@hotmail.com","internet_access":"wlan","name":"Third Eye Inn","name:en":"Third Eye Inn","phone":"9856024000","rooms":"12","tourism":"hotel","website":"www.thirdeyeinn.weebly.com"},"relations":[],"meta":{"timestamp":"2018-06-24T10:54:25Z","version":4,"changeset":60117825,"user":"Gaurav Thapa","uid":4212590}},"geometry":{"type":"Point","coordinates":[83.9576349,28.210199]}},{"type":"Feature","id":"node/4580875990","properties":{"type":"node","id":4580875990,"tags":{"addr:street":"Baidam Road","internet_access":"wlan","name":"Hotel Mirage","name:en":"Hotel Mirage","tourism":"hotel"},"relations":[],"meta":{"timestamp":"2018-06-24T10:54:53Z","version":3,"changeset":60117840,"user":"Gaurav Thapa","uid":4212590}},"geometry":{"type":"Point","coordinates":[83.9582626,28.2140952]}},{"type":"Feature","id":"node/4580875991","properties":{"type":"node","id":4580875991,"tags":{"addr:street":"Baidam Road","internet_access":"wlan","name":"Hotel Galaxy","name:en":"Hotel Galaxy","tourism":"hotel"},"relations":[],"meta":{"timestamp":"2018-06-24T10:55:25Z","version":3,"changeset":60117848,"user":"Gaurav Thapa","uid":4212590}},"geometry":{"type":"Point","coordinates":[83.958194,28.2140321]}},{"type":"Feature","id":"node/4580886790","properties":{"type":"node","id":4580886790,"tags":{"internet_access":"wlan","name":"Nanohana Lodge","phone":"+977-061-464478","tourism":"hotel"},"relations":[],"meta":{"timestamp":"2018-06-21T04:48:12Z","version":5,"changeset":60029422,"user":"Gaurav Thapa","uid":4212590}},"geometry":{"type":"Point","coordinates":[83.965568,28.2054383]}},{"type":"Feature","id":"node/4580937893","properties":{"type":"node","id":4580937893,"tags":{"name":"Feng Huang","name:en":"Feng Huang","tourism":"hotel"},"relations":[],"meta":{"timestamp":"2018-06-24T10:56:06Z","version":3,"changeset":60117859,"user":"Gaurav Thapa","uid":4212590}},"geometry":{"type":"Point","coordinates":[83.9655974,28.2053333]}},{"type":"Feature","id":"node/4635168589","properties":{"type":"node","id":4635168589,"tags":{"addr:housenumber":"155","addr:street":"Ram Bazaar","name":"Bhupu Sainik Sita Lodge","name:en":"Bhupu sainik sita lodge","opening_hours":"24/7","operator":"Indra Giri","phone":"+97761432071","tourism":"hotel"},"relations":[],"meta":{"timestamp":"2018-06-24T10:56:39Z","version":3,"changeset":60117867,"user":"Gaurav Thapa","uid":4212590}},"geometry":{"type":"Point","coordinates":[83.9950758,28.2012611]}},{"type":"Feature","id":"node/4690065090","properties":{"type":"node","id":4690065090,"tags":{"name":"Hotel Queens Park","name:en":"Friendly Restaurant & Hotel Queens Park","phone":"061-464350","tourism":"hotel"},"relations":[],"meta":{"timestamp":"2018-06-21T04:48:12Z","version":3,"changeset":60029422,"user":"Gaurav Thapa","uid":4212590}},"geometry":{"type":"Point","coordinates":[83.9596452,28.2121739]}},{"type":"Feature","id":"node/4690073089","properties":{"type":"node","id":4690073089,"tags":{"addr:housenumber":"12","addr:street":"Simikopatan Path","internet_access":"yes","name":"Hote New City Annapurna","name:en":"Hote New City Annapurna Restaurant And Bar","phone":"061-464893/9815144199","tourism":"hotel"},"relations":[],"meta":{"timestamp":"2018-06-24T10:57:19Z","version":3,"changeset":60117884,"user":"Gaurav Thapa","uid":4212590}},"geometry":{"type":"Point","coordinates":[83.9579841,28.2116272]}},{"type":"Feature","id":"node/4690074089","properties":{"type":"node","id":4690074089,"tags":{"name":"Rosemary Kitchen Pokhara","name:en":"Rosemary Kitchen Pokhara","tourism":"hotel"},"relations":[],"meta":{"timestamp":"2017-04-18T07:55:08Z","version":3,"changeset":47896368,"user":"Parassrest","uid":3569249}},"geometry":{"type":"Point","coordinates":[83.9578114,28.2130748]}},{"type":"Feature","id":"node/4690172246","properties":{"type":"node","id":4690172246,"tags":{"name":"Hotel People's Plaza","tourism":"hotel"},"relations":[],"meta":{"timestamp":"2017-02-17T09:13:25Z","version":1,"changeset":46158960,"user":"Daman Neupane","uid":3480991}},"geometry":{"type":"Point","coordinates":[83.9584086,28.214656]}},{"type":"Feature","id":"node/4690247895","properties":{"type":"node","id":4690247895,"tags":{"name":"Hotel The Trans Himalaya","phone":"980-6682521","tourism":"hotel"},"relations":[],"meta":{"timestamp":"2018-06-07T10:18:29Z","version":5,"changeset":59632034,"user":"Ro Sun","uid":3112087}},"geometry":{"type":"Point","coordinates":[83.9574544,28.2131476]}},{"type":"Feature","id":"node/4711666113","properties":{"type":"node","id":4711666113,"tags":{"internet_access":"wlan","name":"Hotel Middle Way","name:en":"Hotel Middle Way","phone":"+977061464138,985-6035791","tourism":"hotel"},"relations":[],"meta":{"timestamp":"2018-03-29T12:57:49Z","version":5,"changeset":57632995,"user":"Shrestha Khum","uid":7644104}},"geometry":{"type":"Point","coordinates":[83.9584801,28.2159204]}},{"type":"Feature","id":"node/4715030203","properties":{"type":"node","id":4715030203,"tags":{"email":"begnas@mail.com.np","name":"Begnas Lake Resort","phone":"+977 61 56 00 30","tourism":"hotel","website":"http://www.begnaslakeresort.com/"},"relations":[],"meta":{"timestamp":"2017-04-30T08:01:10Z","version":2,"changeset":48275013,"user":"Alisha12","uid":4204463}},"geometry":{"type":"Point","coordinates":[84.1114753,28.1667222]}},{"type":"Feature","id":"node/4739390021","properties":{"type":"node","id":4739390021,"tags":{"addr:postcode":"33700","addr:street":"Lakeside-6 | Khahare","email":"tarek.elhaj@gmail.com","internet_access":"wlan","name":"Tara Boutique Hotel","name:en":"Tara Boutique Hotel Restaurant and Bar","opening_hours":"Mo-Su 08:00-21:00","operator":"Tarek Elhaj","phone":"+977 9816126210","tourism":"hotel","website":"http://www.taraboutiquenepal.com"},"relations":[],"meta":{"timestamp":"2018-06-24T09:58:49Z","version":4,"changeset":60116745,"user":"Gaurav Thapa","uid":4212590}},"geometry":{"type":"Point","coordinates":[83.956845,28.2211227]}},{"type":"Feature","id":"node/4757529222","properties":{"type":"node","id":4757529222,"tags":{"name":"Highland Comfort","name:en":"Highland Comfort","phone":"061-462325","tourism":"hotel"},"relations":[],"meta":{"timestamp":"2018-06-24T10:57:49Z","version":5,"changeset":60117892,"user":"Gaurav Thapa","uid":4212590}},"geometry":{"type":"Point","coordinates":[83.9587689,28.2173435]}},{"type":"Feature","id":"node/4759399422","properties":{"type":"node","id":4759399422,"tags":{"name":"Hotel Milan","name:en":"Hotel Milan","name:ne":"होटेल मिलन","tourism":"hotel"},"relations":[],"meta":{"timestamp":"2018-06-24T10:58:23Z","version":3,"changeset":60117905,"user":"Gaurav Thapa","uid":4212590}},"geometry":{"type":"Point","coordinates":[83.9836547,28.2432791]}},{"type":"Feature","id":"node/4763600723","properties":{"type":"node","id":4763600723,"tags":{"name":"Hotel Orient","name:en":"Hotel Orient","phone":"061-465465","tourism":"hotel"},"relations":[],"meta":{"timestamp":"2018-06-24T10:59:02Z","version":4,"changeset":60117920,"user":"Gaurav Thapa","uid":4212590}},"geometry":{"type":"Point","coordinates":[83.9665987,28.204993]}},{"type":"Feature","id":"node/4772969989","properties":{"type":"node","id":4772969989,"tags":{"name:en":"9 Hills","tourism":"hotel"},"relations":[],"meta":{"timestamp":"2017-04-03T13:45:42Z","version":1,"changeset":47412752,"user":"Diekis","uid":5344692}},"geometry":{"type":"Point","coordinates":[83.8676375,28.2834334]}},{"type":"Feature","id":"node/4773542355","properties":{"type":"node","id":4773542355,"tags":{"tourism":"hotel"},"relations":[],"meta":{"timestamp":"2017-04-03T20:12:12Z","version":1,"changeset":47423820,"user":"Diekis","uid":5344692}},"geometry":{"type":"Point","coordinates":[83.8722018,28.2919882]}},{"type":"Feature","id":"node/4790230628","properties":{"type":"node","id":4790230628,"tags":{"addr:housenumber":"190","addr:street":"Fewa Marga Sector 3","name":"Hotel Didi","phone":"061461966","tourism":"hotel"},"relations":[],"meta":{"timestamp":"2017-04-13T04:22:30Z","version":2,"changeset":47729169,"user":"ayushupreti22","uid":3911278}},"geometry":{"type":"Point","coordinates":[83.9596874,28.2138419]}},{"type":"Feature","id":"node/4790230630","properties":{"type":"node","id":4790230630,"tags":{"name":"Danfe Hotel","phone":"+977-061-467007","tourism":"hotel","website":"http://danfehotel.com/"},"relations":[],"meta":{"timestamp":"2018-06-21T07:05:25Z","version":3,"changeset":60032877,"user":"Gaurav Thapa","uid":4212590}},"geometry":{"type":"Point","coordinates":[83.9599649,28.2134344]}},{"type":"Feature","id":"node/4790230926","properties":{"type":"node","id":4790230926,"tags":{"name":"Hotel Cordial","tourism":"hotel"},"relations":[],"meta":{"timestamp":"2018-06-21T07:05:25Z","version":3,"changeset":60032877,"user":"Gaurav Thapa","uid":4212590}},"geometry":{"type":"Point","coordinates":[83.959546,28.2138561]}},{"type":"Feature","id":"node/4790232726","properties":{"type":"node","id":4790232726,"tags":{"name":"The New Winds Hotel","tourism":"hotel"},"relations":[],"meta":{"timestamp":"2017-04-12T16:21:09Z","version":1,"changeset":47700102,"user":"Manoj Thapa","uid":781054}},"geometry":{"type":"Point","coordinates":[83.9592206,28.2139749]}},{"type":"Feature","id":"node/4791053482","properties":{"type":"node","id":4791053482,"tags":{"internet_access":"yes","name":"Honkong Hotel","tourism":"hotel"},"relations":[],"meta":{"timestamp":"2017-04-13T04:57:44Z","version":2,"changeset":47729927,"user":"ayushupreti22","uid":3911278}},"geometry":{"type":"Point","coordinates":[83.9593448,28.2139613]}},{"type":"Feature","id":"node/4791053484","properties":{"type":"node","id":4791053484,"tags":{"internet_access":"yes","name":"Hotel Singapore","phone":"061-526308","tourism":"hotel"},"relations":[],"meta":{"timestamp":"2018-06-07T10:18:29Z","version":3,"changeset":59632034,"user":"Ro Sun","uid":3112087}},"geometry":{"type":"Point","coordinates":[83.9592442,28.2135985]}},{"type":"Feature","id":"node/4791064621","properties":{"type":"node","id":4791064621,"tags":{"name":"7 Continents","name:en":"7 Continents","tourism":"hotel"},"relations":[],"meta":{"timestamp":"2018-06-24T10:59:28Z","version":3,"changeset":60117927,"user":"Gaurav Thapa","uid":4212590}},"geometry":{"type":"Point","coordinates":[83.95862,28.2111688]}},{"type":"Feature","id":"node/4791109691","properties":{"type":"node","id":4791109691,"tags":{"name":"Elia","phone":"061-465440","tourism":"hotel","website":"hotelelia.com.np"},"relations":[],"meta":{"timestamp":"2018-06-07T10:18:29Z","version":4,"changeset":59632034,"user":"Ro Sun","uid":3112087}},"geometry":{"type":"Point","coordinates":[83.9579972,28.2126449]}},{"type":"Feature","id":"node/4791124622","properties":{"type":"node","id":4791124622,"tags":{"name":"Hotel Citizen","phone":"9856072300","tourism":"hotel"},"relations":[],"meta":{"timestamp":"2017-04-13T06:12:52Z","version":1,"changeset":47731182,"user":"Ro Sun","uid":3112087}},"geometry":{"type":"Point","coordinates":[83.9672171,28.2029016]}},{"type":"Feature","id":"node/4791190473","properties":{"type":"node","id":4791190473,"tags":{"name":"Hotel Immortal Inn","tourism":"hotel"},"relations":[],"meta":{"timestamp":"2017-04-18T08:56:17Z","version":2,"changeset":47898346,"user":"Parassrest","uid":3569249}},"geometry":{"type":"Point","coordinates":[83.9586345,28.2127872]}},{"type":"Feature","id":"node/4791213174","properties":{"type":"node","id":4791213174,"tags":{"name":"Hotel Munal","tourism":"hotel"},"relations":[],"meta":{"timestamp":"2017-04-13T07:14:46Z","version":1,"changeset":47732692,"user":"Parassrest","uid":3569249}},"geometry":{"type":"Point","coordinates":[83.9572249,28.2124912]}},{"type":"Feature","id":"node/4791299401","properties":{"type":"node","id":4791299401,"tags":{"beds":"100","contact:mail":"info@pokharabatika.com","name":"Batika Classic Hotel","phone":"61-467440, 467450","stars":"3","tourism":"hotel","website":"www.hotelpokharabatika.com"},"relations":[],"meta":{"timestamp":"2018-06-07T10:18:29Z","version":4,"changeset":59632034,"user":"Ro Sun","uid":3112087}},"geometry":{"type":"Point","coordinates":[83.9615934,28.2062356]}},{"type":"Feature","id":"node/4791306601","properties":{"type":"node","id":4791306601,"tags":{"beds":"50","contact:email":"crystalpalacepokhara@gmail.com","name":"Hotel Crystal Palace","phone":"61-465133,465144","rooms":"26","tourism":"hotel","website":"www.crystalpalacepokhara.com"},"relations":[],"meta":{"timestamp":"2018-06-07T10:18:30Z","version":4,"changeset":59632034,"user":"Ro Sun","uid":3112087}},"geometry":{"type":"Point","coordinates":[83.9583094,28.210312]}},{"type":"Feature","id":"node/4791306602","properties":{"type":"node","id":4791306602,"tags":{"beds":"15","contact:email":"dhan6@hotmail.com","name":"Hotel Deep Oasis","phone":"9856030562,61-463769","rooms":"8","tourism":"hotel"},"relations":[],"meta":{"timestamp":"2018-06-07T10:18:30Z","version":3,"changeset":59632034,"user":"Ro Sun","uid":3112087}},"geometry":{"type":"Point","coordinates":[83.9600666,28.2103974]}},{"type":"Feature","id":"node/4791306603","properties":{"type":"node","id":4791306603,"tags":{"name":"Hotel Peace Ganga","tourism":"hotel"},"relations":[],"meta":{"timestamp":"2017-04-13T08:13:41Z","version":1,"changeset":47734302,"user":"Bishal9841","uid":3573216}},"geometry":{"type":"Point","coordinates":[83.9596978,28.2105752]}},{"type":"Feature","id":"node/4791306604","properties":{"type":"node","id":4791306604,"tags":{"beds":"30","contact:email":"hotelcerenity00@gmail.com","contact:facebook":"Hotel Serenity Lakeside Pokhara","name":"Hotel Serenity","phone":"9846059242","rooms":"15","tourism":"hotel"},"relations":[],"meta":{"timestamp":"2018-06-07T10:18:30Z","version":4,"changeset":59632034,"user":"Ro Sun","uid":3112087}},"geometry":{"type":"Point","coordinates":[83.9579085,28.2100475]}},{"type":"Feature","id":"node/4791306605","properties":{"type":"node","id":4791306605,"tags":{"name":"Hotel The Billabong Garden","phone":"061-464254","tourism":"hotel"},"relations":[],"meta":{"timestamp":"2018-06-07T10:18:30Z","version":3,"changeset":59632034,"user":"Ro Sun","uid":3112087}},"geometry":{"type":"Point","coordinates":[83.9591526,28.2102532]}},{"type":"Feature","id":"node/4791314045","properties":{"type":"node","id":4791314045,"tags":{"name":"Hotel The Horizon","phone":"+97761462893","tourism":"hotel"},"relations":[],"meta":{"timestamp":"2018-06-07T10:18:30Z","version":4,"changeset":59632034,"user":"Ro Sun","uid":3112087}},"geometry":{"type":"Point","coordinates":[83.962657,28.2073752]}},{"type":"Feature","id":"node/4791325823","properties":{"type":"node","id":4791325823,"tags":{"beds":"16","contact:mail":"info@hotelbuttercup.com","name":"Hotel Buttercup","phone":"+97761466482, 9856065422","tourism":"hotel"},"relations":[],"meta":{"timestamp":"2018-06-07T10:18:30Z","version":3,"changeset":59632034,"user":"Ro Sun","uid":3112087}},"geometry":{"type":"Point","coordinates":[83.963095,28.2078396]}},{"type":"Feature","id":"node/4791332018","properties":{"type":"node","id":4791332018,"tags":{"contact:email":"pokharamail@gmail.com","name":"Hotel 7 Continents","phone":"9846100050,61-464576","tourism":"hotel","website":"www.hotel7continents.com"},"relations":[],"meta":{"timestamp":"2018-06-07T10:18:30Z","version":3,"changeset":59632034,"user":"Ro Sun","uid":3112087}},"geometry":{"type":"Point","coordinates":[83.9585426,28.2112653]}},{"type":"Feature","id":"node/4791332019","properties":{"type":"node","id":4791332019,"tags":{"contact:email":"hotelcentreinnlake@gmail.com","name":"Hotel Centre Inn Lake","phone":"061-464542; +977-9856086154; +977-9842686154","tourism":"hotel","website":"www.hotelcentreinnlake.com"},"relations":[],"meta":{"timestamp":"2018-06-21T04:48:12Z","version":5,"changeset":60029422,"user":"Gaurav Thapa","uid":4212590}},"geometry":{"type":"Point","coordinates":[83.9588944,28.2110561]}},{"type":"Feature","id":"node/4791332622","properties":{"type":"node","id":4791332622,"tags":{"addr:city":"Pokhara","addr:postcode":"33700","addr:street":"Lakeside, Baidam-6, Centerpoint","beds":"46","contact:email":"reservations@hotelswapnabagh.com","email":"reservations@hotelswapnabagh.com","level":"3","name":"Hotel Swapna Bagh","name:en":"Hotel Swapna Bagh","name:ne":"होटल स्वपन बाघ प्राइभेट लिमिटेड","neighbourhood":"Sumipatan","operator":"Dipak Acharya","phone":"061-467223; 061-467224; 061-467225","rooms":"32","smoking":"outside","source":"2C Field Visit 2018","stars":"2","tourism":"hotel","website":"http://hotelswapnabagh.com/"},"relations":[],"meta":{"timestamp":"2018-06-25T05:14:39Z","version":6,"changeset":60135371,"user":"Gaurav Thapa","uid":4212590}},"geometry":{"type":"Point","coordinates":[83.958461,28.2112959]}},{"type":"Feature","id":"node/4791332623","properties":{"type":"node","id":4791332623,"tags":{"contact:facebook":"kumaristarinn","name":"Kumari Inn","phone":"061-467117","tourism":"hotel"},"relations":[],"meta":{"timestamp":"2018-06-07T10:18:30Z","version":4,"changeset":59632034,"user":"Ro Sun","uid":3112087}},"geometry":{"type":"Point","coordinates":[83.9603609,28.2112772]}},{"type":"Feature","id":"node/4791332625","properties":{"type":"node","id":4791332625,"tags":{"contact:email":"vimalgurung7@gmail.com","name":"Noor Hotel","phone":"9806624057,9816113221,9815122534","tourism":"hotel"},"relations":[],"meta":{"timestamp":"2018-06-07T10:18:30Z","version":4,"changeset":59632034,"user":"Ro Sun","uid":3112087}},"geometry":{"type":"Point","coordinates":[83.9579002,28.2115541]}},{"type":"Feature","id":"node/4791365937","properties":{"type":"node","id":4791365937,"tags":{"name":"Hotel River Park","phone":"061-464623","tourism":"hotel"},"relations":[],"meta":{"timestamp":"2018-06-07T10:18:30Z","version":4,"changeset":59632034,"user":"Ro Sun","uid":3112087}},"geometry":{"type":"Point","coordinates":[83.9599879,28.2114537]}},{"type":"Feature","id":"node/4791365938","properties":{"type":"node","id":4791365938,"tags":{"name":"Sampada Inn","tourism":"hotel"},"relations":[],"meta":{"timestamp":"2017-04-13T08:56:34Z","version":1,"changeset":47735516,"user":"Parassrest","uid":3569249}},"geometry":{"type":"Point","coordinates":[83.9592486,28.2105097]}},{"type":"Feature","id":"node/4791371895","properties":{"type":"node","id":4791371895,"tags":{"beds":"20","email":"maden_subba@hotmail.com","name":"Hotel Nepal","phone":"061-466138","tourism":"hotel"},"relations":[],"meta":{"timestamp":"2018-06-21T04:48:13Z","version":5,"changeset":60029422,"user":"Gaurav Thapa","uid":4212590}},"geometry":{"type":"Point","coordinates":[83.9655862,28.205182]}},{"type":"Feature","id":"node/4791410140","properties":{"type":"node","id":4791410140,"tags":{"name":"Hotel Lake Palace","phone":"061-462027, 061-461776","tourism":"hotel"},"relations":[],"meta":{"timestamp":"2018-06-21T04:48:13Z","version":3,"changeset":60029422,"user":"Gaurav Thapa","uid":4212590}},"geometry":{"type":"Point","coordinates":[83.9597684,28.211288]}},{"type":"Feature","id":"node/4791410141","properties":{"type":"node","id":4791410141,"tags":{"name":"Hotel Middle Path","phone":"061-465803","tourism":"hotel"},"relations":[],"meta":{"timestamp":"2018-06-07T10:18:31Z","version":3,"changeset":59632034,"user":"Ro Sun","uid":3112087}},"geometry":{"type":"Point","coordinates":[83.9595911,28.211288]}},{"type":"Feature","id":"node/4800681199","properties":{"type":"node","id":4800681199,"tags":{"contact:website":"http://www.hotelblueheaven.com","internet_access":"yes","name":"Hotel Blue Heaven","name:ne":"ब्लू हेवन","phone":"061-461450","tourism":"hotel","website":"hotelblueheaven.com.np"},"relations":[],"meta":{"timestamp":"2018-06-07T10:18:31Z","version":4,"changeset":59632034,"user":"Ro Sun","uid":3112087}},"geometry":{"type":"Point","coordinates":[83.9584462,28.215148]}},{"type":"Feature","id":"node/4800701090","properties":{"type":"node","id":4800701090,"tags":{"name":"Lake Front","opening_hours":"24/7","phone":"061-463908","tourism":"hotel","website":"http://www.hotellakefront.com/"},"relations":[],"meta":{"timestamp":"2018-06-07T10:18:31Z","version":4,"changeset":59632034,"user":"Ro Sun","uid":3112087}},"geometry":{"type":"Point","coordinates":[83.9582205,28.2177425]}},{"type":"Feature","id":"node/4800708997","properties":{"type":"node","id":4800708997,"tags":{"name":"Pokhara Village Resort","tourism":"hotel"},"relations":[],"meta":{"timestamp":"2018-06-26T05:47:43Z","version":2,"changeset":60168627,"user":"Gaurav Thapa","uid":4212590}},"geometry":{"type":"Point","coordinates":[83.9591415,28.2160366]}},{"type":"Feature","id":"node/4800813801","properties":{"type":"node","id":4800813801,"tags":{"name":"Hotel Karuna","phone":"061-465644","tourism":"hotel","website":"http://www.hotelkaruna.com/"},"relations":[],"meta":{"timestamp":"2018-06-07T10:18:31Z","version":3,"changeset":59632034,"user":"Ro Sun","uid":3112087}},"geometry":{"type":"Point","coordinates":[83.9598534,28.2121738]}},{"type":"Feature","id":"node/4800813802","properties":{"type":"node","id":4800813802,"tags":{"name":"Hotel Monila","phone":"061-462014","tourism":"hotel"},"relations":[],"meta":{"timestamp":"2018-06-07T10:18:31Z","version":3,"changeset":59632034,"user":"Ro Sun","uid":3112087}},"geometry":{"type":"Point","coordinates":[83.9576494,28.2130128]}},{"type":"Feature","id":"node/4800813803","properties":{"type":"node","id":4800813803,"tags":{"name":"Hotel Temple Villa","tourism":"hotel"},"relations":[],"meta":{"timestamp":"2017-04-18T08:56:16Z","version":1,"changeset":47898346,"user":"Parassrest","uid":3569249}},"geometry":{"type":"Point","coordinates":[83.9592641,28.2122723]}},{"type":"Feature","id":"node/4800816704","properties":{"type":"node","id":4800816704,"tags":{"name":"Memory Guest House","phone":"061-463236","tourism":"hotel","website":"memorieguesthouse.com.np"},"relations":[],"meta":{"timestamp":"2018-06-07T10:18:31Z","version":3,"changeset":59632034,"user":"Ro Sun","uid":3112087}},"geometry":{"type":"Point","coordinates":[83.9585804,28.2166663]}},{"type":"Feature","id":"node/4800816709","properties":{"type":"node","id":4800816709,"tags":{"name":"Hotel Rhythm Palace","opening_hours":"24/7","phone":"061-463217","tourism":"hotel","website":"hotelrhythmpalace.com"},"relations":[],"meta":{"timestamp":"2018-06-07T10:18:31Z","version":3,"changeset":59632034,"user":"Ro Sun","uid":3112087}},"geometry":{"type":"Point","coordinates":[83.9587431,28.2161849]}},{"type":"Feature","id":"node/4800870882","properties":{"type":"node","id":4800870882,"tags":{"name":"Golden Gate","phone":"061-466669, 466670","tourism":"hotel","website":"gghpokhara.com"},"relations":[],"meta":{"timestamp":"2018-03-28T09:05:48Z","version":4,"changeset":57593114,"user":"Shrestha Khum","uid":7644104}},"geometry":{"type":"Point","coordinates":[83.9588047,28.2168125]}},{"type":"Feature","id":"node/4843009274","properties":{"type":"node","id":4843009274,"tags":{"name":"Binita Khaja Ghar","tourism":"hotel"},"relations":[],"meta":{"timestamp":"2017-05-09T05:01:12Z","version":1,"changeset":48520616,"user":"Bishal9841","uid":3573216}},"geometry":{"type":"Point","coordinates":[83.9892815,28.2154596]}},{"type":"Feature","id":"node/4854980523","properties":{"type":"node","id":4854980523,"tags":{"name":"Forest Way Lodge","name:en":"Forest Way Lodge","tourism":"hotel"},"relations":[],"meta":{"timestamp":"2018-06-22T09:28:36Z","version":2,"changeset":60069700,"user":"Gaurav Thapa","uid":4212590}},"geometry":{"type":"Point","coordinates":[83.9583142,28.2210745]}},{"type":"Feature","id":"node/4856914921","properties":{"type":"node","id":4856914921,"tags":{"addr:street":"Kande","name:en":"Deepak Hotel","name:hi":"दिपक होटल","phone":"9816171004","tourism":"hotel"},"relations":[],"meta":{"timestamp":"2017-05-16T04:55:23Z","version":1,"changeset":48718572,"user":"madanPS","uid":5425828}},"geometry":{"type":"Point","coordinates":[83.8161339,28.294486]}},{"type":"Feature","id":"node/4859353121","properties":{"type":"node","id":4859353121,"tags":{"addr:street":"Baidam Road","email":"santuchaudhary12@yahoo.com","internet_access":"wlan","name":"Hotel Lake Breeze","name:en":"Hotel Lake Breeze","name:nl":"Hotel Lake Breeze","operator":"Sushila Chaudhary","phone":"+97761466398","tourism":"hotel"},"relations":[],"meta":{"timestamp":"2018-06-24T11:00:09Z","version":2,"changeset":60117943,"user":"Gaurav Thapa","uid":4212590}},"geometry":{"type":"Point","coordinates":[83.9583361,28.2166898]}},{"type":"Feature","id":"node/4879613122","properties":{"type":"node","id":4879613122,"tags":{"internet_access":"wlan","name":"Norgay Montes & Village","tourism":"hotel"},"relations":[],"meta":{"timestamp":"2017-11-19T10:47:56Z","version":4,"changeset":53920013,"user":"Tonushka","uid":3419975}},"geometry":{"type":"Point","coordinates":[83.9570851,28.2222453]}},{"type":"Feature","id":"node/4898613313","properties":{"type":"node","id":4898613313,"tags":{"addr:city":"Pokhara","addr:street":"Peaceful Road","internet_access":"yes","name":"Hotel Dream Pokhara","phone":"061-464360","rooms":"20","smoking":"separated","stars":"2","tourism":"hotel","website":"hoteldreampokhara.com"},"relations":[],"meta":{"timestamp":"2018-06-07T10:18:31Z","version":3,"changeset":59632034,"user":"Ro Sun","uid":3112087}},"geometry":{"type":"Point","coordinates":[83.9650362,28.2096754]}},{"type":"Feature","id":"node/4916413585","properties":{"type":"node","id":4916413585,"tags":{"name":"Hotel Ezen","phone":"061-464894","tourism":"hotel","website":"hotelezen.com"},"relations":[],"meta":{"timestamp":"2018-06-07T10:18:32Z","version":3,"changeset":59632034,"user":"Ro Sun","uid":3112087}},"geometry":{"type":"Point","coordinates":[83.9583829,28.2115467]}},{"type":"Feature","id":"node/4934513922","properties":{"type":"node","id":4934513922,"tags":{"name":"Hotel Fly Inn","name:en":"Hotel Fly Inn","tourism":"hotel"},"relations":[],"meta":{"timestamp":"2018-06-21T05:15:58Z","version":2,"changeset":60030050,"user":"Gaurav Thapa","uid":4212590}},"geometry":{"type":"Point","coordinates":[83.9549273,28.2219455]}},{"type":"Feature","id":"node/4951155027","properties":{"type":"node","id":4951155027,"tags":{"addr:street":"Lakeside Marga","email":"narayanhp29@gmail.com","internet_access":"wlan","name":"Hotel Once More","name:en":"Hotel Once More","opening_hours":"24/7","operator":"Narayan Poudel","phone":"+977-61-461522","tourism":"hotel"},"relations":[],"meta":{"timestamp":"2018-06-24T11:00:37Z","version":3,"changeset":60117956,"user":"Gaurav Thapa","uid":4212590}},"geometry":{"type":"Point","coordinates":[83.9590456,28.2147271]}},{"type":"Feature","id":"node/5025756021","properties":{"type":"node","id":5025756021,"tags":{"addr:city":"Pokhara Lekhanath Metropolitan City","name":"Old Durbar","operator":"Private","tourism":"hotel"},"relations":[],"meta":{"timestamp":"2018-04-12T05:15:55Z","version":2,"changeset":58024077,"user":"Manoj Thapa","uid":781054}},"geometry":{"type":"Point","coordinates":[83.9568195,28.2106565]}},{"type":"Feature","id":"node/5028164643","properties":{"type":"node","id":5028164643,"tags":{"addr:city":"Pokhara Lekhnath Metropolitian City","addr:place":"Kaule","name":"Nirmal Pokhari Cafe","tourism":"hotel"},"relations":[],"meta":{"timestamp":"2017-08-11T09:51:58Z","version":1,"changeset":51027691,"user":"gaurav bhattarai","uid":6465157}},"geometry":{"type":"Point","coordinates":[83.9876664,28.1584648]}},{"type":"Feature","id":"node/5043874826","properties":{"type":"node","id":5043874826,"tags":{"addr:housenumber":"lakeside 6","addr:street":"Lalupate Marga","contact:facebook":"CherryGardenHotel","internet_access":"wlan","name":"The Cherry Garden","name:en":"Hotel The Cherry Garden","name:ja":"ザ・チェリーガーデン","opening_hours":"24/7","phone":"061-466924","tourism":"hotel"},"relations":[],"meta":{"timestamp":"2018-06-26T05:50:21Z","version":3,"changeset":60168677,"user":"Gaurav Thapa","uid":4212590}},"geometry":{"type":"Point","coordinates":[83.960664,28.2116489]}},{"type":"Feature","id":"node/5102882918","properties":{"type":"node","id":5102882918,"tags":{"name":"Hotel Sports Nepal","tourism":"hotel"},"relations":[],"meta":{"timestamp":"2017-09-13T09:46:33Z","version":1,"changeset":51999307,"user":"Ashish Thapa","uid":4039113}},"geometry":{"type":"Point","coordinates":[83.966173,28.2069568]}},{"type":"Feature","id":"node/5104541375","properties":{"type":"node","id":5104541375,"tags":{"addr:city":"Basanta Marg, Lakeside, pokhara-6, Nepal","contact:email":"hotelmiddleeastpkr@gmail.com","name":"Hotel Middle East","phone":"9856027251","tourism":"hotel","website":"hotelmiddle-east.com"},"relations":[],"meta":{"timestamp":"2018-06-07T10:18:32Z","version":4,"changeset":59632034,"user":"Ro Sun","uid":3112087}},"geometry":{"type":"Point","coordinates":[83.9627257,28.2101377]}},{"type":"Feature","id":"node/5137091997","properties":{"type":"node","id":5137091997,"tags":{"beds":"50","contact:email":"hotelparadiseinnpokhara@gmail.com","name":"Hotel Paradise Inn","phone":"61-464545,463361,9851083599","tourism":"hotel","website":"www.hotelparadiseinnpokhara.com"},"relations":[],"meta":{"timestamp":"2018-06-07T10:18:32Z","version":3,"changeset":59632034,"user":"Ro Sun","uid":3112087}},"geometry":{"type":"Point","coordinates":[83.9605577,28.2070482]}},{"type":"Feature","id":"node/5138964033","properties":{"type":"node","id":5138964033,"tags":{"name":"Hotel Stupa","phone":"061-462608","tourism":"hotel","website":"http://www.hotelstupa.com/"},"relations":[],"meta":{"timestamp":"2018-06-07T10:18:32Z","version":4,"changeset":59632034,"user":"Ro Sun","uid":3112087}},"geometry":{"type":"Point","coordinates":[83.9594478,28.2112677]}},{"type":"Feature","id":"node/5165068225","properties":{"type":"node","id":5165068225,"tags":{"amenity":"restaurant","internet_access":"wlan","name":"Bajeko Machha Mahal","name:en":"Bajeko Machha Mahal","opening_hours":"7:00-6:00","tourism":"hotel"},"relations":[],"meta":{"timestamp":"2018-03-08T03:56:12Z","version":2,"changeset":56986473,"user":"LonelyNarayan","uid":7644124}},"geometry":{"type":"Point","coordinates":[83.9737021,28.2129234]}},{"type":"Feature","id":"node/5168879221","properties":{"type":"node","id":5168879221,"tags":{"name":"Danesh's House","tourism":"hotel"},"relations":[],"meta":{"timestamp":"2018-06-22T09:07:23Z","version":2,"changeset":60068986,"user":"Gaurav Thapa","uid":4212590}},"geometry":{"type":"Point","coordinates":[84.1095043,28.1638766]}},{"type":"Feature","id":"node/5195626423","properties":{"type":"node","id":5195626423,"tags":{"name":"Dhampus Mahili Hotel and Lodge","tourism":"hotel"},"relations":[],"meta":{"timestamp":"2017-10-28T08:36:43Z","version":1,"changeset":53311744,"user":"Sudikshya Acharya","uid":5015374}},"geometry":{"type":"Point","coordinates":[83.8719014,28.2919987]}},{"type":"Feature","id":"node/5230153722","properties":{"type":"node","id":5230153722,"tags":{"addr:street":"Sidhartha Highway","tourism":"hotel"},"relations":[],"meta":{"timestamp":"2017-11-15T11:22:19Z","version":1,"changeset":53799924,"user":"behsow","uid":2477037}},"geometry":{"type":"Point","coordinates":[83.8612488,28.1355941]}},{"type":"Feature","id":"node/5240720825","properties":{"type":"node","id":5240720825,"tags":{"name":"Dhaulagiri Hotel","tourism":"hotel"},"relations":[],"meta":{"timestamp":"2017-11-21T09:53:09Z","version":1,"changeset":53971073,"user":"Ro Sun","uid":3112087}},"geometry":{"type":"Point","coordinates":[84.0899421,28.1650742]}},{"type":"Feature","id":"node/5240765624","properties":{"type":"node","id":5240765624,"tags":{"internet_access":"wlan","name":"Grand Hotel Begnas","phone":"061561129","tourism":"hotel"},"relations":[],"meta":{"timestamp":"2017-11-21T09:53:04Z","version":1,"changeset":53971073,"user":"Ro Sun","uid":3112087}},"geometry":{"type":"Point","coordinates":[84.0914662,28.1651837]}},{"type":"Feature","id":"node/5242305560","properties":{"type":"node","id":5242305560,"tags":{"name":"Hotel Daybreak","tourism":"hotel"},"relations":[],"meta":{"timestamp":"2017-11-22T07:38:04Z","version":1,"changeset":53993498,"user":"nishaadhikari","uid":3481073}},"geometry":{"type":"Point","coordinates":[84.0911212,28.1648365]}},{"type":"Feature","id":"node/5242305561","properties":{"type":"node","id":5242305561,"tags":{"name":"Hotel Gorkhali","tourism":"hotel"},"relations":[],"meta":{"timestamp":"2017-11-22T07:38:04Z","version":1,"changeset":53993498,"user":"nishaadhikari","uid":3481073}},"geometry":{"type":"Point","coordinates":[84.0900047,28.1649868]}},{"type":"Feature","id":"node/5242305562","properties":{"type":"node","id":5242305562,"tags":{"name":"Hotel Jomsom and Restaurant","tourism":"hotel"},"relations":[],"meta":{"timestamp":"2017-11-22T07:38:04Z","version":1,"changeset":53993498,"user":"nishaadhikari","uid":3481073}},"geometry":{"type":"Point","coordinates":[84.0898874,28.1652386]}},{"type":"Feature","id":"node/5242305566","properties":{"type":"node","id":5242305566,"tags":{"name":"Marpha Hotel and Lodge","tourism":"hotel"},"relations":[],"meta":{"timestamp":"2017-11-22T07:38:04Z","version":1,"changeset":53993498,"user":"nishaadhikari","uid":3481073}},"geometry":{"type":"Point","coordinates":[84.090678,28.1640623]}},{"type":"Feature","id":"node/5242305568","properties":{"type":"node","id":5242305568,"tags":{"name":"Sarita Hotel and Lodge","tourism":"hotel"},"relations":[],"meta":{"timestamp":"2017-11-22T07:38:05Z","version":1,"changeset":53993498,"user":"nishaadhikari","uid":3481073}},"geometry":{"type":"Point","coordinates":[84.090846,28.1641787]}},{"type":"Feature","id":"node/5242314746","properties":{"type":"node","id":5242314746,"tags":{"name":"Hotel Aama","tourism":"hotel"},"relations":[],"meta":{"timestamp":"2017-11-22T07:49:22Z","version":1,"changeset":53993654,"user":"nishaadhikari","uid":3481073}},"geometry":{"type":"Point","coordinates":[84.0884703,28.1640603]}},{"type":"Feature","id":"node/5242337826","properties":{"type":"node","id":5242337826,"tags":{"name":"Hotel Saptadip and Lodge","tourism":"hotel"},"relations":[],"meta":{"timestamp":"2017-11-22T08:05:53Z","version":1,"changeset":53993964,"user":"nishaadhikari","uid":3481073}},"geometry":{"type":"Point","coordinates":[84.0880137,28.1677131]}},{"type":"Feature","id":"node/5242337828","properties":{"type":"node","id":5242337828,"tags":{"name":"Hotel Young's Stupa","tourism":"hotel"},"relations":[],"meta":{"timestamp":"2017-11-22T08:05:54Z","version":1,"changeset":53993964,"user":"nishaadhikari","uid":3481073}},"geometry":{"type":"Point","coordinates":[84.0877488,28.1678512]}},{"type":"Feature","id":"node/5242337829","properties":{"type":"node","id":5242337829,"tags":{"addr:postcode":"33700","addr:street":"touristroad, begnas lake","email":"rupabegnaslakeinn@gmail.com","internet_access":"wlan","name":"Rupa Begnas Lake Inn","name:en":"Hotel Rupa Begnas Lake Inn","opening_hours":"24/7","operator":"Kamal Lamichhane","phone":"9856011406","tourism":"hotel"},"relations":[],"meta":{"timestamp":"2018-06-24T11:05:43Z","version":2,"changeset":60118035,"user":"Gaurav Thapa","uid":4212590}},"geometry":{"type":"Point","coordinates":[84.0879212,28.1678178]}},{"type":"Feature","id":"node/5242388573","properties":{"type":"node","id":5242388573,"tags":{"name":"Hotel Happy Home","phone":"061696566","tourism":"hotel"},"relations":[],"meta":{"timestamp":"2017-11-22T08:57:05Z","version":1,"changeset":53994953,"user":"nishaadhikari","uid":3481073}},"geometry":{"type":"Point","coordinates":[84.0884715,28.1646237]}},{"type":"Feature","id":"node/5242388574","properties":{"type":"node","id":5242388574,"tags":{"name":"Hotel Himshikar Restaurant and Lodge","tourism":"hotel"},"relations":[],"meta":{"timestamp":"2017-11-22T08:57:05Z","version":1,"changeset":53994953,"user":"nishaadhikari","uid":3481073}},"geometry":{"type":"Point","coordinates":[84.0886808,28.1646142]}},{"type":"Feature","id":"node/5242388575","properties":{"type":"node","id":5242388575,"tags":{"name":"Hotel Seven Days Paradise","tourism":"hotel"},"relations":[],"meta":{"timestamp":"2017-11-22T08:57:05Z","version":1,"changeset":53994953,"user":"nishaadhikari","uid":3481073}},"geometry":{"type":"Point","coordinates":[84.0923406,28.1648063]}},{"type":"Feature","id":"node/5242393909","properties":{"type":"node","id":5242393909,"tags":{"name":"Ram Hotel","tourism":"hotel"},"relations":[],"meta":{"timestamp":"2017-11-22T09:04:06Z","version":1,"changeset":53995116,"user":"nishaadhikari","uid":3481073}},"geometry":{"type":"Point","coordinates":[84.1156584,28.1656854]}},{"type":"Feature","id":"node/5242393913","properties":{"type":"node","id":5242393913,"tags":{"name":"5 Brother's Hotel Jungle Village and Lake View Resort","tourism":"hotel"},"relations":[],"meta":{"timestamp":"2017-11-22T09:04:07Z","version":1,"changeset":53995116,"user":"nishaadhikari","uid":3481073}},"geometry":{"type":"Point","coordinates":[84.1153339,28.1656003]}},{"type":"Feature","id":"node/5248388821","properties":{"type":"node","id":5248388821,"tags":{"name:en":"Hotel Dalima","tourism":"hotel"},"relations":[],"meta":{"timestamp":"2017-11-26T09:35:17Z","version":1,"changeset":54090226,"user":"SauravGautam","uid":3116122}},"geometry":{"type":"Point","coordinates":[83.8763446,28.2917849]}},{"type":"Feature","id":"node/5309626622","properties":{"type":"node","id":5309626622,"tags":{"addr:postcode":"33700","addr:street":"veiw point road","internet_access":"wlan","name":"Sunset Lodge and Restaurant","name:en":"Sunset Lodge and Restaurant","opening_hours":"Mo-Su 06:00-22:00","tourism":"hotel"},"relations":[],"meta":{"timestamp":"2018-06-21T05:15:59Z","version":3,"changeset":60030050,"user":"Gaurav Thapa","uid":4212590}},"geometry":{"type":"Point","coordinates":[83.9475291,28.2449409]}},{"type":"Feature","id":"node/5318125022","properties":{"type":"node","id":5318125022,"tags":{"internet_access":"wlan","name":"Hotel Virgin Pokhara","name:en":"Hotel Virgin Pokhara","tourism":"hotel"},"relations":[],"meta":{"timestamp":"2018-06-24T11:04:26Z","version":2,"changeset":60118015,"user":"Gaurav Thapa","uid":4212590}},"geometry":{"type":"Point","coordinates":[83.9623697,28.2156966]}},{"type":"Feature","id":"node/5425992836","properties":{"type":"node","id":5425992836,"tags":{"beds":"10","floor":"3","internet_access":"yes","internet_access:fee":"yes","name":"New Raod In","rooms":"8","smoking":"no","tourism":"hotel"},"relations":[],"meta":{"timestamp":"2018-02-21T06:33:18Z","version":1,"changeset":56540008,"user":"sanjit4u","uid":5329899}},"geometry":{"type":"Point","coordinates":[83.9857779,28.2156944]}},{"type":"Feature","id":"node/5437769472","properties":{"type":"node","id":5437769472,"tags":{"email":"chiranjibi904@gmail.com","name":"Hotel Jungle View","phone":"9856028904","tourism":"hotel"},"relations":[],"meta":{"timestamp":"2018-06-21T04:48:13Z","version":3,"changeset":60029422,"user":"Gaurav Thapa","uid":4212590}},"geometry":{"type":"Point","coordinates":[83.9623301,28.2052343]}},{"type":"Feature","id":"node/5437769476","properties":{"type":"node","id":5437769476,"tags":{"beds":"17","name":"Hotel Pokhara View","tourism":"hotel"},"relations":[],"meta":{"timestamp":"2018-06-21T05:05:04Z","version":2,"changeset":60029819,"user":"Gaurav Thapa","uid":4212590}},"geometry":{"type":"Point","coordinates":[83.9634325,28.2072848]}},{"type":"Feature","id":"node/5437769477","properties":{"type":"node","id":5437769477,"tags":{"name":"Pokhara Mount Resort","phone":"061-453456","tourism":"hotel"},"relations":[],"meta":{"timestamp":"2018-06-21T05:05:04Z","version":3,"changeset":60029819,"user":"Gaurav Thapa","uid":4212590}},"geometry":{"type":"Point","coordinates":[83.963738,28.2076038]}},{"type":"Feature","id":"node/5455900308","properties":{"type":"node","id":5455900308,"tags":{"beds":"20","internet_access":"yes","internet_access:fee":"free","name":"Hotel Royal Choice","opening_hours":"8:00-24:00","operator":"Private","phone":"061527622","rooms":"12","smoking":"yes","tourism":"hotel"},"relations":[],"meta":{"timestamp":"2018-06-07T10:18:32Z","version":3,"changeset":59632034,"user":"Ro Sun","uid":3112087}},"geometry":{"type":"Point","coordinates":[83.9728899,28.2137351]}},{"type":"Feature","id":"node/5456009340","properties":{"type":"node","id":5456009340,"tags":{"addr:city":"Baidam marg, Ambot, lakeside, pokhara-6","beds":"15","email":"suiteinnlodge@gmail.com","name":"Hotel Suite Inn","phone":"9857023090, 061-467890","tourism":"hotel","website":"www.suiteinnlodge.com"},"relations":[],"meta":{"timestamp":"2018-06-21T04:48:13Z","version":3,"changeset":60029422,"user":"Gaurav Thapa","uid":4212590}},"geometry":{"type":"Point","coordinates":[83.9661562,28.2055061]}},{"type":"Feature","id":"node/5456009342","properties":{"type":"node","id":5456009342,"tags":{"name":"hotel lake peace","phone":"061-463116","tourism":"hotel"},"relations":[],"meta":{"timestamp":"2018-06-07T10:18:32Z","version":2,"changeset":59632034,"user":"Ro Sun","uid":3112087}},"geometry":{"type":"Point","coordinates":[83.9653757,28.2063464]}},{"type":"Feature","id":"node/5456209331","properties":{"type":"node","id":5456209331,"tags":{"beds":"24","contact:person":"Janak Kafle","name":"Best Inn","phone":"9867034557, 9847450960","rooms":"12","source":"2C Field Visit 2018","tourism":"hotel"},"relations":[],"meta":{"timestamp":"2018-06-21T04:48:13Z","version":4,"changeset":60029422,"user":"Gaurav Thapa","uid":4212590}},"geometry":{"type":"Point","coordinates":[83.9653519,28.2049022]}},{"type":"Feature","id":"node/5456396646","properties":{"type":"node","id":5456396646,"tags":{"contact:email":"info@hotelmilarepa.com.np","email":"hotelmilarepa@gmail.com","name":"Hotel Milarepa","phone":"61-464085; 061-464086","tourism":"hotel","website":"www.hotelmilarepa.com.np"},"relations":[],"meta":{"timestamp":"2018-06-21T04:48:13Z","version":5,"changeset":60029422,"user":"Gaurav Thapa","uid":4212590}},"geometry":{"type":"Point","coordinates":[83.9641884,28.2052366]}},{"type":"Feature","id":"node/5458641697","properties":{"type":"node","id":5458641697,"tags":{"name":"Life You Inn","phone":"9814140666","tourism":"hotel"},"relations":[],"meta":{"timestamp":"2018-06-21T04:48:13Z","version":6,"changeset":60029422,"user":"Gaurav Thapa","uid":4212590}},"geometry":{"type":"Point","coordinates":[83.9638053,28.2047911]}},{"type":"Feature","id":"node/5458641700","properties":{"type":"node","id":5458641700,"tags":{"contact:mail":"mhotelmagnoliapokhara@gmail.com","name":"Hotel Magnolia","phone":"061-464463, 467329","tourism":"hotel","website":"www.magnoliapokhara.com"},"relations":[],"meta":{"timestamp":"2018-06-07T10:18:33Z","version":3,"changeset":59632034,"user":"Ro Sun","uid":3112087}},"geometry":{"type":"Point","coordinates":[83.9634231,28.2052733]}},{"type":"Feature","id":"node/5458863001","properties":{"type":"node","id":5458863001,"tags":{"contact:mail":"royalgh@hotmail.com","name":"Royal Guest House","phone":"061-463443","tourism":"hotel","website":"hotelroyalguesthouse.com"},"relations":[],"meta":{"timestamp":"2018-06-21T05:05:04Z","version":3,"changeset":60029819,"user":"Gaurav Thapa","uid":4212590}},"geometry":{"type":"Point","coordinates":[83.9625691,28.2066697]}},{"type":"Feature","id":"node/5459447500","properties":{"type":"node","id":5459447500,"tags":{"name":"Hotel Smriti & lodge","phone":"9846020450","source":"2cpokhara","tourism":"hotel"},"relations":[],"meta":{"timestamp":"2018-06-29T06:06:33Z","version":3,"changeset":60267359,"user":"marek kleciak","uid":338611}},"geometry":{"type":"Point","coordinates":[83.9582907,28.1887318]}},{"type":"Feature","id":"node/5459447516","properties":{"type":"node","id":5459447516,"tags":{"contact:phone":"061460815","name":"Hotel Rythm","name:ne":"होटल रिदम","phone":"061460815","source":"2cpokhara","tourism":"hotel"},"relations":[],"meta":{"timestamp":"2018-07-15T07:40:10Z","version":4,"changeset":60726492,"user":"Bhawak","uid":4923175}},"geometry":{"type":"Point","coordinates":[83.9649177,28.1902165]}},{"type":"Feature","id":"node/5461924082","properties":{"type":"node","id":5461924082,"tags":{"name":"Kaushal Hotel","phone":"061-522793","source":"2c pokhara","tourism":"hotel"},"relations":[],"meta":{"timestamp":"2018-03-07T11:29:34Z","version":1,"changeset":56965291,"user":"Active Asmita","uid":7644107}},"geometry":{"type":"Point","coordinates":[83.9846729,28.2273919]}},{"type":"Feature","id":"node/5462550846","properties":{"type":"node","id":5462550846,"tags":{"name":"New Hotel Nature Land","phone":"061-462577","source":"2cpokhara","tourism":"hotel"},"relations":[],"meta":{"timestamp":"2018-06-07T10:18:33Z","version":2,"changeset":59632034,"user":"Ro Sun","uid":3112087}},"geometry":{"type":"Point","coordinates":[83.9705628,28.1999423]}},{"type":"Feature","id":"node/5463338425","properties":{"type":"node","id":5463338425,"tags":{"contact:mail":"info@pokharabatika.com","name":"Hotel Pokhara Batika","opening_hours":"24/7","rooms":"40","tourism":"hotel","website":"www.hotelpokharabatika.com"},"relations":[],"meta":{"timestamp":"2018-06-21T05:05:04Z","version":4,"changeset":60029819,"user":"Gaurav Thapa","uid":4212590}},"geometry":{"type":"Point","coordinates":[83.9612143,28.2063381]}},{"type":"Feature","id":"node/5463338427","properties":{"type":"node","id":5463338427,"tags":{"beds":"30","email":"info@holylodge.com.np","name":"Hotel Holy Lodge","name:en":"Hotel Holy Lodge","phone":"61-463422","tourism":"hotel"},"relations":[],"meta":{"timestamp":"2018-06-21T05:05:04Z","version":4,"changeset":60029819,"user":"Gaurav Thapa","uid":4212590}},"geometry":{"type":"Point","coordinates":[83.9617427,28.2070661]}},{"type":"Feature","id":"node/5463338428","properties":{"type":"node","id":5463338428,"tags":{"beds":"50","contact:mail":"lakesideinn99@gmail.com","name":"Hotel Lakeside Inn","name:en":"Hotel Lakeside Inn","phone":"061-464136, 464131","tourism":"hotel","website":"wwwhotellakesideinn.com"},"relations":[],"meta":{"timestamp":"2018-06-21T05:43:06Z","version":4,"changeset":60030657,"user":"Gaurav Thapa","uid":4212590}},"geometry":{"type":"Point","coordinates":[83.9620243,28.2073829]}},{"type":"Feature","id":"node/5463338429","properties":{"type":"node","id":5463338429,"tags":{"beds":"35","email":"ddhkal24@gmail.com","name":"Hotel Rhythmic Palace","name:en":"hotel rhythmic palace, gaurighat marga","opening_hours":"24/7","phone":"061-467572, 9856027332","tourism":"hotel","website":"www.hotelrhythmpalace.com"},"relations":[],"meta":{"timestamp":"2018-06-24T11:07:41Z","version":3,"changeset":60118056,"user":"Gaurav Thapa","uid":4212590}},"geometry":{"type":"Point","coordinates":[83.962196,28.2078154]}},{"type":"Feature","id":"node/5463386018","properties":{"type":"node","id":5463386018,"tags":{"beds":"50","email":"hdreamlake@gmail.com","name":"Hotel Dream Lake","name:en":"hotel dream lake pvt.ltd","phone":"9856044471","tourism":"hotel","website":"www.hoteldreamlake.com"},"relations":[],"meta":{"timestamp":"2018-06-24T11:09:08Z","version":4,"changeset":60118083,"user":"Gaurav Thapa","uid":4212590}},"geometry":{"type":"Point","coordinates":[83.9625943,28.2092892]}},{"type":"Feature","id":"node/5466340123","properties":{"type":"node","id":5466340123,"tags":{"beds":"55","contact:facebook":"fuji guest house","email":"fujiguesthouse@yahoo.com","name":"Fuji Guest House","name:en":"Fuji Guest House","phone":"061-462230, 9810458406","tourism":"hotel"},"relations":[],"meta":{"timestamp":"2018-06-21T05:05:05Z","version":4,"changeset":60029819,"user":"Gaurav Thapa","uid":4212590}},"geometry":{"type":"Point","coordinates":[83.9582652,28.2086959]}},{"type":"Feature","id":"node/5468490409","properties":{"type":"node","id":5468490409,"tags":{"beds":"110","contact:email":"info@kutiresort.com","name":"Kuti Resort","name:ne":"कुटी रिसोट","phone":"061-467325,467326","tourism":"hotel","website":"www.kutiresort.com"},"relations":[],"meta":{"timestamp":"2018-06-07T10:18:34Z","version":3,"changeset":59632034,"user":"Ro Sun","uid":3112087}},"geometry":{"type":"Point","coordinates":[83.9618164,28.2095421]}},{"type":"Feature","id":"node/5468490410","properties":{"type":"node","id":5468490410,"tags":{"beds":"20","email":"anil.kizza@gmail.com","name":"Hakuniwa Guest House","name:en":"Hakuniwa Guest House","phone":"061-466674","tourism":"hotel","website":"www.hakoniwa.com"},"relations":[],"meta":{"timestamp":"2018-06-24T11:09:45Z","version":4,"changeset":60118094,"user":"Gaurav Thapa","uid":4212590}},"geometry":{"type":"Point","coordinates":[83.9615804,28.2095893]}},{"type":"Feature","id":"node/5469569850","properties":{"type":"node","id":5469569850,"tags":{"name":"Thakali Banchha Ghar & Guest House","source":"2c pokhara","tourism":"hotel"},"relations":[],"meta":{"timestamp":"2018-03-10T17:43:09Z","version":1,"changeset":57063705,"user":"Active Asmita","uid":7644107}},"geometry":{"type":"Point","coordinates":[83.9909308,28.2294215]}},{"type":"Feature","id":"node/5470329127","properties":{"type":"node","id":5470329127,"tags":{"beds":"50","email":"hotelbishram@gmail.com","name":"Hotel Bishram","name:en":"Hotel Bishram","phone":"61-464734","tourism":"hotel","website":"www.hotelbishram.com.np"},"relations":[],"meta":{"timestamp":"2018-06-24T11:10:49Z","version":4,"changeset":60118118,"user":"Gaurav Thapa","uid":4212590}},"geometry":{"type":"Point","coordinates":[83.9583403,28.2084359]}},{"type":"Feature","id":"node/5470405813","properties":{"type":"node","id":5470405813,"tags":{"beds":"70","contact:email":"mountviewpokhara@gmail.com","contact:facebook":"mountviewpokhara","name":"Hotel Mount View Pokhara","name:en":"Hotel Mount View Pokhara","phone":"464200,464210,466211","tourism":"hotel"},"relations":[],"meta":{"timestamp":"2018-06-24T11:40:07Z","version":4,"changeset":60118672,"user":"Gaurav Thapa","uid":4212590}},"geometry":{"type":"Point","coordinates":[83.9593461,28.2076452]}},{"type":"Feature","id":"node/5470405814","properties":{"type":"node","id":5470405814,"tags":{"beds":"100","contact:email":"info@hotelspringpokhara.com","name":"Hotel Spring","name:en":"Hotel Spring","phone":"61-467351,467352","tourism":"hotel","website":"www.hotelspringpokhara.com"},"relations":[],"meta":{"timestamp":"2018-06-24T11:40:40Z","version":3,"changeset":60118680,"user":"Gaurav Thapa","uid":4212590}},"geometry":{"type":"Point","coordinates":[83.959621,28.2076559]}},{"type":"Feature","id":"node/5470405815","properties":{"type":"node","id":5470405815,"tags":{"beds":"100","contact:email":"info@whitepearlnepal.com","email":"online@whitepearl.com","name":"Hotel White Pearl","phone":"61-465600,464777","tourism":"hotel","website":"www.whitepearlnepal.com"},"relations":[],"meta":{"timestamp":"2018-06-07T10:18:35Z","version":3,"changeset":59632034,"user":"Ro Sun","uid":3112087}},"geometry":{"type":"Point","coordinates":[83.9595151,28.2079537]}},{"type":"Feature","id":"node/5470405816","properties":{"type":"node","id":5470405816,"tags":{"beds":"20","contact:email":"indra_thapa6550@yahoo.com","name:en":"Hotel Half Moon","phone":"61-466864,9846530002","tourism":"hotel","website":"www.hotelhalfmoon.com"},"relations":[],"meta":{"timestamp":"2018-06-07T10:18:35Z","version":2,"changeset":59632034,"user":"Ro Sun","uid":3112087}},"geometry":{"type":"Point","coordinates":[83.9599764,28.2080967]}},{"type":"Feature","id":"node/5470405817","properties":{"type":"node","id":5470405817,"tags":{"beds":"14","name":"Hotel Galaxy Inn","name:en":"Hotel Galaxy Inn","phone":"61-462329,9846585843","tourism":"hotel","website":"www.galaxyinnpokhara.com"},"relations":[],"meta":{"timestamp":"2018-06-24T11:41:45Z","version":3,"changeset":60118711,"user":"Gaurav Thapa","uid":4212590}},"geometry":{"type":"Point","coordinates":[83.9602621,28.2080589]}},{"type":"Feature","id":"node/5470405818","properties":{"type":"node","id":5470405818,"tags":{"beds":"40","contact:facebook":"hotellakevalley","email":"gurunganil290@gmail.com","name":"Hotel Lake Valley","name:en":"Hotel Lake Valley","phone":"9856032423","tourism":"hotel"},"relations":[],"meta":{"timestamp":"2018-06-22T09:23:16Z","version":4,"changeset":60069498,"user":"Gaurav Thapa","uid":4212590}},"geometry":{"type":"Point","coordinates":[83.9603251,28.2079171]}},{"type":"Feature","id":"node/5470405819","properties":{"type":"node","id":5470405819,"tags":{"beds":"50","contact:email":"tilak@hoteldreaminn.com","email":"info@hoteldreaminn.com","internet_access":"yes","internet_access:fee":"yes","name":"Hotel Durbar Inn","name:en":"Hotel Dream inn","name:ne":"होटल दर्वार ईन","phone":"61-460311,4663159802810481","smoking":"isolated","tourism":"hotel","wheelchair":"no"},"relations":[],"meta":{"timestamp":"2018-06-07T10:18:35Z","version":3,"changeset":59632034,"user":"Ro Sun","uid":3112087}},"geometry":{"type":"Point","coordinates":[83.9604646,28.2074325]}},{"type":"Feature","id":"node/5470405820","properties":{"type":"node","id":5470405820,"tags":{"contact:email":"info@hotelsublimepkr.com","contact:facebook":"hotelsublime","name":"Hotel Sublime","phone":"061-464988","tourism":"hotel","website":"www.hotelsublimepkr.com"},"relations":[],"meta":{"timestamp":"2018-06-22T09:23:16Z","version":4,"changeset":60069498,"user":"Gaurav Thapa","uid":4212590}},"geometry":{"type":"Point","coordinates":[83.9605907,28.2075731]}},{"type":"Feature","id":"node/5470406221","properties":{"type":"node","id":5470406221,"tags":{"name":"Hotel Yad","phone":"061-460468","source":"2cpokhara","tourism":"hotel"},"relations":[],"meta":{"timestamp":"2018-06-07T10:18:35Z","version":3,"changeset":59632034,"user":"Ro Sun","uid":3112087}},"geometry":{"type":"Point","coordinates":[83.9728054,28.1951697]}},{"type":"Feature","id":"node/5470527755","properties":{"type":"node","id":5470527755,"tags":{"name":"Mountain Overland","phone":"061-465853","source":"2cpokhara","tourism":"hotel"},"relations":[],"meta":{"timestamp":"2018-06-07T10:18:36Z","version":2,"changeset":59632034,"user":"Ro Sun","uid":3112087}},"geometry":{"type":"Point","coordinates":[83.9702627,28.1961134]}},{"type":"Feature","id":"node/5470527756","properties":{"type":"node","id":5470527756,"tags":{"name":"Hotel Fishtail Inn","phone":"061-46620","source":"2cpokhara","tourism":"hotel"},"relations":[],"meta":{"timestamp":"2018-06-07T10:18:36Z","version":2,"changeset":59632034,"user":"Ro Sun","uid":3112087}},"geometry":{"type":"Point","coordinates":[83.9703472,28.1957795]}},{"type":"Feature","id":"node/5470544829","properties":{"type":"node","id":5470544829,"tags":{"name":"Ashok Guest House & Restaurant","phone":"061-467096","source":"2cpokhara","tourism":"hotel","wifi":"free"},"relations":[],"meta":{"timestamp":"2018-06-07T10:18:36Z","version":2,"changeset":59632034,"user":"Ro Sun","uid":3112087}},"geometry":{"type":"Point","coordinates":[83.9694916,28.1960662]}},{"type":"Feature","id":"node/5470544830","properties":{"type":"node","id":5470544830,"tags":{"name":"Hotel Garden Orchid Bar and Restaurant","tourism":"hotel"},"relations":[],"meta":{"timestamp":"2018-03-11T09:25:51Z","version":1,"changeset":57076091,"user":"Sagarsubedi205","uid":7632456}},"geometry":{"type":"Point","coordinates":[83.9694782,28.1960059]}},{"type":"Feature","id":"node/5472210326","properties":{"type":"node","id":5472210326,"tags":{"name":"Hotel Rythm","phone":"061-460815","source":"2cpokhara","tourism":"hotel"},"relations":[],"meta":{"timestamp":"2018-06-07T10:18:36Z","version":2,"changeset":59632034,"user":"Ro Sun","uid":3112087}},"geometry":{"type":"Point","coordinates":[83.9651933,28.1899541]}},{"type":"Feature","id":"node/5474526724","properties":{"type":"node","id":5474526724,"tags":{"beds":"120","email":"reservation@himalayanfront.com","name":"Himalayan Front Hotel","opening_hours":"8:00-22:00","phone":"061412398 061412399","rooms":"60","stars":"3","tourism":"hotel"},"relations":[],"meta":{"timestamp":"2018-06-07T10:18:36Z","version":2,"changeset":59632034,"user":"Ro Sun","uid":3112087}},"geometry":{"type":"Point","coordinates":[83.9744389,28.2446693]}},{"type":"Feature","id":"node/5474681806","properties":{"type":"node","id":5474681806,"tags":{"email":"hotelpokharainternational@gmail.com","name":"Hotel Pokhara International","name:en":"Hotel Pokhara International","phone":"61-466135,9851037869","tourism":"hotel","website":"www.hotelpokharainternational.com"},"relations":[],"meta":{"timestamp":"2018-06-22T09:18:51Z","version":3,"changeset":60069337,"user":"Gaurav Thapa","uid":4212590}},"geometry":{"type":"Point","coordinates":[83.9604136,28.2081617]}},{"type":"Feature","id":"node/5474681807","properties":{"type":"node","id":5474681807,"tags":{"contact:email":"godpigeon9999@gmail.com","name":"Hotel Pigeon","name:en":"Hotel Pigeon","phone":"9815106559, 061-466664","tourism":"hotel","website":"www.hotelgodpigeon.com"},"relations":[],"meta":{"timestamp":"2018-06-22T09:19:53Z","version":3,"changeset":60069382,"user":"Gaurav Thapa","uid":4212590}},"geometry":{"type":"Point","coordinates":[83.9608321,28.2079844]}},{"type":"Feature","id":"node/5474681808","properties":{"type":"node","id":5474681808,"tags":{"name":"Hotel Angan","name:en":"Hotel Angan","phone":"9804176269,061-462517","tourism":"hotel"},"relations":[],"meta":{"timestamp":"2018-06-22T09:21:13Z","version":3,"changeset":60069431,"user":"Gaurav Thapa","uid":4212590}},"geometry":{"type":"Point","coordinates":[83.9608294,28.2077741]}},{"type":"Feature","id":"node/5474987526","properties":{"type":"node","id":5474987526,"tags":{"beds":"45","contact:email":"manasluhotel99@gmail.com","name":"Hotel Manaslu II","phone":"61-467524,9856021859","rooms":"24","tourism":"hotel"},"relations":[],"meta":{"timestamp":"2018-06-07T10:18:36Z","version":3,"changeset":59632034,"user":"Ro Sun","uid":3112087}},"geometry":{"type":"Point","coordinates":[83.9625272,28.2101732]}},{"type":"Feature","id":"node/5474987530","properties":{"type":"node","id":5474987530,"tags":{"beds":"50","contact:email":"info@hotelgoapalace.com","name":"Hotel Goa Palace","name:en":"Hotel Goa Palace","phone":"9813039589","rooms":"25","tourism":"hotel","website":"www.hotelgoapalace.com"},"relations":[],"meta":{"timestamp":"2018-06-24T11:46:55Z","version":4,"changeset":60118840,"user":"Gaurav Thapa","uid":4212590}},"geometry":{"type":"Point","coordinates":[83.9614704,28.2106955]}},{"type":"Feature","id":"node/5474987536","properties":{"type":"node","id":5474987536,"tags":{"beds":"18","contact:email":"janakkafle.jk@gmail.com","name":"Hotel Peace Ganga","name:en":"Hotel Peace Ganga","phone":"9867034557,9817416316","rooms":"6","tourism":"hotel"},"relations":[],"meta":{"timestamp":"2018-06-24T11:47:41Z","version":4,"changeset":60118859,"user":"Gaurav Thapa","uid":4212590}},"geometry":{"type":"Point","coordinates":[83.9595929,28.2100739]}},{"type":"Feature","id":"node/5475683572","properties":{"type":"node","id":5475683572,"tags":{"contact:email":"havs@annapurnaview.com","name":"Hotel Annapurna View Sarangkot","phone":"061-531052","source":"2c pokhara","tourism":"hotel"},"relations":[],"meta":{"timestamp":"2018-06-25T04:56:19Z","version":3,"changeset":60135039,"user":"Gaurav Thapa","uid":4212590}},"geometry":{"type":"Point","coordinates":[83.989716,28.2331804]}},{"type":"Feature","id":"node/5477470325","properties":{"type":"node","id":5477470325,"tags":{"name":"Hotel Mountain Garden","opening_hours":"8:00-22:00","phone":"9806748684","tourism":"hotel"},"relations":[],"meta":{"timestamp":"2018-06-07T10:18:37Z","version":2,"changeset":59632034,"user":"Ro Sun","uid":3112087}},"geometry":{"type":"Point","coordinates":[83.9459163,28.247774]}},{"type":"Feature","id":"node/5481706661","properties":{"type":"node","id":5481706661,"tags":{"addr:city":"baidam-6, lakeside, way to taal barahi school","facility":"khaja, khana, party organize","name":"Madani Home Stay","phone":"9851069377,061-467552","tourism":"hotel"},"relations":[],"meta":{"timestamp":"2018-06-21T04:48:14Z","version":3,"changeset":60029422,"user":"Gaurav Thapa","uid":4212590}},"geometry":{"type":"Point","coordinates":[83.960942,28.2109413]}},{"type":"Feature","id":"node/5481787123","properties":{"type":"node","id":5481787123,"tags":{"name":"Hotel Portland","name:en":"Hotel Portland","tourism":"hotel"},"relations":[],"meta":{"timestamp":"2018-06-24T10:28:13Z","version":2,"changeset":60117277,"user":"Gaurav Thapa","uid":4212590}},"geometry":{"type":"Point","coordinates":[83.9575624,28.2103622]}},{"type":"Feature","id":"node/5481863452","properties":{"type":"node","id":5481863452,"tags":{"name":"Hotel Green View","phone":"061-465544,9804103662,9804121618","tourism":"hotel","website":"www.newhotelgreenview.com"},"relations":[],"meta":{"timestamp":"2018-06-07T10:18:37Z","version":3,"changeset":59632034,"user":"Ro Sun","uid":3112087}},"geometry":{"type":"Point","coordinates":[83.9576295,28.2117048]}},{"type":"Feature","id":"node/5485594824","properties":{"type":"node","id":5485594824,"tags":{"contact:email":"hotelforestlake@gmail.com","name":"Hotel Forest Lake","phone":"061467471,9815143111","tourism":"hotel"},"relations":[],"meta":{"timestamp":"2018-06-24T10:01:37Z","version":3,"changeset":60116799,"user":"Gaurav Thapa","uid":4212590}},"geometry":{"type":"Point","coordinates":[83.9550671,28.2219855]}},{"type":"Feature","id":"node/5486749054","properties":{"type":"node","id":5486749054,"tags":{"name":"Hotel Sunkoshi","source":"2c pokhara","tourism":"hotel"},"relations":[],"meta":{"timestamp":"2018-03-18T16:35:17Z","version":1,"changeset":57295185,"user":"Active Asmita","uid":7644107}},"geometry":{"type":"Point","coordinates":[83.9893871,28.2238058]}},{"type":"Feature","id":"node/5502440192","properties":{"type":"node","id":5502440192,"tags":{"name":"Hotel Nimto","name:en":"Hotel Nimto","opening_hours":"24/7","phone":"984-6350028","tourism":"hotel"},"relations":[],"meta":{"timestamp":"2018-06-24T10:30:17Z","version":4,"changeset":60117330,"user":"Gaurav Thapa","uid":4212590}},"geometry":{"type":"Point","coordinates":[83.9573425,28.2119246]}},{"type":"Feature","id":"node/5502481023","properties":{"type":"node","id":5502481023,"tags":{"name":"Sanctuary Lodge Pokhara","name:en":"Sanctuary Lodge Pokhara","phone":"061-462407","tourism":"hotel"},"relations":[],"meta":{"timestamp":"2018-06-24T11:48:35Z","version":3,"changeset":60118880,"user":"Gaurav Thapa","uid":4212590}},"geometry":{"type":"Point","coordinates":[83.9588445,28.2126336]}},{"type":"Feature","id":"node/5502481024","properties":{"type":"node","id":5502481024,"tags":{"name":"Hotel Khukuri","name:en":"Hotel Khukuri","phone":"061-462110","tourism":"hotel"},"relations":[],"meta":{"timestamp":"2018-06-24T11:49:13Z","version":3,"changeset":60118894,"user":"Gaurav Thapa","uid":4212590}},"geometry":{"type":"Point","coordinates":[83.957836,28.2128605]}},{"type":"Feature","id":"node/5502481685","properties":{"type":"node","id":5502481685,"tags":{"name":"Hotel Peninsula","name:en":"Hotel Peninsula","phone":"061-465603","tourism":"hotel","website":"peninsulanepal.com"},"relations":[],"meta":{"timestamp":"2018-06-24T11:49:44Z","version":3,"changeset":60118903,"user":"Gaurav Thapa","uid":4212590}},"geometry":{"type":"Point","coordinates":[83.9586809,28.2122271]}},{"type":"Feature","id":"node/5504594182","properties":{"type":"node","id":5504594182,"tags":{"addr:city":"Hallanchowk,lakeside lakeside 6, Pokhara 33700","name":"Hotel Marigold","name:en":"Hotel Marigold","phone":"061-465549","tourism":"hotel"},"relations":[],"meta":{"timestamp":"2018-06-24T11:50:19Z","version":4,"changeset":60118918,"user":"Gaurav Thapa","uid":4212590}},"geometry":{"type":"Point","coordinates":[83.9577556,28.2137965]}},{"type":"Feature","id":"node/5504672551","properties":{"type":"node","id":5504672551,"tags":{"name":"Hotel Peace Pokhara","name:en":"Hotel Peace Pokhara","phone":"+977-9846022500","tourism":"hotel"},"relations":[],"meta":{"timestamp":"2018-06-24T10:31:27Z","version":5,"changeset":60117356,"user":"Gaurav Thapa","uid":4212590}},"geometry":{"type":"Point","coordinates":[83.9611982,28.2128629]}},{"type":"Feature","id":"node/5504672553","properties":{"type":"node","id":5504672553,"tags":{"name":"Fewa Resort","name:en":"Fewa Resort","phone":"061-467066","tourism":"hotel"},"relations":[],"meta":{"timestamp":"2018-06-26T05:34:44Z","version":5,"changeset":60168354,"user":"Gaurav Thapa","uid":4212590}},"geometry":{"type":"Point","coordinates":[83.9608589,28.2129563]}},{"type":"Feature","id":"node/5504979846","properties":{"type":"node","id":5504979846,"tags":{"name":"Three Jewels Boutique Hotel","name:en":"Three Jewels Boutique Hotel","phone":"982-3275025","tourism":"hotel"},"relations":[],"meta":{"timestamp":"2018-06-24T11:51:33Z","version":3,"changeset":60118955,"user":"Gaurav Thapa","uid":4212590}},"geometry":{"type":"Point","coordinates":[83.9608186,28.2128818]}},{"type":"Feature","id":"node/5505084144","properties":{"type":"node","id":5505084144,"tags":{"name":"Hotel Surya","name:en":"Hotel Surya","phone":"061-461642","tourism":"hotel"},"relations":[],"meta":{"timestamp":"2018-06-24T11:51:56Z","version":3,"changeset":60118962,"user":"Gaurav Thapa","uid":4212590}},"geometry":{"type":"Point","coordinates":[83.9627016,28.2121704]}},{"type":"Feature","id":"node/5505084145","properties":{"type":"node","id":5505084145,"tags":{"name":"Hotel Evy Inn","name:en":"Hotel Evy Inn","phone":"980-6715566","tourism":"hotel"},"relations":[],"meta":{"timestamp":"2018-06-24T11:52:27Z","version":3,"changeset":60118971,"user":"Gaurav Thapa","uid":4212590}},"geometry":{"type":"Point","coordinates":[83.962369,28.2123075]}},{"type":"Feature","id":"node/5505084146","properties":{"type":"node","id":5505084146,"tags":{"name":"Hotel Planet","name:en":"Hotel Planet","tourism":"hotel"},"relations":[],"meta":{"timestamp":"2018-06-24T11:53:16Z","version":2,"changeset":60118994,"user":"Gaurav Thapa","uid":4212590}},"geometry":{"type":"Point","coordinates":[83.9622322,28.2123807]}},{"type":"Feature","id":"node/5505084151","properties":{"type":"node","id":5505084151,"tags":{"name":"Hotel Rudrakshya","name:en":"Hotel Rudrakshya","phone":"061-466506","tourism":"hotel","website":"hotelrudrakshya.com"},"relations":[],"meta":{"timestamp":"2018-06-24T11:54:04Z","version":3,"changeset":60119011,"user":"Gaurav Thapa","uid":4212590}},"geometry":{"type":"Point","coordinates":[83.9620417,28.2124635]}},{"type":"Feature","id":"node/5507669685","properties":{"type":"node","id":5507669685,"tags":{"addr:city":"mansawar rd, Subhakamana Path, Pokhara 33700","name":"Hotel Blue Berry Nepal","name:en":"Hotel BlueBerry Nepal Pvt. Ltd.","phone":"061-462414","tourism":"hotel"},"relations":[],"meta":{"timestamp":"2018-06-24T11:14:10Z","version":4,"changeset":60118175,"user":"Gaurav Thapa","uid":4212590}},"geometry":{"type":"Point","coordinates":[83.964496,28.2106211]}},{"type":"Feature","id":"node/5507669687","properties":{"type":"node","id":5507669687,"tags":{"name":"Hotel Public Choice","name:en":"Hotel Public Choice Pokhara","phone":"061-461805","tourism":"hotel","website":"hotelpublicchoice.com.np"},"relations":[],"meta":{"timestamp":"2018-06-24T11:13:34Z","version":4,"changeset":60118167,"user":"Gaurav Thapa","uid":4212590}},"geometry":{"type":"Point","coordinates":[83.9635196,28.2111883]}},{"type":"Feature","id":"node/5507832250","properties":{"type":"node","id":5507832250,"tags":{"name":"Pokhara Village Resort","name:en":"Pokhara Village Resort","phone":"061-462427","tourism":"hotel","website":"http://www.pokharavillage.com/"},"relations":[],"meta":{"timestamp":"2018-06-24T11:12:24Z","version":3,"changeset":60118151,"user":"Gaurav Thapa","uid":4212590}},"geometry":{"type":"Point","coordinates":[83.9586461,28.2149405]}},{"type":"Feature","id":"node/5507832257","properties":{"type":"node","id":5507832257,"tags":{"name":"Tika Resort","tourism":"hotel","website":"teekaresort.com"},"relations":[],"meta":{"timestamp":"2018-04-12T04:42:31Z","version":2,"changeset":58023667,"user":"Manoj Thapa","uid":781054}},"geometry":{"type":"Point","coordinates":[83.9581954,28.2144678]}},{"type":"Feature","id":"node/5510557945","properties":{"type":"node","id":5510557945,"tags":{"name":"Hotel Stay Pokhara","phone":"061-465146","tourism":"hotel","website":"staypokhara.com"},"relations":[],"meta":{"timestamp":"2018-06-24T10:33:31Z","version":3,"changeset":60117394,"user":"Gaurav Thapa","uid":4212590}},"geometry":{"type":"Point","coordinates":[83.9587855,28.216108]}},{"type":"Feature","id":"node/5514526439","properties":{"type":"node","id":5514526439,"tags":{"name":"Hotel Taj Pokhara","phone":"061-466036","tourism":"hotel"},"relations":[],"meta":{"timestamp":"2018-06-24T10:34:01Z","version":3,"changeset":60117406,"user":"Gaurav Thapa","uid":4212590}},"geometry":{"type":"Point","coordinates":[83.9603546,28.2157582]}},{"type":"Feature","id":"node/5514526440","properties":{"type":"node","id":5514526440,"tags":{"amenity":"resort","name":"Tuki Resort","name:en":"Tuki Resort","phone":"+977-9851123394","tourism":"hotel","website":"tukiresort.com"},"relations":[],"meta":{"timestamp":"2018-06-24T10:34:40Z","version":4,"changeset":60117423,"user":"Gaurav Thapa","uid":4212590}},"geometry":{"type":"Point","coordinates":[83.959955,28.2155337]}},{"type":"Feature","id":"node/5514526441","properties":{"type":"node","id":5514526441,"tags":{"name":"Hotel Kailash","name:en":"Hotel Kailash","opening_hours":"24/7","phone":"984-6028801","tourism":"hotel"},"relations":[],"meta":{"timestamp":"2018-06-24T10:35:09Z","version":3,"changeset":60117433,"user":"Gaurav Thapa","uid":4212590}},"geometry":{"type":"Point","coordinates":[83.9600328,28.2156637]}},{"type":"Feature","id":"node/5519740074","properties":{"type":"node","id":5519740074,"tags":{"name":"Hotel Pokhara Blue Lake","name:en":"Hotel Pokhara Blue Lake","phone":"061-467400","tourism":"hotel"},"relations":[],"meta":{"timestamp":"2018-06-24T10:35:44Z","version":3,"changeset":60117448,"user":"Gaurav Thapa","uid":4212590}},"geometry":{"type":"Point","coordinates":[83.9614114,28.2121373]}},{"type":"Feature","id":"node/5519825927","properties":{"type":"node","id":5519825927,"tags":{"contact:facebook":"sonamhomestay","name":"Souvenir Apartment Hotel","name:en":"Sonam Homestay","note":"Souvenir apartment hotel","phone":"061-463305","tourism":"hotel"},"relations":[],"meta":{"timestamp":"2018-06-21T05:05:05Z","version":6,"changeset":60029819,"user":"Gaurav Thapa","uid":4212590}},"geometry":{"type":"Point","coordinates":[83.9657244,28.2094664]}},{"type":"Feature","id":"node/5519825928","properties":{"type":"node","id":5519825928,"tags":{"beds":"25","name":"Deeps Apartment","name:en":"Deeps Apartment","phone":"061-467235","tourism":"hotel"},"relations":[],"meta":{"timestamp":"2018-06-21T05:05:05Z","version":3,"changeset":60029819,"user":"Gaurav Thapa","uid":4212590}},"geometry":{"type":"Point","coordinates":[83.9656171,28.2086368]}},{"type":"Feature","id":"node/5520022750","properties":{"type":"node","id":5520022750,"tags":{"name":"Gantavya Resort & Spa","name:en":"Gantavya Resort & Spa","phone":"061-460319","tourism":"hotel","website":"gantavyaresort.business.site"},"relations":[],"meta":{"timestamp":"2018-06-24T10:37:30Z","version":3,"changeset":60117485,"user":"Gaurav Thapa","uid":4212590}},"geometry":{"type":"Point","coordinates":[83.9577582,28.2172082]}},{"type":"Feature","id":"node/5520151315","properties":{"type":"node","id":5520151315,"tags":{"name":"Visitor's Inn","name:en":"Visitor's Inn","phone":"981-4192408","tourism":"hotel"},"relations":[],"meta":{"timestamp":"2018-06-24T10:41:09Z","version":3,"changeset":60117551,"user":"Gaurav Thapa","uid":4212590}},"geometry":{"type":"Point","coordinates":[83.9587077,28.2182009]}},{"type":"Feature","id":"node/5520239930","properties":{"type":"node","id":5520239930,"tags":{"name":"The Lake House","name:en":"The Lake House","phone":"061-464673","tourism":"hotel","website":"thelakehouse-nepal.com"},"relations":[],"meta":{"timestamp":"2018-06-24T10:01:38Z","version":4,"changeset":60116799,"user":"Gaurav Thapa","uid":4212590}},"geometry":{"type":"Point","coordinates":[83.9586675,28.2185778]}},{"type":"Feature","id":"node/5520584153","properties":{"type":"node","id":5520584153,"tags":{"addr:housenumber":"61.3","addr:street":"lakeside gairikhet","name":"Hotel Lakeside","name:ko":"호텔 레이크사이드","opening_hours":"24/7","phone":"9856010987","tourism":"hotel"},"relations":[],"meta":{"timestamp":"2018-04-11T05:20:54Z","version":2,"changeset":57992032,"user":"Manoj Thapa","uid":781054}},"geometry":{"type":"Point","coordinates":[83.9684899,28.2077552]}},{"type":"Feature","id":"node/5521528091","properties":{"type":"node","id":5521528091,"tags":{"name":"Hotel Him Sagar","source":"2cpokhara","tourism":"hotel"},"relations":[],"meta":{"timestamp":"2018-04-02T03:26:22Z","version":1,"changeset":57727331,"user":"Active Asmita","uid":7644107}},"geometry":{"type":"Point","coordinates":[83.9863497,28.2110586]}},{"type":"Feature","id":"node/5525019668","properties":{"type":"node","id":5525019668,"tags":{"name":"Syangja Hotel","name:ne":"स्याङ्जा होटल","tourism":"hotel"},"relations":[],"meta":{"timestamp":"2018-07-15T05:13:58Z","version":3,"changeset":60724870,"user":"Bhawak","uid":4923175}},"geometry":{"type":"Point","coordinates":[83.9978593,28.2346639]}},{"type":"Feature","id":"node/5537488002","properties":{"type":"node","id":5537488002,"tags":{"beds":"20","contact:email":"info@blueplanetlodge.com","name":"Blue Planet Lodge","name:ne":"ब्लु प्लानेट लज","operator":"Ram & Sabine","phone":"61-465706,461472,9856035706","tourism":"hotel","website":"www.blueplanettrek.com"},"relations":[],"meta":{"timestamp":"2018-06-07T10:18:40Z","version":2,"changeset":59632034,"user":"Ro Sun","uid":3112087}},"geometry":{"type":"Point","coordinates":[83.9602353,28.2077315]}},{"type":"Feature","id":"node/5541925025","properties":{"type":"node","id":5541925025,"tags":{"name":"Hotel Kantipur","name:en":"Hotel Kantipur","phone":"061-460286","stars":"2","tourism":"hotel","website":"hotelkantipur.com"},"relations":[],"meta":{"timestamp":"2018-06-25T04:54:04Z","version":4,"changeset":60135001,"user":"Gaurav Thapa","uid":4212590}},"geometry":{"type":"Point","coordinates":[83.967185,28.2022032]}},{"type":"Feature","id":"node/5541925026","properties":{"type":"node","id":5541925026,"tags":{"addr:city":"Phirkhe Side Path , Lakeside, House Number 27, Pokhara","name":"Hotel Ice View","name:en":"Hotel Ice View","phone":"980-3925932","tourism":"hotel"},"relations":[],"meta":{"timestamp":"2018-06-24T10:42:06Z","version":3,"changeset":60117567,"user":"Gaurav Thapa","uid":4212590}},"geometry":{"type":"Point","coordinates":[83.9680433,28.2027036]}},{"type":"Feature","id":"node/5541925027","properties":{"type":"node","id":5541925027,"tags":{"name":"Hotel Snow Peak","name:en":"hotel snow peak","tourism":"hotel"},"relations":[],"meta":{"timestamp":"2018-06-24T10:42:47Z","version":2,"changeset":60117581,"user":"Gaurav Thapa","uid":4212590}},"geometry":{"type":"Point","coordinates":[83.9678832,28.2035327]}},{"type":"Feature","id":"node/5541925028","properties":{"type":"node","id":5541925028,"tags":{"name":"Hotel Peace View","name:en":"Hotel Peace View","phone":"980-3925932","tourism":"hotel","website":"hotelpeaceview.business.site"},"relations":[],"meta":{"timestamp":"2018-06-24T10:43:51Z","version":3,"changeset":60117598,"user":"Gaurav Thapa","uid":4212590}},"geometry":{"type":"Point","coordinates":[83.9680367,28.2032694]}},{"type":"Feature","id":"node/5543120561","properties":{"type":"node","id":5543120561,"tags":{"name":"Souvenir Apartment Hotel","tourism":"hotel"},"relations":[],"meta":{"timestamp":"2018-06-21T07:05:25Z","version":3,"changeset":60032877,"user":"Gaurav Thapa","uid":4212590}},"geometry":{"type":"Point","coordinates":[83.9611357,28.2148589]}},{"type":"Feature","id":"node/5543120562","properties":{"type":"node","id":5543120562,"tags":{"name":"Hotel Cross Road Bar","tourism":"hotel"},"relations":[],"meta":{"timestamp":"2018-06-22T09:13:44Z","version":3,"changeset":60069170,"user":"Gaurav Thapa","uid":4212590}},"geometry":{"type":"Point","coordinates":[83.9619395,28.2148589]}},{"type":"Feature","id":"node/5543180997","properties":{"type":"node","id":5543180997,"tags":{"name":"Dhawalagiri Guest House & Khaja Ghar","source":"2cpokhara","tourism":"hotel"},"relations":[],"meta":{"timestamp":"2018-04-10T15:24:43Z","version":1,"changeset":57976594,"user":"Active Asmita","uid":7644107}},"geometry":{"type":"Point","coordinates":[83.9863023,28.2107726]}},{"type":"Feature","id":"node/5543181001","properties":{"type":"node","id":5543181001,"tags":{"name":"New Pokhara Bisram Hotel","source":"2cpokhara","tourism":"hotel"},"relations":[],"meta":{"timestamp":"2018-04-10T15:24:44Z","version":1,"changeset":57976594,"user":"Active Asmita","uid":7644107}},"geometry":{"type":"Point","coordinates":[83.9861168,28.2104932]}},{"type":"Feature","id":"node/5543181003","properties":{"type":"node","id":5543181003,"tags":{"name":"Joshi Hotel & Restaurant","source":"2cpokhara","tourism":"hotel"},"relations":[],"meta":{"timestamp":"2018-04-10T15:24:44Z","version":1,"changeset":57976594,"user":"Active Asmita","uid":7644107}},"geometry":{"type":"Point","coordinates":[83.986095,28.2104807]}},{"type":"Feature","id":"node/5543181007","properties":{"type":"node","id":5543181007,"tags":{"name":"Hotel Gorkha Homes","phone":"061-521826, 9846070538","source":"2cpokhara","tourism":"hotel"},"relations":[],"meta":{"timestamp":"2018-06-07T10:18:40Z","version":2,"changeset":59632034,"user":"Ro Sun","uid":3112087}},"geometry":{"type":"Point","coordinates":[83.9858849,28.2102339]}},{"type":"Feature","id":"node/5543181008","properties":{"type":"node","id":5543181008,"tags":{"name":"Hotel Himal Darsan","phone":"061-521139, 9856048289","source":"2cpokhara","tourism":"hotel"},"relations":[],"meta":{"timestamp":"2018-06-07T10:18:40Z","version":2,"changeset":59632034,"user":"Ro Sun","uid":3112087}},"geometry":{"type":"Point","coordinates":[83.9857997,28.2101688]}},{"type":"Feature","id":"node/5543181011","properties":{"type":"node","id":5543181011,"tags":{"name":"Piyush Hotel & Guest House","phone":"9856035318, 9825172984","source":"2cpokhara","tourism":"hotel"},"relations":[],"meta":{"timestamp":"2018-06-07T10:18:41Z","version":2,"changeset":59632034,"user":"Ro Sun","uid":3112087}},"geometry":{"type":"Point","coordinates":[83.9856246,28.209982]}},{"type":"Feature","id":"node/5543309644","properties":{"type":"node","id":5543309644,"tags":{"name":"Shree Krishna Vojanalaya & Guest House","phone":"061-5232888","source":"2cpokhara","tourism":"hotel"},"relations":[],"meta":{"timestamp":"2018-06-07T10:18:41Z","version":2,"changeset":59632034,"user":"Ro Sun","uid":3112087}},"geometry":{"type":"Point","coordinates":[83.9914094,28.2220753]}},{"type":"Feature","id":"node/5543309652","properties":{"type":"node","id":5543309652,"tags":{"name":"Hotel New Sangrila","source":"2cpokhara","tourism":"hotel"},"relations":[],"meta":{"timestamp":"2018-04-10T16:32:15Z","version":1,"changeset":57978508,"user":"Active Asmita","uid":7644107}},"geometry":{"type":"Point","coordinates":[83.9912607,28.2224677]}},{"type":"Feature","id":"node/5543309653","properties":{"type":"node","id":5543309653,"tags":{"name":"Thakali Hotel & Restaurant","source":"2cpokhara","tourism":"hotel"},"relations":[],"meta":{"timestamp":"2018-04-10T16:32:15Z","version":1,"changeset":57978508,"user":"Active Asmita","uid":7644107}},"geometry":{"type":"Point","coordinates":[83.9912657,28.2225291]}},{"type":"Feature","id":"node/5544172876","properties":{"type":"node","id":5544172876,"tags":{"name":"Hotel Sunrise & Thakali Kitchen","source":"2cpokhara","tourism":"hotel"},"relations":[],"meta":{"timestamp":"2018-04-11T03:16:10Z","version":1,"changeset":57990378,"user":"Active Asmita","uid":7644107}},"geometry":{"type":"Point","coordinates":[83.9912061,28.2209848]}},{"type":"Feature","id":"node/5544172878","properties":{"type":"node","id":5544172878,"tags":{"name":"Hotel Om Shanta","source":"2cpokhara","tourism":"hotel"},"relations":[],"meta":{"timestamp":"2018-04-11T03:16:10Z","version":1,"changeset":57990378,"user":"Active Asmita","uid":7644107}},"geometry":{"type":"Point","coordinates":[83.991169,28.2214157]}},{"type":"Feature","id":"node/5544172882","properties":{"type":"node","id":5544172882,"tags":{"name":"New Chintang Devi Guest House","source":"2cpokhara","tourism":"hotel"},"relations":[],"meta":{"timestamp":"2018-04-11T03:16:10Z","version":1,"changeset":57990378,"user":"Active Asmita","uid":7644107}},"geometry":{"type":"Point","coordinates":[83.9911281,28.2218452]}},{"type":"Feature","id":"node/5544259288","properties":{"type":"node","id":5544259288,"tags":{"name":"Hotel Syangja Tirupati & Bhanchha Ghar","source":"2cpokhara","tourism":"hotel"},"relations":[],"meta":{"timestamp":"2018-06-15T05:33:32Z","version":2,"changeset":59864911,"user":"marek kleciak","uid":338611}},"geometry":{"type":"Point","coordinates":[83.9851512,28.2087283]}},{"type":"Feature","id":"node/5544259289","properties":{"type":"node","id":5544259289,"tags":{"name":"Hotel Nilgiri","source":"2cpokhara","tourism":"hotel"},"relations":[],"meta":{"timestamp":"2018-04-11T04:29:30Z","version":1,"changeset":57991353,"user":"Active Asmita","uid":7644107}},"geometry":{"type":"Point","coordinates":[83.9852968,28.2089555]}},{"type":"Feature","id":"node/5544259290","properties":{"type":"node","id":5544259290,"tags":{"name":"Hotel Sherchan","source":"2cpokhara","tourism":"hotel"},"relations":[],"meta":{"timestamp":"2018-06-14T10:46:39Z","version":3,"changeset":59841007,"user":"marek kleciak","uid":338611}},"geometry":{"type":"Point","coordinates":[83.9854093,28.209066]}},{"type":"Feature","id":"node/5544259296","properties":{"type":"node","id":5544259296,"tags":{"name":"Thakali Guest House","source":"2cpokhara","tourism":"hotel"},"relations":[],"meta":{"timestamp":"2018-06-12T07:11:57Z","version":2,"changeset":59765059,"user":"marek kleciak","uid":338611}},"geometry":{"type":"Point","coordinates":[83.9861073,28.2090499]}},{"type":"Feature","id":"node/5572382708","properties":{"type":"node","id":5572382708,"tags":{"name":"Anand Buisness Hotel","phone":"+977-61-255236","source":"2c peset","stars":"2","tourism":"hotel"},"relations":[],"meta":{"timestamp":"2018-06-25T04:24:08Z","version":3,"changeset":60134564,"user":"Gaurav Thapa","uid":4212590}},"geometry":{"type":"Point","coordinates":[83.9846759,28.2102503]}},{"type":"Feature","id":"node/5576636488","properties":{"type":"node","id":5576636488,"tags":{"name":"Bajeko Sekuwa Party Palace","source":"2c peset","tourism":"hotel"},"relations":[],"meta":{"timestamp":"2018-04-24T16:35:20Z","version":1,"changeset":58379954,"user":"sadeepta dh","uid":4851333}},"geometry":{"type":"Point","coordinates":[83.9827983,28.2074549]}},{"type":"Feature","id":"node/5578058624","properties":{"type":"node","id":5578058624,"tags":{"name":"Hotel Deep Sagar","phone":"061-526182","source":"2c peset","tourism":"hotel"},"relations":[],"meta":{"timestamp":"2018-06-07T10:18:41Z","version":2,"changeset":59632034,"user":"Ro Sun","uid":3112087}},"geometry":{"type":"Point","coordinates":[83.9856885,28.2151265]}},{"type":"Feature","id":"node/5579903391","properties":{"type":"node","id":5579903391,"tags":{"name":"Gurung momo House","tourism":"hotel"},"relations":[],"meta":{"timestamp":"2018-04-26T07:50:04Z","version":1,"changeset":58433851,"user":"reenuka","uid":7644128}},"geometry":{"type":"Point","coordinates":[84.1098383,28.1359444]}},{"type":"Feature","id":"node/5580014968","properties":{"type":"node","id":5580014968,"tags":{"name":"KC Khaja Ghar","tourism":"hotel"},"relations":[],"meta":{"timestamp":"2018-04-26T09:00:14Z","version":1,"changeset":58435950,"user":"reenuka","uid":7644128}},"geometry":{"type":"Point","coordinates":[84.0928102,28.1172143]}},{"type":"Feature","id":"node/5580150210","properties":{"type":"node","id":5580150210,"tags":{"name":"Shuva Yatra Hotel","tourism":"hotel"},"relations":[],"meta":{"timestamp":"2018-04-26T10:11:33Z","version":1,"changeset":58437964,"user":"reenuka","uid":7644128}},"geometry":{"type":"Point","coordinates":[84.0903532,28.1084539]}},{"type":"Feature","id":"node/5581851414","properties":{"type":"node","id":5581851414,"tags":{"contact:phone":"9856037625","internet_access":"yes","name":"Hotel Double Lake","operator":"Private","phone":"9856037625","smoking":"yes","tourism":"hotel","wheelchair":"no"},"relations":[],"meta":{"timestamp":"2018-07-15T08:12:30Z","version":2,"changeset":60726953,"user":"Bhawak","uid":4923175}},"geometry":{"type":"Point","coordinates":[84.1218622,28.1707183]}},{"type":"Feature","id":"node/5581851731","properties":{"type":"node","id":5581851731,"tags":{"internet_access":"yes","name":"Punam Home Stay","phone":"9806727041","rooms":"3","smoking":"yes","tourism":"hotel","wheelchair":"no"},"relations":[],"meta":{"timestamp":"2018-06-04T11:26:51Z","version":2,"changeset":59533706,"user":"Manoj Thapa","uid":781054}},"geometry":{"type":"Point","coordinates":[84.1172722,28.1861555]}},{"type":"Feature","id":"node/5581858122","properties":{"type":"node","id":5581858122,"tags":{"name":"Nisan Guest House","tourism":"hotel"},"relations":[],"meta":{"timestamp":"2018-04-27T06:29:33Z","version":1,"changeset":58465713,"user":"Bijay adhikari","uid":7643850}},"geometry":{"type":"Point","coordinates":[84.0845677,28.1792136]}},{"type":"Feature","id":"node/5581858144","properties":{"type":"node","id":5581858144,"tags":{"name":"Hotel Shirish","phone":"9846035104","tourism":"hotel"},"relations":[],"meta":{"timestamp":"2018-04-27T06:29:34Z","version":1,"changeset":58465713,"user":"Bijay adhikari","uid":7643850}},"geometry":{"type":"Point","coordinates":[84.0900636,28.1699132]}},{"type":"Feature","id":"node/5588187708","properties":{"type":"node","id":5588187708,"tags":{"name":"Tarebhir Gharbas Sewa","source":"2c Preset","tourism":"hotel"},"relations":[],"meta":{"timestamp":"2018-07-15T06:11:01Z","version":3,"changeset":60725378,"user":"Bhawak","uid":4923175}},"geometry":{"type":"Point","coordinates":[83.8770325,28.2192337]}},{"type":"Feature","id":"node/5642887321","properties":{"type":"node","id":5642887321,"tags":{"addr:street":"Lakeside Marga","internet_access":"wlan","name":"Banana Garden","name:en":"Banana Garden","phone":"0097761464901","tourism":"hotel","website":"http://www.bananagardenlodge.com"},"relations":[],"meta":{"timestamp":"2018-06-22T09:25:30Z","version":2,"changeset":60069588,"user":"Gaurav Thapa","uid":4212590}},"geometry":{"type":"Point","coordinates":[83.9582949,28.2208367]}},{"type":"Feature","id":"node/5679932822","properties":{"type":"node","id":5679932822,"tags":{"amenity":"restaurant","name:en":"The lake house","tourism":"hotel"},"relations":[],"meta":{"timestamp":"2018-07-07T10:08:52Z","version":2,"changeset":60485910,"user":"Nilam16","uid":8517352}},"geometry":{"type":"Point","coordinates":[83.9418706,28.2107974]}},{"type":"Feature","id":"node/5698205297","properties":{"type":"node","id":5698205297,"tags":{"beds":"60","contact:email":"tamubishnu321@gmail.com","name":"Hotel Himalayan Star","name:ne":"होटल हिमालयन स्टार","phone":"061-463846","tourism":"hotel","website":"www.hotelhimalayanstar.com"},"relations":[],"meta":{"timestamp":"2018-06-18T04:07:53Z","version":1,"changeset":59928297,"user":"Gaurav Thapa","uid":4212590}},"geometry":{"type":"Point","coordinates":[83.9610065,28.2080875]}},{"type":"Feature","id":"node/5719250685","properties":{"type":"node","id":5719250685,"tags":{"beds":"100","email":"info@hotelcenterlake.com","name":"Hotel Center Lake","name:ne":"होटल सेन्टर लेक","opening_hours":"24/7","phone":"061-463318,466675","tourism":"hotel","website":"www.hotelcenterlake.com"},"relations":[],"meta":{"timestamp":"2018-06-26T05:39:44Z","version":1,"changeset":60168466,"user":"Gaurav Thapa","uid":4212590}},"geometry":{"type":"Point","coordinates":[83.9614969,28.2072359]}},{"type":"Feature","id":"node/5757510121","properties":{"type":"node","id":5757510121,"tags":{"name:en":"The lake house","tourism":"hotel"},"relations":[],"meta":{"timestamp":"2018-07-13T01:58:09Z","version":1,"changeset":60668826,"user":"Nilam16","uid":8517352}},"geometry":{"type":"Point","coordinates":[83.9418734,28.2108059]}}],"createdOn":1532329381491}