{"type":"FeatureCollection","features":[{"type":"Feature","id":"way/404670218","properties":{"type":"way","id":404670218,"tags":{"addr:place":"Rameshwor Marga, Pokhara-17","amenity":"kindergarten","building":"yes","contact:phone":"061-461211","name":"Kids Valley Montessori","operator:type":"private","source":"2cpokhara"},"relations":[],"meta":{"timestamp":"2018-04-12T05:36:38Z","version":4,"changeset":58024344,"user":"Manoj Thapa","uid":781054}},"geometry":{"type":"Point","coordinates":[83.96998095,28.1883932]}},{"type":"Feature","id":"way/410504980","properties":{"type":"way","id":410504980,"tags":{"amenity":"kindergarten","building":"yes","contact:phone":"061-526002","name":"Growing Buds Pre-School","opening_hours":"10:00-16:00","operator":"private","source":"2cpokhara"},"relations":[],"meta":{"timestamp":"2018-05-12T03:21:36Z","version":2,"changeset":58893646,"user":"Abash Paudel","uid":6677482}},"geometry":{"type":"Point","coordinates":[83.99972515,28.226046375]}},{"type":"Feature","id":"way/413541440","properties":{"type":"way","id":413541440,"tags":{"amenity":"kindergarten","building":"yes","contact:phone":"061-534737,9846035744","name":"Balbatika Montessori Pre School","operator:type":"private"},"relations":[],"meta":{"timestamp":"2017-08-31T04:49:40Z","version":2,"changeset":51600012,"user":"Ashish Thapa","uid":4039113}},"geometry":{"type":"Point","coordinates":[83.98314297499999,28.2140626]}},{"type":"Feature","id":"way/413550246","properties":{"type":"way","id":413550246,"tags":{"addr:street":"Jalpa Road","amenity":"kindergarten","building":"yes","contact:phone":"061-551057,9804109427,9806601880,9806790229","email":"mymontessori061@gmail.com","name":"My Montessori Pre School","operator:type":"private"},"relations":[],"meta":{"timestamp":"2017-12-28T08:32:49Z","version":4,"changeset":54976463,"user":"Ro Sun","uid":3112087}},"geometry":{"type":"Point","coordinates":[83.98366979999999,28.21440255]}},{"type":"Feature","id":"way/413562233","properties":{"type":"way","id":413562233,"tags":{"amenity":"kindergarten","building":"yes","contact:phone":"9804180490","name":"Akshyar Montessori","operator:type":"private","student:count":"35"},"relations":[],"meta":{"timestamp":"2018-03-15T04:52:15Z","version":3,"changeset":57198249,"user":"Ro Sun","uid":3112087}},"geometry":{"type":"Point","coordinates":[83.97927885,28.215687324999998]}},{"type":"Feature","id":"way/414766519","properties":{"type":"way","id":414766519,"tags":{"amenity":"kindergarten","building":"yes","name":"Small Heaven Montessori","name:ne":"इस्मल हेवेन मोंटेस्सोरी"},"relations":[],"meta":{"timestamp":"2016-09-25T04:29:56Z","version":3,"changeset":42415639,"user":"ayushupreti22","uid":3911278}},"geometry":{"type":"Point","coordinates":[84.00392827499999,28.212401625]}},{"type":"Feature","id":"way/417144091","properties":{"type":"way","id":417144091,"tags":{"amenity":"kindergarten","building":"yes","name":"Muna Montessori School","phone":"061524955"},"relations":[],"meta":{"timestamp":"2017-08-22T05:34:15Z","version":2,"changeset":51325196,"user":"Ashish Thapa","uid":4039113}},"geometry":{"type":"Point","coordinates":[83.98341078333334,28.23452875]}},{"type":"Feature","id":"way/417186143","properties":{"type":"way","id":417186143,"tags":{"amenity":"kindergarten","building":"yes","name":"Bal Bikas Kendra","operator":"government"},"relations":[],"meta":{"timestamp":"2017-12-25T07:06:42Z","version":3,"changeset":54900824,"user":"Ro Sun","uid":3112087}},"geometry":{"type":"Point","coordinates":[84.02626953333333,28.187842033333336]}},{"type":"Feature","id":"way/417201384","properties":{"type":"way","id":417201384,"tags":{"addr:place":"Simalchaur, Pokhara-8","amenity":"kindergarten","building":"yes","contact:phone":"9856004799","name":"Chhunumunu Kinder Homes"},"relations":[],"meta":{"timestamp":"2017-08-27T06:18:51Z","version":2,"changeset":51473566,"user":"Ashish Thapa","uid":4039113}},"geometry":{"type":"Point","coordinates":[83.97606937500001,28.207967075000003]}},{"type":"Feature","id":"way/417517561","properties":{"type":"way","id":417517561,"tags":{"amenity":"kindergarten","contact:phone":"061-525409","name":"Bihani Montesory","name:ne":"बिहानी मन्टेस्शोरी","opening_hours":"10:00-16:00","operator":"Private","operator:type":"private","source":"DEO, Kaski"},"relations":[],"meta":{"timestamp":"2017-08-17T10:50:40Z","version":5,"changeset":51201158,"user":"mueschel","uid":616774}},"geometry":{"type":"Point","coordinates":[83.97900969999999,28.221443800000007]}},{"type":"Feature","id":"way/419153037","properties":{"type":"way","id":419153037,"tags":{"amenity":"kindergarten","building":"yes","name":"Kalyan tatha surakshya samiti diwa sisu shayar kendra"},"relations":[],"meta":{"timestamp":"2017-11-29T04:30:05Z","version":2,"changeset":54166557,"user":"nishaadhikari","uid":3481073}},"geometry":{"type":"Point","coordinates":[84.01100695000001,28.20758735]}},{"type":"Feature","id":"way/419668366","properties":{"type":"way","id":419668366,"tags":{"addr:place":"Masbar, Pokhara-7","amenity":"kindergarten","building":"yes","contact:phone":"061-463032","name":"Angels Montessori Pre-School"},"relations":[],"meta":{"timestamp":"2017-08-27T06:18:52Z","version":2,"changeset":51473566,"user":"Ashish Thapa","uid":4039113}},"geometry":{"type":"Point","coordinates":[83.97093989999999,28.210234125]}},{"type":"Feature","id":"way/419679359","properties":{"type":"way","id":419679359,"tags":{"amenity":"kindergarten","building":"yes","name":"Himalaya Montessori English Bording school","name:ne":"हिमालयन मोंतेस्सोरी इंग्लिश बोर्डिंग स्कुल"},"relations":[],"meta":{"timestamp":"2016-08-30T11:08:39Z","version":3,"changeset":41799094,"user":"Alisha12","uid":4204463}},"geometry":{"type":"Point","coordinates":[83.9801777,28.190777774999997]}},{"type":"Feature","id":"way/419679379","properties":{"type":"way","id":419679379,"tags":{"addr:place":"Ratopauwa, Pokhara-17","amenity":"kindergarten","building":"yes","name":"Bal Bikas Kendra","operator:type":"government"},"relations":[],"meta":{"timestamp":"2017-08-27T05:57:17Z","version":3,"changeset":51473356,"user":"Ashish Thapa","uid":4039113}},"geometry":{"type":"Point","coordinates":[83.98246187499998,28.191782149999998]}},{"type":"Feature","id":"way/420232801","properties":{"type":"way","id":420232801,"tags":{"amenity":"kindergarten","contact:email":"pkrmkh@gmail.com","contact:phone":"061-442277","name":"Pokhara Montessori Kinder Home","opening_hours":"8:30 AM-5:00 PM","operator":"private","personnel:count":"8","source":"2cpokhara","student:count":"24","website":"www.pokharamontessori.edu.np","wheelchair":"no"},"relations":[],"meta":{"timestamp":"2018-02-25T13:18:10Z","version":2,"changeset":56660853,"user":"Rabin Ojha","uid":6075053}},"geometry":{"type":"Point","coordinates":[83.98645628,28.24932574]}},{"type":"Feature","id":"way/420576838","properties":{"type":"way","id":420576838,"tags":{"addr:city":"Pokhara Lekhanath Municipality","addr:place":"Darbarthok Marga 9","addr:street":"Nayabazar","amenity":"kindergarten","building":"yes","name":"Safe Kids Pre School","phone":"061532762, 9856024146"},"relations":[],"meta":{"timestamp":"2017-08-14T04:42:47Z","version":3,"changeset":51098090,"user":"Ro Sun","uid":3112087}},"geometry":{"type":"Point","coordinates":[83.9887782,28.219287]}},{"type":"Feature","id":"way/420735070","properties":{"type":"way","id":420735070,"tags":{"amenity":"kindergarten","building":"yes","contact:phone":"061 461773, 9806698277","name":"Crystal International Montessori Kinder World"},"relations":[],"meta":{"timestamp":"2018-02-26T14:33:19Z","version":3,"changeset":56692302,"user":"Shrestha Khum","uid":7644104}},"geometry":{"type":"Point","coordinates":[83.96582087499999,28.2080917375]}},{"type":"Feature","id":"way/421048486","properties":{"type":"way","id":421048486,"tags":{"amenity":"kindergarten","building":"yes","contact:phone":"61691060","name":"New Baby Montessori school"},"relations":[],"meta":{"timestamp":"2017-08-22T05:52:29Z","version":2,"changeset":51325494,"user":"Ashish Thapa","uid":4039113}},"geometry":{"type":"Point","coordinates":[83.98932214999999,28.243348675]}},{"type":"Feature","id":"way/421281543","properties":{"type":"way","id":421281543,"tags":{"amenity":"kindergarten","building":"yes","name":"Jasmine Montessori","phone":"61525937"},"relations":[],"meta":{"timestamp":"2017-08-22T05:04:49Z","version":2,"changeset":51324887,"user":"Ashish Thapa","uid":4039113}},"geometry":{"type":"Point","coordinates":[83.996368625,28.225768824999996]}},{"type":"Feature","id":"way/422036371","properties":{"type":"way","id":422036371,"tags":{"addr:city":"Pokhara lekhnath Metropolitan City","addr:place":"Sarangkot","amenity":"kindergarten","building":"yes","contact:phone":"061465706","name":"Child Development Pre-primary Health Care Centre","opening_hours":"Su-Fr 10:00-14:00","operator":"public","operator:type":"government"},"relations":[],"meta":{"timestamp":"2018-04-01T10:00:18Z","version":4,"changeset":57708444,"user":"Ro Sun","uid":3112087}},"geometry":{"type":"Point","coordinates":[83.9504694625,28.241862562500003]}},{"type":"Feature","id":"way/422040090","properties":{"type":"way","id":422040090,"tags":{"amenity":"kindergarten","building":"yes","name":"Bindabasini Child Care"},"relations":[],"meta":{"timestamp":"2018-04-14T08:11:13Z","version":2,"changeset":58083865,"user":"Bijay adhikari","uid":7643850}},"geometry":{"type":"Point","coordinates":[83.98249985000001,28.238559050000003]}},{"type":"Feature","id":"way/424703141","properties":{"type":"way","id":424703141,"tags":{"addr:place":"Ram Ghat, Pokhara-10","addr:street":"Ram Marga","amenity":"kindergarten","building":"yes","building:levels":"1","contact:phone":"061-536045, 061-539171","name":"Metro Playgroup Section","operator:type":"private"},"relations":[],"meta":{"timestamp":"2017-09-05T15:44:38Z","version":2,"changeset":51754665,"user":"Ashish Thapa","uid":4039113}},"geometry":{"type":"Point","coordinates":[83.99885815,28.209144275]}},{"type":"Feature","id":"way/425061327","properties":{"type":"way","id":425061327,"tags":{"amenity":"kindergarten","building":"yes","name":"Emmanuel Montessori","source":"2cpokhara"},"relations":[],"meta":{"timestamp":"2018-05-09T05:06:27Z","version":3,"changeset":58806727,"user":"Abash Paudel","uid":6677482}},"geometry":{"type":"Point","coordinates":[83.99003267500001,28.183418125]}},{"type":"Feature","id":"way/426077698","properties":{"type":"way","id":426077698,"tags":{"amenity":"kindergarten","building":"yes","contact:phone":"061-530739, 9846024752","name":"Pragma Montessori Home","source":"2cpokhara"},"relations":[],"meta":{"timestamp":"2018-03-28T03:36:40Z","version":2,"changeset":57586181,"user":"Active Asmita","uid":7644107}},"geometry":{"type":"Point","coordinates":[83.98926036666667,28.22177261666667]}},{"type":"Feature","id":"way/426089274","properties":{"type":"way","id":426089274,"tags":{"addr:place":"Saurab Marga, Pokhara-10","amenity":"kindergarten","contact:phone":"061-432723","name":"Sakura Montessori And Pre School","operator:type":"private"},"relations":[],"meta":{"timestamp":"2017-08-27T08:20:51Z","version":4,"changeset":51475517,"user":"Ashish Thapa","uid":4039113}},"geometry":{"type":"Point","coordinates":[83.99444742,28.202284099999996]}},{"type":"Feature","id":"way/426556365","properties":{"type":"way","id":426556365,"tags":{"addr:place":"Shiva Magra, Pokhara-10","amenity":"kindergarten","contact:phone":"061-532253, 9846084406","name":"Stuti Trillium Montessori","name:ne":"स्तुति त्रिलियम मन्टेस्वोरी"},"relations":[],"meta":{"timestamp":"2017-09-02T15:49:46Z","version":3,"changeset":51672981,"user":"Ashish Thapa","uid":4039113}},"geometry":{"type":"Point","coordinates":[83.99865531176471,28.21089952352941]}},{"type":"Feature","id":"way/426558851","properties":{"type":"way","id":426558851,"tags":{"addr:place":"Indrachowk, Pokhara-10","amenity":"kindergarten","boundary":"protected_area","contact:phone":"061-430298","name":"Suvatara 3 Angel Montessory School","name:ne":"सुभतारा ३ एन्जल मनटेश्होरी स्कुल","website":"www.3angelsnepal.com"},"relations":[],"meta":{"timestamp":"2017-09-06T07:43:09Z","version":4,"changeset":51772089,"user":"Ashish Thapa","uid":4039113}},"geometry":{"type":"Point","coordinates":[83.99358904666666,28.205634319999998]}},{"type":"Feature","id":"way/426958304","properties":{"type":"way","id":426958304,"tags":{"addr:place":"Kamana Marga, Uttam Tole, Pokhara-15","amenity":"kindergarten","contact:phone":"061-696491","name":"Mount Abora Montessori School","name:ne":"माउट अबोरा मोंटेस्सोरी स्कुल","operator:type":"private"},"relations":[],"meta":{"timestamp":"2017-08-27T08:20:51Z","version":3,"changeset":51475517,"user":"Ashish Thapa","uid":4039113}},"geometry":{"type":"Point","coordinates":[83.99872787,28.2043609]}},{"type":"Feature","id":"way/427361360","properties":{"type":"way","id":427361360,"tags":{"amenity":"kindergarten","contact:phone":"9805894654, 061-431395","name":"Ridgewater Montessori School"},"relations":[],"meta":{"timestamp":"2017-09-06T07:11:18Z","version":4,"changeset":51771478,"user":"Ashish Thapa","uid":4039113}},"geometry":{"type":"Point","coordinates":[84.00106822857141,28.203791742857142]}},{"type":"Feature","id":"way/437239786","properties":{"type":"way","id":437239786,"tags":{"amenity":"kindergarten","name":"Mount Tops Kids Zone","name:ne":"माउन्ट टप्स किड्स जोन"},"relations":[],"meta":{"timestamp":"2018-05-24T14:35:16Z","version":3,"changeset":59243712,"user":"srvbhattarai","uid":5084910}},"geometry":{"type":"Point","coordinates":[84.03150877499999,28.21844045]}},{"type":"Feature","id":"way/437938491","properties":{"type":"way","id":437938491,"tags":{"amenity":"kindergarten","contact:phone":"61533083","email":"Deepu.bhari@gmail.com","name":"Little Leareners Boarding School And Montessori","name:ne":"लिटास लर्नर्स बोडिंग स्कुल एंड मोंटेसोरी","operator:type":"private","personnel:count":"4","source":"DEO, Kaski","student:count":"42","website":"Www.littlelearners.edu.np"},"relations":[],"meta":{"timestamp":"2017-08-22T05:38:47Z","version":6,"changeset":51325267,"user":"Ashish Thapa","uid":4039113}},"geometry":{"type":"Point","coordinates":[83.980439675,28.233846775]}},{"type":"Feature","id":"way/437938492","properties":{"type":"way","id":437938492,"tags":{"amenity":"kindergarten","contact:phone":"61539967","email":"Saintvalleym@gmail.com","name":"Saint Valley Pre School","name:ne":"सेन्ट भ्याली मोंटेसोरी","operator:type":"private","source":"DEO, Kaski","student:count":"42"},"relations":[],"meta":{"timestamp":"2017-08-22T05:38:47Z","version":6,"changeset":51325267,"user":"Ashish Thapa","uid":4039113}},"geometry":{"type":"Point","coordinates":[83.980839025,28.235966825000002]}},{"type":"Feature","id":"way/439647480","properties":{"type":"way","id":439647480,"tags":{"addr:place":"Birauta, Pokhara-17","amenity":"kindergarten","contact:phone":"9846034944, 9846036219, 9856036219","name":"Heavenly Garden Montessori","name:ne":"ह्याबेन्ली गार्डेन मन्टेस्वोरी","operator:type":"private","start_date":"2069"},"relations":[],"meta":{"timestamp":"2018-04-12T05:36:40Z","version":6,"changeset":58024344,"user":"Manoj Thapa","uid":781054}},"geometry":{"type":"Point","coordinates":[83.965637025,28.1901458]}},{"type":"Feature","id":"way/439838221","properties":{"type":"way","id":439838221,"tags":{"amenity":"kindergarten","name":"Prime Montessori School","name:ne":"प्राइम मन्टेस्वोरी स्कुल","phone":"061-525033"},"relations":[],"meta":{"timestamp":"2017-08-21T10:56:25Z","version":3,"changeset":51300217,"user":"Ashish Thapa","uid":4039113}},"geometry":{"type":"Point","coordinates":[83.99749482500002,28.231408475000002]}},{"type":"Feature","id":"way/439841837","properties":{"type":"way","id":439841837,"tags":{"addr:place":"Birauta, Pokhara-17","amenity":"kindergarten","contact:phone":"9846034944, 9846036219, 9856036219","name":"Heavenly Garden Montessori","name:ne":"ह्याबेन्ली गार्डेन मन्टेस्वोरी","opening_hours":"Su- Fr 9:00-16:00","operator:type":"private","personnel:count":"8","source":"2cpokhara","start_date":"2069","student:count":"45"},"relations":[],"meta":{"timestamp":"2018-04-12T05:36:41Z","version":5,"changeset":58024344,"user":"Manoj Thapa","uid":781054}},"geometry":{"type":"Point","coordinates":[83.965267425,28.190202275]}},{"type":"Feature","id":"way/440013361","properties":{"type":"way","id":440013361,"tags":{"amenity":"kindergarten","name":"Holy Kindergarden School","name:ne":"होलि किन्डरगार्डेन स्कुल"},"relations":[],"meta":{"timestamp":"2016-08-31T11:37:03Z","version":1,"changeset":41824547,"user":"Manoj Thapa","uid":781054}},"geometry":{"type":"Point","coordinates":[83.990623675,28.220660275]}},{"type":"Feature","id":"way/440168128","properties":{"type":"way","id":440168128,"tags":{"amenity":"kindergarten","name":"Demo Children Homes","name:ne":"दि मो चिल्द्रेन होम्स"},"relations":[],"meta":{"timestamp":"2016-09-15T04:22:59Z","version":2,"changeset":42163748,"user":"Parassrest","uid":3569249}},"geometry":{"type":"Point","coordinates":[83.98956229999999,28.200005375]}},{"type":"Feature","id":"way/441580645","properties":{"type":"way","id":441580645,"tags":{"ESTD":"2065","amenity":"kindergarten","contact:phone":"9846112347","name":"Shree Montessori Preprimary Child Care Centre","name:ne":"मन्टेस्वोरी प्रिप्राइमरी चाइल्ड केएर सेन्टर"},"relations":[],"meta":{"timestamp":"2017-09-10T09:03:20Z","version":2,"changeset":51901646,"user":"Ashish Thapa","uid":4039113}},"geometry":{"type":"Point","coordinates":[83.98440566666666,28.227415950000005]}},{"type":"Feature","id":"way/443584035","properties":{"type":"way","id":443584035,"tags":{"addr:housenumber":"25","addr:street":"Janapriya Marga","amenity":"kindergarten","building":"yes","contact:phone":"061 535493","name":"Malepatan Montessori"},"relations":[],"meta":{"timestamp":"2017-09-11T06:10:09Z","version":2,"changeset":51927888,"user":"Ashish Thapa","uid":4039113}},"geometry":{"type":"Point","coordinates":[83.97793505,28.21543385]}},{"type":"Feature","id":"way/456554011","properties":{"type":"way","id":456554011,"tags":{"addr:city":"Pokhara Lekhanath Metropolitan City","addr:street":"Machhapuchchre Marga","amenity":"kindergarten","building":"yes","name":"Little Buds Monteessori","opening_hours":"10:00-16:00","operator:type":"private"},"relations":[],"meta":{"timestamp":"2018-04-23T06:29:00Z","version":5,"changeset":58328379,"user":"Manoj Thapa","uid":781054}},"geometry":{"type":"Point","coordinates":[83.97416065,28.202510125000003]}},{"type":"Feature","id":"way/514423173","properties":{"type":"way","id":514423173,"tags":{"addr:city":"Pokhara Lekhnath Metropolitian City","addr:place":"Purandhara","addr:street":"Ranipauwa","amenity":"kindergarten","contact:phone":"061-528788","email":"bmmontessori70@gmail.com","name":"B.M Montessori Elementary School","operator:type":"private"},"relations":[],"meta":{"timestamp":"2017-08-30T04:58:41Z","version":2,"changeset":51562222,"user":"Ashish Thapa","uid":4039113}},"geometry":{"type":"Point","coordinates":[84.00013535,28.219286225]}},{"type":"Feature","id":"way/515157238","properties":{"type":"way","id":515157238,"tags":{"addr:place":"Ranipauwa, Tulasi Marga, Pokhara-11","amenity":"kindergarten","contact:phone":"061-550290","name":"Early Childhood Academy","opening_hours":"10:00-15:00","operator:type":"private","source":"2cpokhara"},"relations":[],"meta":{"timestamp":"2018-05-15T02:28:35Z","version":3,"changeset":58969266,"user":"Abash Paudel","uid":6677482}},"geometry":{"type":"Point","coordinates":[83.99230275000001,28.222230766666666]}},{"type":"Feature","id":"way/515160821","properties":{"type":"way","id":515160821,"tags":{"addr:city":"Pokhara Lekhnath Metropolitan City","addr:street":"Simalchaur","amenity":"kindergarten","building":"yes","contact:phone":"061535948","name":"Euro Kids Pre-School","opening_hours":"Su-Fr 10:00-15:00","operator":"Private"},"relations":[],"meta":{"timestamp":"2017-08-13T08:56:23Z","version":1,"changeset":51075696,"user":"Sanjeev brl","uid":6447910}},"geometry":{"type":"Point","coordinates":[83.98399395,28.218425399999997]}},{"type":"Feature","id":"way/515161011","properties":{"type":"way","id":515161011,"tags":{"addr:street":"Ram Krishna Tole","amenity":"kindergarten","contact:phone":"9846112347","email":"Littlestarspkr@gmail.com","name":"Little Stars Pre-School Academy","opening_hours":"Mo-Fr 9:30-18:00","phone":"61533372"},"relations":[],"meta":{"timestamp":"2017-08-22T05:17:56Z","version":2,"changeset":51325007,"user":"Ashish Thapa","uid":4039113}},"geometry":{"type":"Point","coordinates":[83.98364607142857,28.22775945714286]}},{"type":"Feature","id":"way/515165137","properties":{"type":"way","id":515165137,"tags":{"addr:city":"Pokhara Lekhnath Metropolitan City","addr:place":"Bagaletole 8","addr:street":"Siddartha Chowk","amenity":"kindergarten","contact:phone":"061537879","name":"Pokhara Montessori Kinderhome","operator":"Private"},"relations":[],"meta":{"timestamp":"2017-08-13T09:14:42Z","version":1,"changeset":51076038,"user":"Sanjeev brl","uid":6447910}},"geometry":{"type":"Point","coordinates":[83.9836818,28.2230851]}},{"type":"Feature","id":"way/517505637","properties":{"type":"way","id":517505637,"tags":{"amenity":"kindergarten","building":"yes","contact:phone":"61528624","name":"Spiral Galaxy Academy"},"relations":[],"meta":{"timestamp":"2017-08-22T05:52:29Z","version":1,"changeset":51325494,"user":"Ashish Thapa","uid":4039113}},"geometry":{"type":"Point","coordinates":[83.9843319,28.244134675]}},{"type":"Feature","id":"way/517506694","properties":{"type":"way","id":517506694,"tags":{"amenity":"kindergarten","contact:phone":"061442150","email":"suchi_jiwan00@yahoo.com","name":"Nawa Jeewan Montessory."},"relations":[],"meta":{"timestamp":"2017-08-22T05:59:59Z","version":1,"changeset":51325618,"user":"Ashish Thapa","uid":4039113}},"geometry":{"type":"Point","coordinates":[83.97072612857143,28.25959525714286]}},{"type":"Feature","id":"way/518969448","properties":{"type":"way","id":518969448,"tags":{"addr:place":"Rameshwor Marga, Pokhara-17","amenity":"kindergarten","contact:phone":"061-621260","name":"Bluesky Pre-School And Child Care","operator:type":"private"},"relations":[],"meta":{"timestamp":"2018-04-12T05:36:41Z","version":3,"changeset":58024344,"user":"Manoj Thapa","uid":781054}},"geometry":{"type":"Point","coordinates":[83.97085768333334,28.188337316666665]}},{"type":"Feature","id":"way/518970836","properties":{"type":"way","id":518970836,"tags":{"addr:place":"Birauta, Pokhara-17","amenity":"kindergarten","building":"yes","contact:phone":"061-466422","name":"Holyland Montessori Pre-School","operator:type":"private"},"relations":[],"meta":{"timestamp":"2018-04-12T05:15:55Z","version":3,"changeset":58024077,"user":"Manoj Thapa","uid":781054}},"geometry":{"type":"Point","coordinates":[83.9724599,28.191897824999998]}},{"type":"Feature","id":"way/518998643","properties":{"type":"way","id":518998643,"tags":{"addr:place":"Swagat Nagar, Chauthe, Pokhara-14","amenity":"kindergarten","contact:phone":"061-534412","name":"Kids Home Montessori"},"relations":[],"meta":{"timestamp":"2017-08-27T08:05:32Z","version":1,"changeset":51475201,"user":"Ashish Thapa","uid":4039113}},"geometry":{"type":"Point","coordinates":[84.02145926,28.193255419999996]}},{"type":"Feature","id":"way/519001989","properties":{"type":"way","id":519001989,"tags":{"addr:place":"Milan Marga, Pokhara-15","amenity":"kindergarten","contact:phone":"061-431065","operator:type":"private"},"relations":[],"meta":{"timestamp":"2017-08-27T08:20:50Z","version":1,"changeset":51475517,"user":"Ashish Thapa","uid":4039113}},"geometry":{"type":"Point","coordinates":[83.9949955,28.197115]}},{"type":"Feature","id":"way/519006904","properties":{"type":"way","id":519006904,"tags":{"addr:place":"Chinedhada, Pokhara-15","amenity":"kindergarten","contact:phone":"061-695587","name":"Horizon Montessori Homes","operator:type":"private"},"relations":[],"meta":{"timestamp":"2017-12-28T08:54:18Z","version":2,"changeset":54976879,"user":"Ro Sun","uid":3112087}},"geometry":{"type":"Point","coordinates":[84.01152522499999,28.1810045875]}},{"type":"Feature","id":"way/521758354","properties":{"type":"way","id":521758354,"tags":{"addr:place":"Shiva Chowk, Pokhara-10","amenity":"kindergarten","contact:phone":"061-432120","name":"Dreamland Montessori","operator:type":"private"},"relations":[],"meta":{"timestamp":"2017-09-06T09:45:06Z","version":1,"changeset":51775500,"user":"Ashish Thapa","uid":4039113}},"geometry":{"type":"Point","coordinates":[84.00554220000001,28.202385925]}},{"type":"Feature","id":"way/523565975","properties":{"type":"way","id":523565975,"tags":{"amenity":"kindergarten","contact:phone":"61528070","name":"Children Glory Montessori","personnel:count":"12","student:count":"90"},"relations":[],"meta":{"timestamp":"2017-09-11T04:26:45Z","version":1,"changeset":51926022,"user":"Ro Sun","uid":3112087}},"geometry":{"type":"Point","coordinates":[83.9839342625,28.235919387499997]}},{"type":"Feature","id":"way/523997453","properties":{"type":"way","id":523997453,"tags":{"amenity":"kindergarten","contact:phone":"061 411382","name":"Lakecity Montessori and Academy"},"relations":[],"meta":{"timestamp":"2017-09-12T07:47:54Z","version":1,"changeset":51963558,"user":"Ashish Thapa","uid":4039113}},"geometry":{"type":"Point","coordinates":[84.049021425,28.17658355]}},{"type":"Feature","id":"way/524348000","properties":{"type":"way","id":524348000,"tags":{"amenity":"kindergarten","contact:phone":"9846566709, 9846087588","name":"Bhaidam Balbatika","operator:type":"private"},"relations":[],"meta":{"timestamp":"2018-04-11T06:21:50Z","version":2,"changeset":57992889,"user":"Manoj Thapa","uid":781054}},"geometry":{"type":"Point","coordinates":[83.96768426,28.20620156]}},{"type":"Feature","id":"way/545970472","properties":{"type":"way","id":545970472,"tags":{"addr:place":"Birauta, Pokhara-17","amenity":"kindergarten","contact:phone":"9846044394","name":"Buddha Montessori","operator:type":"private"},"relations":[],"meta":{"timestamp":"2018-04-12T05:36:41Z","version":2,"changeset":58024344,"user":"Manoj Thapa","uid":781054}},"geometry":{"type":"Point","coordinates":[83.96903523333333,28.189406483333332]}},{"type":"Feature","id":"way/563982893","properties":{"type":"way","id":563982893,"tags":{"amenity":"kindergarten","max_age":"10","min_age":"2","name":"Balsakha Montessori","opening_hours":"Su-Fr 10:00-15:00","operator":"private","phone":"9846140612","wheelchair":"yes"},"relations":[],"meta":{"timestamp":"2018-02-25T05:44:41Z","version":1,"changeset":56652372,"user":"Bijay adhikari","uid":7643850}},"geometry":{"type":"Point","coordinates":[83.93160441428572,28.28082864285714]}},{"type":"Feature","id":"way/567458229","properties":{"type":"way","id":567458229,"tags":{"amenity":"kindergarten","name":"SOS Hermann Gmeiner Kindergarten","operator":"donor","source":"2cpokhara","website":"http://www.sosnepal.org.np/","wheelchair":"no"},"relations":[],"meta":{"timestamp":"2018-03-07T12:20:56Z","version":1,"changeset":56966929,"user":"Sagarsubedi205","uid":7632456}},"geometry":{"type":"Point","coordinates":[83.95754817777778,28.18853124444444]}},{"type":"Feature","id":"way/567515348","properties":{"type":"way","id":567515348,"tags":{"amenity":"kindergarten","contact:phone":"9846756342","name":"Panas Kids World Montessori","source":"2cpokhara"},"relations":[],"meta":{"timestamp":"2018-03-09T06:38:55Z","version":2,"changeset":57021673,"user":"Ro Sun","uid":3112087}},"geometry":{"type":"Point","coordinates":[83.960818425,28.19393935]}},{"type":"Feature","id":"way/588264455","properties":{"type":"way","id":588264455,"tags":{"addr:city":"Pokhara lekthnath municipility","addr:place":"Simapani","amenity":"kindergarten","building":"yes","contact:phone":"+977 9811717780, 9846855996","name":"Tender Heart Montessori","opening_hours":"10:00-15:00","operator:type":"private","source":"2cpokhara"},"relations":[],"meta":{"timestamp":"2018-05-15T04:16:27Z","version":2,"changeset":58970326,"user":"Ro Sun","uid":3112087}},"geometry":{"type":"Point","coordinates":[83.98662953846154,28.24391587692308]}},{"type":"Feature","id":"node/4180402816","properties":{"type":"node","id":4180402816,"tags":{"amenity":"kindergarten","contact:phone":"9856072254, 9846362254","name":"Little Garden Montesori","operator:type":"private"},"relations":[],"meta":{"timestamp":"2017-09-12T08:47:16Z","version":3,"changeset":51965243,"user":"Ashish Thapa","uid":4039113}},"geometry":{"type":"Point","coordinates":[84.056241,28.1655338]}},{"type":"Feature","id":"node/4766861634","properties":{"type":"node","id":4766861634,"tags":{"addr:place":"Chapapani, Pokhara-12","amenity":"kindergarten","contact:phone":"061-229688","name:en":"Educare Montessori","source":"2cpokhara"},"relations":[],"meta":{"timestamp":"2018-05-15T04:55:47Z","version":3,"changeset":58970785,"user":"Abash Paudel","uid":6677482}},"geometry":{"type":"Point","coordinates":[84.0045352,28.2198903]}},{"type":"Feature","id":"node/4800813800","properties":{"type":"node","id":4800813800,"tags":{"amenity":"kindergarten","contact:phone":"061-461349","name":"Fairy Land Montesorri"},"relations":[],"meta":{"timestamp":"2017-09-14T05:39:52Z","version":4,"changeset":52026251,"user":"Ashish Thapa","uid":4039113}},"geometry":{"type":"Point","coordinates":[83.9595744,28.2119895]}},{"type":"Feature","id":"node/4810824748","properties":{"type":"node","id":4810824748,"tags":{"amenity":"kindergarten","name":"Apex Pre School"},"relations":[],"meta":{"timestamp":"2018-03-05T16:43:45Z","version":3,"changeset":56908802,"user":"Amrit Devkota","uid":6497064}},"geometry":{"type":"Point","coordinates":[84.0689585,28.1660966]}},{"type":"Feature","id":"node/4814800569","properties":{"type":"node","id":4814800569,"tags":{"amenity":"kindergarten","contact:phone":"985621380","name":"Red Gold Montessori"},"relations":[],"meta":{"timestamp":"2017-04-25T05:10:58Z","version":1,"changeset":48110005,"user":"Parassrest","uid":3569249}},"geometry":{"type":"Point","coordinates":[84.0872271,28.160374]}},{"type":"Feature","id":"node/5001733226","properties":{"type":"node","id":5001733226,"tags":{"amenity":"kindergarten","email":"fmcpkr@gmail.com","name":"Fulbari Montessori Cottage","phone":"061531175","website":"http://www.fulbarimontessori.com"},"relations":[],"meta":{"timestamp":"2017-07-29T15:36:37Z","version":1,"changeset":50674650,"user":"Ro Sun","uid":3112087}},"geometry":{"type":"Point","coordinates":[83.9908177,28.231915]}},{"type":"Feature","id":"node/5061441093","properties":{"type":"node","id":5061441093,"tags":{"addr:place":"Shiva Marga, Masbar, Pokhara-7","amenity":"kindergarten","contact:phone":"061-462156","name":"Happy Boarding School","opening_hours":"10:00-16:00","operator:type":"private"},"relations":[],"meta":{"timestamp":"2018-03-15T10:31:06Z","version":4,"changeset":57206102,"user":"Ro Sun","uid":3112087}},"geometry":{"type":"Point","coordinates":[83.9723226,28.211472]}},{"type":"Feature","id":"node/5068078294","properties":{"type":"node","id":5068078294,"tags":{"addr:place":"Ranipauwa, Pokhara-11","amenity":"kindergarten","email":"siddhartha.edu.np@gmail.com","name":"Siddhartha Montessori","operator:type":"private"},"relations":[],"meta":{"timestamp":"2017-08-30T05:03:59Z","version":1,"changeset":51562284,"user":"Ashish Thapa","uid":4039113}},"geometry":{"type":"Point","coordinates":[83.9977795,28.2178144]}},{"type":"Feature","id":"node/5097023848","properties":{"type":"node","id":5097023848,"tags":{"amenity":"kindergarten","contact:phone":"061 525135","name":"Star's Montessori Academy","operator:type":"private"},"relations":[],"meta":{"timestamp":"2017-09-11T06:17:12Z","version":1,"changeset":51928051,"user":"Ashish Thapa","uid":4039113}},"geometry":{"type":"Point","coordinates":[83.9907058,28.2268141]}},{"type":"Feature","id":"node/5097033963","properties":{"type":"node","id":5097033963,"tags":{"addr:place":"Galeswor Chok","amenity":"kindergarten","name":"Well Known Academy","operator:type":"private"},"relations":[],"meta":{"timestamp":"2017-09-11T06:23:37Z","version":1,"changeset":51928183,"user":"Ashish Thapa","uid":4039113}},"geometry":{"type":"Point","coordinates":[84.0029468,28.1844882]}},{"type":"Feature","id":"node/5104525753","properties":{"type":"node","id":5104525753,"tags":{"amenity":"kindergarten","contact:facebook":"cwehome","contact:phone":"061 462952","name":"Child Welfare and Education","name:ne":"वाल कल्याण संस्था","website":"www.cwehome.org.np"},"relations":[],"meta":{"timestamp":"2018-03-03T13:53:53Z","version":3,"changeset":56847565,"user":"mueschel","uid":616774}},"geometry":{"type":"Point","coordinates":[83.9634707,28.2081771]}},{"type":"Feature","id":"node/5431494719","properties":{"type":"node","id":5431494719,"tags":{"amenity":"kindergarten","name":"Good Luck Montessori","opening_hours":"Su-Th 10:00-14:30; Fr 10:00-13:00","operator":"private","phone":"9814114714","wheelchair":"yes"},"relations":[],"meta":{"timestamp":"2018-02-26T16:14:34Z","version":2,"changeset":56695131,"user":"fidoez","uid":87950}},"geometry":{"type":"Point","coordinates":[83.9388875,28.2756136]}},{"type":"Feature","id":"node/5472153398","properties":{"type":"node","id":5472153398,"tags":{"amenity":"kindergarten","contact:phone":"9806505841","name":"Shangrila Montessori","source":"2cpokhara"},"relations":[],"meta":{"timestamp":"2018-03-12T06:08:18Z","version":1,"changeset":57100126,"user":"Sagarsubedi205","uid":7632456}},"geometry":{"type":"Point","coordinates":[83.9775597,28.1863973]}},{"type":"Feature","id":"node/5543120564","properties":{"type":"node","id":5543120564,"tags":{"amenity":"kindergarten","name":"Rainbow Children Home"},"relations":[],"meta":{"timestamp":"2018-04-11T07:45:55Z","version":2,"changeset":57994785,"user":"Shrestha Khum","uid":7644104}},"geometry":{"type":"Point","coordinates":[83.9623027,28.2136503]}},{"type":"Feature","id":"node/5616497586","properties":{"type":"node","id":5616497586,"tags":{"amenity":"kindergarten","name":"Global Bal Batika Montessori Pre- School"},"relations":[],"meta":{"timestamp":"2018-05-14T05:35:36Z","version":1,"changeset":58939594,"user":"Abash Paudel","uid":6677482}},"geometry":{"type":"Point","coordinates":[83.9973785,28.2184857]}}],"createdOn":1527394615797}