{"type":"FeatureCollection","features":[{"type":"Feature","id":"way/120747249","properties":{"type":"way","id":120747249,"tags":{"building":"yes","name":"Annapurna Butterfly Museum","opening_hours":"10:00 -17:00","operator":"PN Campus","tourism":"museum","wheelchair":"yes"},"relations":[],"meta":{"timestamp":"2016-08-17T10:29:14Z","version":2,"changeset":41509406,"user":"Mrnprabhat","uid":3934069}},"geometry":{"type":"Point","coordinates":[83.99145148333334,28.239219924999997]}},{"type":"Feature","id":"way/404004169","properties":{"type":"way","id":404004169,"tags":{"name":"Chyatriya Sangralaya","name:ne":"क्षेत्रीय संग्रालय","tourism":"museum"},"relations":[],"meta":{"timestamp":"2016-08-19T05:53:26Z","version":6,"changeset":41548957,"user":"Parassrest","uid":3569249}},"geometry":{"type":"Point","coordinates":[83.99091873529412,28.217266188235293]}},{"type":"Feature","id":"way/419608190","properties":{"type":"way","id":419608190,"tags":{"barrier":"wall","contact:email":"admin@internationalmountainmuseum.org","contact:phone":"977-61-460742, 462322, 462336","contact:website":"www.internationalmountainmuseum.org","name":"International Mountain Museum","name:ne":"अन्तराष्ट्रिय माउन्टेन संग्रालय","opening_hours":"Su-Sa 9:00-16:30","source":"2cpokhara","tourism":"museum"},"relations":[],"meta":{"timestamp":"2018-03-12T05:00:19Z","version":7,"changeset":57098993,"user":"Sagarsubedi205","uid":7632456}},"geometry":{"type":"Point","coordinates":[83.98100641923075,28.189217284615385]}},{"type":"Feature","id":"way/422578349","properties":{"type":"way","id":422578349,"tags":{"note":"FIXME","tourism":"museum"},"relations":[],"meta":{"timestamp":"2016-06-03T06:15:47Z","version":1,"changeset":39770726,"user":"Bishal9841","uid":3573216}},"geometry":{"type":"Point","coordinates":[83.8593173,28.1648857]}},{"type":"Feature","id":"way/514704135","properties":{"type":"way","id":514704135,"tags":{"addr:city":"Pokhara Lekhnath Metropolitan City","addr:place":"Samidanda Tole","addr:street":"Arghun Base lekhnath Janmasthal Marg","leisure":"park","name":"Kabi Shiromani Lekhnath Museum","tourism":"museum"},"relations":[],"meta":{"timestamp":"2018-05-21T04:42:32Z","version":5,"changeset":59138263,"user":"Kshitiz Khanal","uid":977718}},"geometry":{"type":"Point","coordinates":[84.07285301666667,28.198983216666665]}},{"type":"Feature","id":"way/564059950","properties":{"type":"way","id":564059950,"tags":{"contact:email":"gmtmuseum@ntc.net.np","contact:phone":"061-441762","name":"Gurkha Memorial Museum","opening_hours":"8:00 AM-4:30 PM","operator":"private","source":"2cpokhara","tourism":"museum","website":"gurkhamuseum.org.np","wheelchair":"no"},"relations":[],"meta":{"timestamp":"2018-02-25T13:18:06Z","version":1,"changeset":56660853,"user":"Rabin Ojha","uid":6075053}},"geometry":{"type":"Point","coordinates":[83.98852495,28.2461555]}},{"type":"Feature","id":"node/5459528268","properties":{"type":"node","id":5459528268,"tags":{"building":"no","name":"Robotic Museum","name:ne":"रोबोटिक म्युजियम","source":"2cpokhara","tourism":"museum"},"relations":[],"meta":{"timestamp":"2018-03-07T12:20:58Z","version":2,"changeset":56966929,"user":"Sagarsubedi205","uid":7632456}},"geometry":{"type":"Point","coordinates":[83.9585622,28.1892366]}}],"createdOn":1529990311689}