{"type":"FeatureCollection","features":[{"type":"Feature","id":"way/186920013","properties":{"type":"way","id":186920013,"tags":{"name":"Red Cross Office","name:ne":"रेड क्रस कार्यालय","office":"ngo"},"relations":[],"meta":{"timestamp":"2016-08-09T06:24:26Z","version":5,"changeset":41338344,"user":"Alisha12","uid":4204463}},"geometry":{"type":"Point","coordinates":[84.0016842875,28.210682600000002]}},{"type":"Feature","id":"way/186920014","properties":{"type":"way","id":186920014,"tags":{"name":"Nepal Family Planning Office","name:ne":"नेपाल परिवार नियोजन संस्था","office":"ngo"},"relations":[],"meta":{"timestamp":"2016-08-09T06:24:25Z","version":7,"changeset":41338344,"user":"Alisha12","uid":4204463}},"geometry":{"type":"Point","coordinates":[84.00196904444444,28.209618199999998]}},{"type":"Feature","id":"way/277998420","properties":{"type":"way","id":277998420,"tags":{"addr:city":"pokhara","addr:housenumber":"17","name":"Naulo Ghumti Nepal","office":"ngo"},"relations":[],"meta":{"timestamp":"2014-04-29T10:41:30Z","version":1,"changeset":22020230,"user":"sampurnapaudel","uid":2052673}},"geometry":{"type":"Point","coordinates":[83.993740275,28.241558374999997]}},{"type":"Feature","id":"way/363764167","properties":{"type":"way","id":363764167,"tags":{"name":"Cavezone Conservation and Cultural Development Committee","name:ne":"गुफा जोन सर्बेछेन कमिटी","office":"ngo"},"relations":[],"meta":{"timestamp":"2018-03-11T07:30:05Z","version":5,"changeset":57074504,"user":"Ro Sun","uid":3112087}},"geometry":{"type":"Point","coordinates":[83.97941205000001,28.2714173]}},{"type":"Feature","id":"way/390781736","properties":{"type":"way","id":390781736,"tags":{"addr:street":"Parsyang-5, Pokhara","alt_name":"EDVENTURE","amenity":"social_facility","building":"yes","contact:email":"shiksyaupakram2011@gmail.com","contact:phone":"9856034090","name":"Shikshya Upakram Nepal (EDVENTURE)","office":"ngo","personal:count":"5","social_facility":"group_home","social_facility:for":"children","source":"GPS","start_date":"2067"},"relations":[],"meta":{"timestamp":"2017-02-17T06:17:02Z","version":3,"changeset":46155644,"user":"Alisha12","uid":4204463}},"geometry":{"type":"Point","coordinates":[83.976422275,28.22347825]}},{"type":"Feature","id":"way/399380333","properties":{"type":"way","id":399380333,"tags":{"addr:housenumber":"195","addr:street":"Prativa marga-15, Pokhara","alt_name":"3 Angles Nepal","amenity":"social_facility","building":"yes","building:levels":"3","contact:phone":"061-430310, 9856028698","name":"3 Angels Nepal","office":"ngo","personnel:count":"197","social_facility":"group_home","social_facility:for":"children,women","start_date":"2065","website":"www.3angelsnepal.com"},"relations":[],"meta":{"timestamp":"2017-02-17T04:49:32Z","version":4,"changeset":46154429,"user":"Alisha12","uid":4204463}},"geometry":{"type":"Point","coordinates":[83.990117525,28.191624725000004]}},{"type":"Feature","id":"way/399588627","properties":{"type":"way","id":399588627,"tags":{"addr:street":"Nadipur-3, Pokhara","amenity":"social_facility","building":"yes","contact:phone":"061-525906, 98460035906","name":"Nari Sewa Kendra","office":"ngo","personal:count":"21","social_facility":"group_home","social_facility:for":"women","source":"GPS","start_date":"2034"},"relations":[],"meta":{"timestamp":"2017-02-17T06:34:05Z","version":3,"changeset":46155901,"user":"Alisha12","uid":4204463}},"geometry":{"type":"Point","coordinates":[83.98589820000001,28.230876600000002]}},{"type":"Feature","id":"way/400139249","properties":{"type":"way","id":400139249,"tags":{"addr:housenumber":"180","building":"yes","building:levels":"2","name":"Shree Muktinath Sewa Kendra","name:ne":"श्री मुक्तिनाथ सेवा केन्द्र","office":"ngo"},"relations":[],"meta":{"timestamp":"2016-08-09T10:52:35Z","version":3,"changeset":41342670,"user":"gaurab basnet","uid":3120057}},"geometry":{"type":"Point","coordinates":[83.99411884999999,28.20942395]}},{"type":"Feature","id":"way/406804321","properties":{"type":"way","id":406804321,"tags":{"building":"yes","name":"Nepal Red Cross Society, Dhikurpokhari Sub Chapter","note":"own building","office":"ngo","phone":"9846035714"},"relations":[],"meta":{"timestamp":"2016-10-26T09:45:02Z","version":2,"changeset":43186952,"user":"Dev Narayan Paudel","uid":3715290}},"geometry":{"type":"Point","coordinates":[83.85590965,28.28296875]}},{"type":"Feature","id":"way/407042858","properties":{"type":"way","id":407042858,"tags":{"addr:city":"Pokhara Lekhnath Metropolitan city","addr:place":"Buddha Chowk","addr:street":"Ramghat-10, Pokhara","building":"yes","contact:email":"csgpokhara@hotmail.com","contact:phone":"061-526516","name":"Community Support Group","name:ne":"कम्युनिटी सपोर्ट ग्रुप","office":"ngo","operator":"Private","start_date":"2059"},"relations":[],"meta":{"timestamp":"2017-08-15T08:12:02Z","version":8,"changeset":51132007,"user":"Sunita Kc","uid":6474777}},"geometry":{"type":"Point","coordinates":[83.9941975,28.208834175]}},{"type":"Feature","id":"way/407053213","properties":{"type":"way","id":407053213,"tags":{"addr:housenumber":"1","building":"yes","building:levels":"3","name":"LGCDP (II)","name:ne":"एल जी सि डी पी (२)","office":"ngo"},"relations":[],"meta":{"timestamp":"2016-08-24T04:55:03Z","version":3,"changeset":41652966,"user":"Alisha12","uid":4204463}},"geometry":{"type":"Point","coordinates":[83.99514684285714,28.20999087142857]}},{"type":"Feature","id":"way/407794441","properties":{"type":"way","id":407794441,"tags":{"building":"yes","name":"Nepal Red Cross Society, Pokhara 15 sub-chapter","note":"own building","office":"ngo","phone":"9846048910","source":"2cpokhara"},"relations":[],"meta":{"timestamp":"2018-04-02T14:00:18Z","version":4,"changeset":57740431,"user":"Abash Paudel","uid":6677482}},"geometry":{"type":"Point","coordinates":[83.9963341,28.19493915]}},{"type":"Feature","id":"way/407846471","properties":{"type":"way","id":407846471,"tags":{"building":"yes","contact:phone":"061-460924","name":"Hamro Coffee","office":"ngo","source":"2cpokhara"},"relations":[],"meta":{"timestamp":"2018-03-11T06:41:17Z","version":4,"changeset":57073996,"user":"Sagarsubedi205","uid":7632456}},"geometry":{"type":"Point","coordinates":[83.97302873999999,28.197297099999997]}},{"type":"Feature","id":"way/409597139","properties":{"type":"way","id":409597139,"tags":{"addr:city":"Pokhara Lekthnath Metropolitan City","addr:street":"Hariyali marga, Nayagaun-15, Pokhara","building":"yes","contact:email":"info@bikashnepal.org.np","contact:phone":"061-430562","name":"Bikash Nepal","office":"ngo","start_date":"2062"},"relations":[],"meta":{"timestamp":"2017-08-11T11:04:04Z","version":5,"changeset":51029790,"user":"rojipokhara","uid":6447872}},"geometry":{"type":"Point","coordinates":[83.98922066666667,28.19048996666667]}},{"type":"Feature","id":"way/411580037","properties":{"type":"way","id":411580037,"tags":{"addr:street":"Naghdhunga-8, Pokhara","amenity":"social_facility","building":"yes","contact:email":"indrapaudel@yahoo.com","contact:phone":"061-525023, 9856033790","description":"Providing awareness related to reproductive health","name":"Aama Milan Kendra","office":"ngo","social_facility":"group_home","social_facility:for":"children;women","source":"GPS"},"relations":[],"meta":{"timestamp":"2017-02-04T12:27:49Z","version":3,"changeset":45803882,"user":"mueschel","uid":616774}},"geometry":{"type":"Point","coordinates":[83.98457934999999,28.207954349999998]}},{"type":"Feature","id":"way/411580051","properties":{"type":"way","id":411580051,"tags":{"addr:city":"Pokhara Lekthnath Metropolitan City","addr:street":"Hariyali marga, Nayagaun-15, Pokhara","building":"yes","contact:phone":"061-432208","name":"Happy Home Pokhara","name:ne":"ह्याप्पी होम, पोखरा","office":"ngo","social_facility:for":"children","start_date":"2053"},"relations":[],"meta":{"timestamp":"2017-08-11T11:02:43Z","version":3,"changeset":51029741,"user":"rojipokhara","uid":6447872}},"geometry":{"type":"Point","coordinates":[83.98761685,28.1910642]}},{"type":"Feature","id":"way/411633703","properties":{"type":"way","id":411633703,"tags":{"addr:street":"Simalchaur-8, Pokhara","amenity":"social_facility","building":"yes","contact:email":"pthorg@gmail.com","contact:phone":"061-530383, 9856020881","name":"Pahar Trust","office":"ngo","personal:count":"10","social_facility":"group_home","social_facility:for":"children","source":"GPS","source_of_fund":"International","start_date":"2070","website":"www.pahar-trust.org"},"relations":[],"meta":{"timestamp":"2018-04-12T08:09:01Z","version":4,"changeset":58027964,"user":"Ro Sun","uid":3112087}},"geometry":{"type":"Point","coordinates":[83.98219802499999,28.207990387499997]}},{"type":"Feature","id":"way/413550244","properties":{"type":"way","id":413550244,"tags":{"addr:street":"Simalchaur","amenity":"shelter","building":"yes","contact:phone":"061-538032","name":"Jalpa Devi Mahila Udhwar Samuha","office":"ngo","social_facility":"group_home","social_facility:for":"women","source":"GPS","start_date":"2048"},"relations":[],"meta":{"timestamp":"2017-09-11T04:38:59Z","version":4,"changeset":51926189,"user":"Ro Sun","uid":3112087}},"geometry":{"type":"Point","coordinates":[83.982324325,28.214631675]}},{"type":"Feature","id":"way/413563168","properties":{"type":"way","id":413563168,"tags":{"addr:city":"Pokhara Lekhanath Metropolitan City","addr:place":"Nuwarthok","addr:street":"Masbar-7, Pokhara","alt_name":"SOS","amenity":"shelter","building":"yes","contact:email":"sosbahini@gmail.com","contact:phone":"061-535683, 535602, 9846020809","name":"SOS Bahini Nepal( Didi Bahini Bachau)","office":"ngo","social_facility":"group_home","social_facility:for":"children,women","source":"GPS","start_date":"2071","website":"www.sosbahini.org"},"relations":[],"meta":{"timestamp":"2017-08-10T11:08:36Z","version":4,"changeset":50998157,"user":"Ankit Keshav Baral","uid":6447999}},"geometry":{"type":"Point","coordinates":[83.96916884999999,28.213490475]}},{"type":"Feature","id":"way/414818125","properties":{"type":"way","id":414818125,"tags":{"addr:street":"Chautarimarga-8, Pokhara","alt_name":"WSDO","amenity":"social_facility","building":"yes","contact:phone":"061-534025, 9856021686","name":"Women Skills Development Organization","office":"ngo","personal:count":"22","social_facility":"group_home","social_facility:for":"children,women","source":"GPS","start_date":"2032","website":"www.wsdonepal.com.np"},"relations":[],"meta":{"timestamp":"2017-02-17T06:23:41Z","version":4,"changeset":46155740,"user":"Alisha12","uid":4204463}},"geometry":{"type":"Point","coordinates":[83.98142734999999,28.216470049999998]}},{"type":"Feature","id":"way/414830171","properties":{"type":"way","id":414830171,"tags":{"addr:street":"Newroad-8, Pokhara","alt_name":"BABA Foundation","amenity":"social_facility","building":"yes","contact:email":"info@babafoundation.org","contact:phone":"061-536309, 9861222683","name":"Baba Foundation Nepal","office":"ngo","personal:count":"9","social_facility":"group_home","social_facility:for":"children,women","source":"GPS","start_date":"2065"},"relations":[],"meta":{"timestamp":"2018-03-07T21:17:23Z","version":5,"changeset":56981239,"user":"pyram","uid":497849}},"geometry":{"type":"Point","coordinates":[83.98522271666667,28.214066383333336]}},{"type":"Feature","id":"way/414965910","properties":{"type":"way","id":414965910,"tags":{"addr:street":"Nayagaun-15, Pokhara","amenity":"social_facility","building":"yes","contact:email":"odcdcnepal2004@yahoo.com","contact:phone":"061-432461","name":"Orphan and Destitude Children's Development Centre Nepal","office":"ngo","social_facility":"group_home","social_facility:for":"Children","start_date":"2061"},"relations":[],"meta":{"timestamp":"2017-02-17T05:14:41Z","version":3,"changeset":46154751,"user":"Alisha12","uid":4204463}},"geometry":{"type":"Point","coordinates":[83.9912056,28.1983923]}},{"type":"Feature","id":"way/416676911","properties":{"type":"way","id":416676911,"tags":{"addr:city":"Pokhara Lekhanath Metropolitan City","addr:place":"Nuwarthok","building":"yes","name":"Nepal Red Cross Society, Pokhara Sub Chapter 7","name:ne":"रेड क्रस भवन","note":"own building","office":"ngo","phone":"9856030654"},"relations":[],"meta":{"timestamp":"2017-08-10T11:08:36Z","version":4,"changeset":50998157,"user":"Ankit Keshav Baral","uid":6447999}},"geometry":{"type":"Point","coordinates":[83.96952712500001,28.212979925]}},{"type":"Feature","id":"way/416904238","properties":{"type":"way","id":416904238,"tags":{"addr:street":"Masbar-7, Pokhara","alt_name":"AAN Children Home","amenity":"social_facility","building":"yes","contact:email":"asso.annapurna@gmail.com","contact:phone":"061-528998","name":"Annapurna Association Nepal (AAN Children Home)","office":"ngo","social_facility":"group_home","social_facility:for":"children","source":"GPS","start_date":"2067","website":"www.annapurna.ch"},"relations":[],"meta":{"timestamp":"2017-02-17T06:15:01Z","version":3,"changeset":46155607,"user":"Alisha12","uid":4204463}},"geometry":{"type":"Point","coordinates":[83.96905260000001,28.21627345]}},{"type":"Feature","id":"way/417201349","properties":{"type":"way","id":417201349,"tags":{"addr:street":"Phirke-8, Pokhara","amenity":"shelter","building":"yes","contact:email":"gadpokhara90@gmail.com","contact:phone":"061-523295, 9846004960","name":"Gandaki Association of the Deaf","office":"ngo","personal:count":"17","social_facility":"group_home","source":"GPS","start_date":"2047"},"relations":[],"meta":{"timestamp":"2017-02-17T06:08:51Z","version":3,"changeset":46155515,"user":"Alisha12","uid":4204463}},"geometry":{"type":"Point","coordinates":[83.9771468,28.2118746]}},{"type":"Feature","id":"way/417267277","properties":{"type":"way","id":417267277,"tags":{"building":"yes","name":"Sahara Club Pokhara","office":"ngo"},"relations":[],"meta":{"timestamp":"2018-04-25T07:51:09Z","version":2,"changeset":58399583,"user":"Ro Sun","uid":3112087}},"geometry":{"type":"Point","coordinates":[83.987483225,28.209075825000003]}},{"type":"Feature","id":"way/417437888","properties":{"type":"way","id":417437888,"tags":{"name":"Ghumti Nepal","name:ne":"नौलो घुम्ती नेपाल","office":"ngo"},"relations":[],"meta":{"timestamp":"2017-12-11T04:53:05Z","version":4,"changeset":54528644,"user":"Ro Sun","uid":3112087}},"geometry":{"type":"Point","coordinates":[83.97472535,28.221436]}},{"type":"Feature","id":"way/417517877","properties":{"type":"way","id":417517877,"tags":{"addr:street":"Malepatan, Pokhara","alt_name":"Surya Chandra Bikash Samaj","amenity":"library","building":"yes","contact:phone":"061- 522750, 9856021975","name":"Shahid Smriti Pustakalaya","name:ne":"सहिद स्मिर्ति पुष्तकालय","office":"ngo","source":"GPS","start_date":"2051"},"relations":[],"meta":{"timestamp":"2018-04-20T06:40:37Z","version":8,"changeset":58253505,"user":"Manoj Thapa","uid":781054}},"geometry":{"type":"Point","coordinates":[83.9771121,28.2188365]}},{"type":"Feature","id":"way/417656388","properties":{"type":"way","id":417656388,"tags":{"addr:street":"Dharapanimargha-5, Pokhara","amenity":"social_facility","building":"yes","contact:phone":"9856033758","name":"Samannwaya Nepal (Child Care home for Orphan Kids)","office":"ngo","personal:count":"2","social_facility":"group_home","social_facility:for":"children","source":"GPS","start_date":"2060"},"relations":[],"meta":{"timestamp":"2017-02-17T06:17:02Z","version":3,"changeset":46155644,"user":"Alisha12","uid":4204463}},"geometry":{"type":"Point","coordinates":[83.9720841,28.225443425]}},{"type":"Feature","id":"way/417673795","properties":{"type":"way","id":417673795,"tags":{"addr:street":"Malepatan, Pokhara (Asrit Marga )","amenity":"social_facility","building":"yes","contact:phone":"061-539426","name":"Antardristi Nepal Psychological Care and Support Center","office":"ngo","social_facility":"group_home","source":"GPS","start_date":"2048"},"relations":[],"meta":{"timestamp":"2017-02-17T06:15:02Z","version":3,"changeset":46155607,"user":"Alisha12","uid":4204463}},"geometry":{"type":"Point","coordinates":[83.97179502499999,28.221134725]}},{"type":"Feature","id":"way/417765854","properties":{"type":"way","id":417765854,"tags":{"Locality":"Nayagaun-15, Pokhara","amenity":"shelter","building":"yes","contact:phone":"061-431814","name":"Himalayan Life Nepal","office":"ngo","social_facility":"group_home","social_facility:for":"Children","start_date":"2069"},"relations":[],"meta":{"timestamp":"2017-02-17T05:14:41Z","version":3,"changeset":46154751,"user":"Alisha12","uid":4204463}},"geometry":{"type":"Point","coordinates":[83.98846354999999,28.198444625]}},{"type":"Feature","id":"way/417767054","properties":{"type":"way","id":417767054,"tags":{"addr:housenumber":"28","addr:street":"Janashakti marga, Nayagaun-15, Pokhara","alt_name":"Demo Children Home","amenity":"shelter","building":"yes","building:levels":"2","contact:phone":"9816145038, 9846605595","name":"Demo Children Home","office":"ngo","personnel:count":"4","social_facility":"group_home","social_facility:for":"children,women","start_date":"2069"},"relations":[],"meta":{"timestamp":"2017-02-17T05:14:40Z","version":4,"changeset":46154751,"user":"Alisha12","uid":4204463}},"geometry":{"type":"Point","coordinates":[83.98927865,28.200244175]}},{"type":"Feature","id":"way/417791112","properties":{"type":"way","id":417791112,"tags":{"name":"Nepal Scout Kaski","name:ne":"नेपाल स्काउट कास्की","office":"ngo","operator":"Nepal Scout"},"relations":[],"meta":{"timestamp":"2017-06-15T06:48:33Z","version":5,"changeset":49549245,"user":"Alisha12","uid":4204463}},"geometry":{"type":"Point","coordinates":[83.98187213000001,28.225670950000005]}},{"type":"Feature","id":"way/417807429","properties":{"type":"way","id":417807429,"tags":{"addr:street":"Naghdhunga, Pokhara","alt_name":"NEST","amenity":"social_facility","building":"yes","contact:phone":"061-431870, 9851034899","name":"NEST","office":"ngo","website":"www.nest.org.np"},"relations":[],"meta":{"timestamp":"2017-02-17T05:54:20Z","version":3,"changeset":46155332,"user":"Alisha12","uid":4204463}},"geometry":{"type":"Point","coordinates":[83.98263847499999,28.20468535]}},{"type":"Feature","id":"way/417834418","properties":{"type":"way","id":417834418,"tags":{"amenity":"social_facility","building":"yes","name":"Ujeli Hercha Kendra","office":"ngo","social_facility":"day_care","social_facility:for":"childrenbelowsixteen"},"relations":[],"meta":{"timestamp":"2017-09-11T06:10:09Z","version":2,"changeset":51927888,"user":"Ashish Thapa","uid":4039113}},"geometry":{"type":"Point","coordinates":[83.97972715,28.223279075]}},{"type":"Feature","id":"way/417836764","properties":{"type":"way","id":417836764,"tags":{"addr:street":"Siddhatharchowk-8, Pokhara","amenity":"shelter","building":"yes","contact:phone":"061-521115","name":"Sisu Bikash Kendra","office":"ngo","personal:count":"7","place":"locality","social_facility":"group_home","social_facility:for":"children","source":"GPS","start_date":"2036"},"relations":[],"meta":{"timestamp":"2017-02-03T09:01:28Z","version":3,"changeset":45772103,"user":"Alisha12","uid":4204463}},"geometry":{"type":"Point","coordinates":[83.98415016666668,28.223336266666667]}},{"type":"Feature","id":"way/418090756","properties":{"type":"way","id":418090756,"tags":{"addr:street":"Archalbot-2, Pokhara","amenity":"social_facility","building":"yes","contact:phone":"061-527584","name":"Machapuchre Bikash Sang ( Machapuchre Development Organization)","office":"ngo","personal:count":"12","social_facility:for":"children,women","source":"GPS","start_date":"2046","website":"www.mdonepal.org.np"},"relations":[],"meta":{"timestamp":"2017-02-17T06:34:04Z","version":3,"changeset":46155901,"user":"Alisha12","uid":4204463}},"geometry":{"type":"Point","coordinates":[83.98258022,28.233649240000005]}},{"type":"Feature","id":"way/418094794","properties":{"type":"way","id":418094794,"tags":{"addr:street":"Archalbot-2, Pokhara","amenity":"social_facility","building":"yes","contact:email":"dcdokaski@gmail.com","contact:phone":"061-621550","name":"Dhikurpokharai Samudahik Bikash Sang","office":"ngo","social_facility":"group_home","source":"GPS"},"relations":[],"meta":{"timestamp":"2017-02-17T06:34:03Z","version":3,"changeset":46155901,"user":"Alisha12","uid":4204463}},"geometry":{"type":"Point","coordinates":[83.98204767499999,28.235033325]}},{"type":"Feature","id":"way/418512880","properties":{"type":"way","id":418512880,"tags":{"addr:street":"Ramkrishna Tol-4, Pokhara","amenity":"shelter","building":"yes","contact:phone":"061-530979, 9846020051","name":"Manabh Adhikar ko lagi yekal mahila samuha","office":"ngo","personal:count":"7","social_facility":"group_home","source":"GPS","start_date":"2061"},"relations":[],"meta":{"timestamp":"2017-02-17T06:40:24Z","version":3,"changeset":46156023,"user":"Alisha12","uid":4204463}},"geometry":{"type":"Point","coordinates":[83.997466,28.21923115]}},{"type":"Feature","id":"way/419198110","properties":{"type":"way","id":419198110,"tags":{"addr:street":"Nadipur-3, Pokhara","amenity":"social_facility","building":"yes","contact:phone":"061-539743, 9846039600","name":"Jibiko Parjan Sikshya Tatha Bikash Samaj","office":"ngo","personal:count":"16","social_facility":"group_home","start_date":"2006","website":"www.leadsnp.org"},"relations":[],"meta":{"timestamp":"2017-02-17T06:34:04Z","version":3,"changeset":46155901,"user":"Alisha12","uid":4204463}},"geometry":{"type":"Point","coordinates":[83.98947629999999,28.233131425000003]}},{"type":"Feature","id":"way/419609150","properties":{"type":"way","id":419609150,"tags":{"addr:street":"Tallo Ratopahiro-17, Gharipatan, Pokhara","building":"yes","name":"Bal Bikash Kendra","office":"ngo","social_facility:for":"Children","start_date":"2058"},"relations":[],"meta":{"timestamp":"2017-02-17T05:02:03Z","version":3,"changeset":46154614,"user":"Alisha12","uid":4204463}},"geometry":{"type":"Point","coordinates":[83.98369353333334,28.189014450000002]}},{"type":"Feature","id":"way/419626368","properties":{"type":"way","id":419626368,"tags":{"addr:city":"Pokhara","addr:country":"NP","addr:street":"Masbar-7","amenity":"shelter","building":"yes","contact:phone":"061-461503, 9846397007","contact:website":"www.happychildrenshome.org","name":"Happy Children Home","office":"ngo","personal:count":"4","short_name":"Happy Children Home","social_facility":"group_home","social_facility:for":"children,women","source":"GPS","source_of_fund":"International","start_date":"2067"},"relations":[],"meta":{"timestamp":"2018-04-12T08:09:02Z","version":5,"changeset":58027964,"user":"Ro Sun","uid":3112087}},"geometry":{"type":"Point","coordinates":[83.972653425,28.20763655]}},{"type":"Feature","id":"way/419645758","properties":{"type":"way","id":419645758,"tags":{"alt_name":"Li-Bird","amenity":"social_facility","building":"yes","contact:phone":"061-535357, 526834","name":"Li-bird","office":"ngo","personal:count":"100","source":"GPS","website":"www.libird.org"},"relations":[],"meta":{"timestamp":"2017-02-17T06:34:04Z","version":4,"changeset":46155901,"user":"Alisha12","uid":4204463}},"geometry":{"type":"Point","coordinates":[83.98605846666668,28.227177816666668]}},{"type":"Feature","id":"way/419657948","properties":{"type":"way","id":419657948,"tags":{"addr:street":"Simpani, Bagar-1, Pokhara","amenity":"social_facility","building":"yes","contact:phone":"9846118448","name":"Bal Bikash Kendra ( Child Development Centre)","office":"ngo","personal:count":"2","social_facility":"group_home","social_facility:for":"children","source":"GPS","start_date":"2056"},"relations":[],"meta":{"timestamp":"2017-02-17T06:36:32Z","version":3,"changeset":46155950,"user":"Alisha12","uid":4204463}},"geometry":{"type":"Point","coordinates":[83.97671869999999,28.248354649999996]}},{"type":"Feature","id":"way/420243426","properties":{"type":"way","id":420243426,"tags":{"addr:street":"Kahare-6, Pokhara","amenity":"social_facility","building":"yes","contact:phone":"061-465515, 9846047354","name":"Mahila Sasaktikaran Nepal","office":"ngo","social_facility":"group_home","social_facility:for":"women","source":"GPS","start_date":"2051","website":"www.threesistersadventuretrek.com"},"relations":[],"meta":{"timestamp":"2017-02-17T06:15:02Z","version":3,"changeset":46155607,"user":"Alisha12","uid":4204463}},"geometry":{"type":"Point","coordinates":[83.958060125,28.21987575]}},{"type":"Feature","id":"way/420522949","properties":{"type":"way","id":420522949,"tags":{"addr:street":"Jarebar, Baidam-6, Pokhara","alt_name":"NCF","building":"yes","contact:phone":"061-462449, 9846025588","name":"Namaste Community Foundation","office":"ngo","social_facility":"group_home","social_facility:for":"children","source":"GPS","start_date":"2060","website":"www.ncf-nepal.org"},"relations":[],"meta":{"timestamp":"2018-04-12T08:14:17Z","version":4,"changeset":58028099,"user":"Ro Sun","uid":3112087}},"geometry":{"type":"Point","coordinates":[83.96508647499999,28.211398425000002]}},{"type":"Feature","id":"way/420579471","properties":{"type":"way","id":420579471,"tags":{"addr:street":"Darbarthokmarga, Nayabazar-9, Pokhara","amenity":"social_facility","building":"yes","contact:phone":"061-53430, 9856020892","office":"ngo","start_date":"2060","website":"wdr@fewnet.com.np"},"relations":[],"meta":{"timestamp":"2017-02-17T06:25:37Z","version":3,"changeset":46155763,"user":"Alisha12","uid":4204463}},"geometry":{"type":"Point","coordinates":[83.988942025,28.218378100000002]}},{"type":"Feature","id":"way/421079137","properties":{"type":"way","id":421079137,"tags":{"addr:street":"Tudikhel, Bagar-1, Pokhara","amenity":"social_facility","building":"yes","contact:email":"adhikari.solution@yahoo.com","contact:phone":"061-523885, 9856041754","name":"Indreni Integrated Development Center ( Indreni ekkatrit Bikash Kendra)","office":"ngo","social_facility":"group_home","social_facility:for":"women","source":"GPS","start_date":"2037"},"relations":[],"meta":{"timestamp":"2017-02-17T06:29:38Z","version":3,"changeset":46155816,"user":"Alisha12","uid":4204463}},"geometry":{"type":"Point","coordinates":[83.98619045,28.241875699999998]}},{"type":"Feature","id":"way/421249115","properties":{"type":"way","id":421249115,"tags":{"building":"yes","contact:phone":"9856025307, 9805817876","name":"NRCS Hemja Sub-chapter","office":"ngo"},"relations":[],"meta":{"timestamp":"2017-08-11T05:27:52Z","version":2,"changeset":51020677,"user":"suneeel","uid":6447856}},"geometry":{"type":"Point","coordinates":[83.93650095,28.278453850000002]}},{"type":"Feature","id":"way/421305687","properties":{"type":"way","id":421305687,"tags":{"Working Area":"Children","addr:street":"Damside-17, Pokhara","alt_name":"NCF","building":"yes","contact:phone":"061-464428","name":"Namaste Community Foundation (Onni Balghriha)","office":"ngo","social_facility:for":"children,women","source":"GPS Survey","start_date":"2060","website":"www.ncf-nepal.org"},"relations":[],"meta":{"timestamp":"2017-02-17T05:02:04Z","version":4,"changeset":46154614,"user":"Alisha12","uid":4204463}},"geometry":{"type":"Point","coordinates":[83.97222165,28.195940850000003]}},{"type":"Feature","id":"way/421315157","properties":{"type":"way","id":421315157,"tags":{"addr:street":"Gharipatan-17, Pokhara","building":"yes","contact:email":"toli@ntc.net.np","contact:phone":"061-462875, 9846202018","name":"TOLI","name:ne":"टि.वो.एल.एफ","office":"ngo","social_facility:for":"children,women","start_date":"2050","website":"www.toli.org.np"},"relations":[],"meta":{"timestamp":"2017-02-17T05:02:04Z","version":3,"changeset":46154614,"user":"Alisha12","uid":4204463}},"geometry":{"type":"Point","coordinates":[83.978612325,28.189951500000003]}},{"type":"Feature","id":"way/421504163","properties":{"type":"way","id":421504163,"tags":{"addr:street":"Masbar-7, Pokhara","alt_name":"Bridge of Hope","amenity":"social_facility","building":"yes","contact:email":"bohsimalchaur2015@gmail.com","name":"Bridge of Hope","office":"ngo","personal:count":"9","social_facility":"group_home","social_facility:for":"children,women","source":"GPS","start_date":"2070"},"relations":[],"meta":{"timestamp":"2017-02-17T06:08:50Z","version":3,"changeset":46155515,"user":"Alisha12","uid":4204463}},"geometry":{"type":"Point","coordinates":[83.97545161111111,28.211221644444446]}},{"type":"Feature","id":"way/421585132","properties":{"type":"way","id":421585132,"tags":{"building":"yes","name":"Nepal Red Cross Society, Pokhara Income Generation Building","note":"own building","office":"ngo","phone":"9856020489"},"relations":[],"meta":{"timestamp":"2017-08-17T08:20:22Z","version":3,"changeset":51196961,"user":"rekhadhakal","uid":6485692}},"geometry":{"type":"Point","coordinates":[83.95773137500001,28.189866249999998]}},{"type":"Feature","id":"way/421777532","properties":{"type":"way","id":421777532,"tags":{"building":"yes","name":"Oppressed Society Awareness Committe","office":"ngo","source":"2cpokhara"},"relations":[],"meta":{"timestamp":"2018-04-01T10:34:39Z","version":2,"changeset":57709087,"user":"Madan Acharya","uid":7707025}},"geometry":{"type":"Point","coordinates":[83.996862225,28.227045574999998]}},{"type":"Feature","id":"way/421988029","properties":{"type":"way","id":421988029,"tags":{"addr:place":"Swagat Nagar, Chauthe, Pokhara-14","building":"yes","name":"Private and Boarding Schools' Organization, Nepal","office":"ngo"},"relations":[],"meta":{"timestamp":"2017-09-05T14:55:29Z","version":2,"changeset":51753487,"user":"Ashish Thapa","uid":4039113}},"geometry":{"type":"Point","coordinates":[84.0155689,28.199797]}},{"type":"Feature","id":"way/422030897","properties":{"type":"way","id":422030897,"tags":{"addr:street":"Birauta-17, Pokhara (sanchaykosh Bhawan)","amenity":"social_facility","building":"yes","club":"environment_protection","contact:email":"heraloacademy@yahoo.com","contact:phone":"061-465877, 9856020776","name":"Heralo Foundation","office":"ngo","personnel:count":"21","social_facility":"group_home","social_facility:for":"senior","start_date":"2055"},"relations":[],"meta":{"timestamp":"2017-02-17T05:02:04Z","version":4,"changeset":46154614,"user":"Alisha12","uid":4204463}},"geometry":{"type":"Point","coordinates":[83.9724182,28.19355175]}},{"type":"Feature","id":"way/422034706","properties":{"type":"way","id":422034706,"tags":{"Working Area":"Agriculture","addr:street":"Birauta-17, Pokhara","building":"yes","contact:email":"nesdo@ntc.net.np","contact:phone":"067- 420229","landuse":"agriculture","name":"NESDO Nepal","office":"ngo","start_date":"2051","website":"nesdonepal.org.np"},"relations":[],"meta":{"timestamp":"2017-02-17T05:02:04Z","version":3,"changeset":46154614,"user":"Alisha12","uid":4204463}},"geometry":{"type":"Point","coordinates":[83.97134335000001,28.193404275000002]}},{"type":"Feature","id":"way/422039603","properties":{"type":"way","id":422039603,"tags":{"addr:street":"Damside, Pokhara","alt_name":"GONESA","amenity":"social_facility","building":"yes","contact:email":"gnnkaskicdp@gmail.com","contact:phone":"061-466323","name":"Good Neighbours Service Organization","office":"ngo","personnel:count":"12","social_facility":"group_home","social_facility:for":"children","start_date":"2056"},"relations":[],"meta":{"timestamp":"2017-02-17T04:26:23Z","version":3,"changeset":46154174,"user":"Alisha12","uid":4204463}},"geometry":{"type":"Point","coordinates":[83.97157305,28.193132816666665]}},{"type":"Feature","id":"way/422047998","properties":{"type":"way","id":422047998,"tags":{"addr:street":"Dharapani marga-26, Pokhara","amenity":"social_facility","building":"yes","contact:phone":"061-412208","name":"Nepal Association Welfare of the blind","office":"ngo","personal:count":"2","social_facility":"group_home","source":"GPS","start_date":"2053","website":"www.nawbnepal.com.np"},"relations":[],"meta":{"timestamp":"2017-02-17T06:29:38Z","version":4,"changeset":46155816,"user":"Alisha12","uid":4204463}},"geometry":{"type":"Point","coordinates":[83.98161025,28.238740983333333]}},{"type":"Feature","id":"way/422130085","properties":{"type":"way","id":422130085,"tags":{"addr:street":"Sarangkot-26, Pokhara","amenity":"shelter","building":"yes","contact:email":"contact@asha.org.np","contact:phone":"9856025909, 061-551812","name":"Aasha Foundation","office":"ngo","personnel:count":"2","social_facility":"group_home","social_facility:for":"children","source":"GPS Survey","website":"www.asha.org.np"},"relations":[],"meta":{"timestamp":"2017-02-17T06:36:31Z","version":3,"changeset":46155950,"user":"Alisha12","uid":4204463}},"geometry":{"type":"Point","coordinates":[83.970423975,28.24163025]}},{"type":"Feature","id":"way/422183731","properties":{"type":"way","id":422183731,"tags":{"addr:street":"Janapriya Marga-8, Pokhara","alt_name":"INSEC","amenity":"social_facility","building":"yes","contact:phone":"061-465512, 9856024454","name":"INSEC","office":"ngo","personal:count":"8","social_facility":"group_home","social_facility:for":"humanright and socail justice","source":"GPS","start_date":"2045","website":"www.inseconline.org"},"relations":[],"meta":{"timestamp":"2018-04-12T08:14:17Z","version":4,"changeset":58028099,"user":"Ro Sun","uid":3112087}},"geometry":{"type":"Point","coordinates":[83.97718782,28.204060929999997]}},{"type":"Feature","id":"way/422552727","properties":{"type":"way","id":422552727,"tags":{"addr:street":"Baghbazar, Bagar-1, Pokhara","amenity":"social_facility","building":"yes","contact:email":"aidscontrolorganization@gmail.com","contact:phone":"9856025596, 061-527686","name":"AIDS Biruddha Ekkata Nepal ( Aids rog niyantran Sang Kaski)","office":"ngo","social_facility":"group_home","source":"GPS"},"relations":[],"meta":{"timestamp":"2017-02-17T06:29:37Z","version":3,"changeset":46155816,"user":"Alisha12","uid":4204463}},"geometry":{"type":"Point","coordinates":[83.98746285,28.239242299999997]}},{"type":"Feature","id":"way/422573134","properties":{"type":"way","id":422573134,"tags":{"addr:city":"Pokhara Lekthnath Metropolitan City","addr:street":"Tutunga-15,Pokhara","amenity":"shelter","building":"yes","contact:email":"www.ccdpnepal.org","contact:phone":"061-431534, 9846384856","name":"Creative Children Development Programme","office":"ngo","start_date":"2069"},"relations":[],"meta":{"timestamp":"2017-08-11T11:51:16Z","version":4,"changeset":51031231,"user":"rojipokhara","uid":6447872}},"geometry":{"type":"Point","coordinates":[83.99472005000001,28.181520575]}},{"type":"Feature","id":"way/422793513","properties":{"type":"way","id":422793513,"tags":{"name":"The Gurkha Welfare Scheme","name:ne":"गोर्खा वेलफेर स्कीम","office":"ngo"},"relations":[],"meta":{"timestamp":"2016-10-28T09:02:34Z","version":5,"changeset":43241366,"user":"Alisha12","uid":4204463}},"geometry":{"type":"Point","coordinates":[83.99290850624999,28.207936874999998]}},{"type":"Feature","id":"way/423082336","properties":{"type":"way","id":423082336,"tags":{"addr:city":"Pokhara-lekhnath Metropolitian City","addr:place":"Bhagwati Chautara","addr:street":"Bagmara Road","building":"yes","name":"Nepal Red Cross Society Bharatpokhari Upasakha","office":"ngo"},"relations":[],"meta":{"timestamp":"2017-08-13T06:37:18Z","version":2,"changeset":51073182,"user":"ShreeKrishna","uid":6447846}},"geometry":{"type":"Point","coordinates":[84.039898575,28.147259925]}},{"type":"Feature","id":"way/423286431","properties":{"type":"way","id":423286431,"tags":{"building":"yes","contact:phone":"9846081440, 9846080186","name":"Nepal Red Cross Society, Aarghau/ Lekhnath Sub Chapter","office":"ngo","own":"building"},"relations":[],"meta":{"timestamp":"2017-02-01T05:49:53Z","version":3,"changeset":45706951,"user":"Alisha12","uid":4204463}},"geometry":{"type":"Point","coordinates":[84.049479125,28.17476665]}},{"type":"Feature","id":"way/425296477","properties":{"type":"way","id":425296477,"tags":{"addr:street":"Annapurna Tol, Janapriya marga-8, Pokhara","alt_name":"COCAP","amenity":"social_facility","building":"yes","contact:phone":"061-465639, 9856024210","name":"COCAP( Collective Campaign for Peace)","office":"ngo","social_facility":"peace","social_facility:for":"youth","website":"www.cocap.org.np"},"relations":[],"meta":{"timestamp":"2018-04-12T08:09:02Z","version":5,"changeset":58027964,"user":"Ro Sun","uid":3112087}},"geometry":{"type":"Point","coordinates":[83.976724275,28.20370145]}},{"type":"Feature","id":"way/425502152","properties":{"type":"way","id":425502152,"tags":{"addr:street":"Masbar-7, Pokhara","amenity":"social_facility","contact:email":"childrennepal95@gmail.com","contact:phone":"061-461554","name":"Children Nepal","name:ne":"चिल्ड्रेन नेपाल","office":"ngo","social_facility":"group_home","social_facility:for":"children,women","source":"GPS","start_date":"2052","website":"www.children-nepal.net.np"},"relations":[],"meta":{"timestamp":"2018-04-12T08:19:21Z","version":5,"changeset":58028223,"user":"Ro Sun","uid":3112087}},"geometry":{"type":"Point","coordinates":[83.972690525,28.210459874999998]}},{"type":"Feature","id":"way/426958922","properties":{"type":"way","id":426958922,"tags":{"building":"yes","name":"Red Cross Society, Dhital Sub Chapter","note":"own building","office":"ngo","phone":"9851025336"},"relations":[],"meta":{"timestamp":"2016-10-26T11:07:51Z","version":2,"changeset":43189916,"user":"Dev Narayan Paudel","uid":3715290}},"geometry":{"type":"Point","coordinates":[83.897890275,28.314848225]}},{"type":"Feature","id":"way/426963800","properties":{"type":"way","id":426963800,"tags":{"building":"yes","name":"Red Cross Society, Rivan Sub Chapter","note":"own building","office":"ngo","phone":"9846587666, 9846049151"},"relations":[],"meta":{"timestamp":"2016-10-26T11:07:51Z","version":2,"changeset":43189916,"user":"Dev Narayan Paudel","uid":3715290}},"geometry":{"type":"Point","coordinates":[83.8998178,28.322009475]}},{"type":"Feature","id":"way/427823739","properties":{"type":"way","id":427823739,"tags":{"building":"yes","name":"Red Cross Society, Rakhi Branch","office":"ngo","rescue_kit_pre_position":"yes"},"relations":[],"meta":{"timestamp":"2017-08-11T06:42:39Z","version":2,"changeset":51022237,"user":"sanzay123","uid":6447979}},"geometry":{"type":"Point","coordinates":[84.04017005,28.196818225]}},{"type":"Feature","id":"way/429614228","properties":{"type":"way","id":429614228,"tags":{"name":"Nepal Bridge Office, HELVETAS","name:ne":"नेपाल ब्रिज कार्यालय","office":"ngo","opening_hours":"10:00-17:00","operator":"INGO"},"relations":[],"meta":{"timestamp":"2016-09-12T10:16:23Z","version":3,"changeset":42096506,"user":"Parassrest","uid":3569249}},"geometry":{"type":"Point","coordinates":[83.972180975,28.204409575]}},{"type":"Feature","id":"way/430149859","properties":{"type":"way","id":430149859,"tags":{"internet_access":"yes","name":"Nepal Leprosy Relief Association(Pokhara Branch)","name:ne":"नेपाल कुष्ठरोग राहत संघ (पोखरा शाखा)rosy Relief Association(Pokhara Branch)","office":"ngo","operator":"Government","smoking":"no"},"relations":[],"meta":{"timestamp":"2017-06-13T07:43:07Z","version":5,"changeset":49491075,"user":"Alisha12","uid":4204463}},"geometry":{"type":"Point","coordinates":[83.99445817272728,28.179514963636368]}},{"type":"Feature","id":"way/432323765","properties":{"type":"way","id":432323765,"tags":{"building":"yes","building:levels":"2","name":"Naulo Ghumti","name:ne":"नौलो घुम्ती","office":"ngo","social_facility":"shelter","source":"2cpokhara"},"relations":[],"meta":{"timestamp":"2018-03-12T05:41:51Z","version":4,"changeset":57099709,"user":"Sagarsubedi205","uid":7632456}},"geometry":{"type":"Point","coordinates":[83.993074,28.1756358]}},{"type":"Feature","id":"way/432323767","properties":{"type":"way","id":432323767,"tags":{"addr:street":"Sita Paila, Pokhara","amenity":"social_facility","contact:email":"pokharaagedshelther@gmail.com","contact:phone":"061-402066, 061-402067","name":"Pokhara Bridha Aashram","name:ne":"बृदाश्रम(बृदा आश्रम )","office":"ngo","operator":"government","personnel:count":"8","social_facility":"group_home","social_facility:for":"repect to elder","source":"2cpokhara","start_date":"2053"},"relations":[],"meta":{"timestamp":"2018-03-12T05:41:51Z","version":5,"changeset":57099709,"user":"Sagarsubedi205","uid":7632456}},"geometry":{"type":"Point","coordinates":[83.99216187500001,28.1766294375]}},{"type":"Feature","id":"way/437412375","properties":{"type":"way","id":437412375,"tags":{"addr:city":"Pokhara Lekhnath Metropolitian City","addr:street":"Manni","amenity":"social_facility","name":"Richmond Fellowship","name:ne":"रिच्मोंड फेलोशीप","office":"ngo","operator":"NGO","phone":"061696708","social_facility":"shelter","source":"2cpokhara"},"relations":[],"meta":{"timestamp":"2018-05-15T04:55:49Z","version":5,"changeset":58970785,"user":"Abash Paudel","uid":6677482}},"geometry":{"type":"Point","coordinates":[84.0080222,28.22750945]}},{"type":"Feature","id":"way/444889446","properties":{"type":"way","id":444889446,"tags":{"addr:street":"Bulaudi-6, Pokhara","amenity":"social_facility","building":"yes","contact:phone":"061-463486, 9756000014","name":"Kopila Nepal","name:hi":"कोपिला नेपाल","office":"ngo","social_facility":"group_home","social_facility:for":"children,women","source":"GPS","start_date":"2057","website":"www.kopilanepal.org"},"relations":[],"meta":{"timestamp":"2018-05-23T02:32:03Z","version":4,"changeset":59196320,"user":"Connor John Schmitz","uid":8301703}},"geometry":{"type":"Point","coordinates":[83.96842709999999,28.2114681]}},{"type":"Feature","id":"way/449497891","properties":{"type":"way","id":449497891,"tags":{"building":"yes","name":"Nepal Red Cross Society, Pokhara 10, 11 sub-chapter","name:ne":"नेपाल रेडक्रस सोसाइटी, कास्की १०","note":"own building","office":"ngo","phone":"9846036121"},"relations":[],"meta":{"timestamp":"2017-09-23T10:28:31Z","version":3,"changeset":52300380,"user":"Shiva Kunwar","uid":5427452}},"geometry":{"type":"Point","coordinates":[84.00062965000001,28.202847625]}},{"type":"Feature","id":"way/449511260","properties":{"type":"way","id":449511260,"tags":{"name":"Nepal Red Cross Society, Armala Sub Chapter 28","note":"own building","office":"ngo","phone":"9804116518, 9846282313"},"relations":[],"meta":{"timestamp":"2016-10-26T09:33:47Z","version":1,"changeset":43186544,"user":"Dev Narayan Paudel","uid":3715290}},"geometry":{"type":"Point","coordinates":[83.993741075,28.28831585]}},{"type":"Feature","id":"way/451814631","properties":{"type":"way","id":451814631,"tags":{"addr:street":"Damside, Pokhara","amenity":"social_facility","building":"yes","contact:phone":"061-464437, 9856026562","name":"Sathi Nepal","office":"ngo","social_facility:for":"children","source":"GPS Survey","start_date":"2059","website":"www.sathinepal.org.np"},"relations":[],"meta":{"timestamp":"2017-02-17T05:02:04Z","version":5,"changeset":46154614,"user":"Alisha12","uid":4204463}},"geometry":{"type":"Point","coordinates":[83.972535225,28.196795575]}},{"type":"Feature","id":"way/451814633","properties":{"type":"way","id":451814633,"tags":{"building":"yes","contact:email":"sathinepal@sathinepal.org.np","contact:phone":"061-463258, 061-464437","name":"Sathi Nepal","office":"ngo","opening_hours":"Su-Fr 10:00-17:00 Sa & PH Closed","source":"2cpokhara","website":"www.sathinepal.org.np"},"relations":[],"meta":{"timestamp":"2018-03-11T06:41:21Z","version":2,"changeset":57073996,"user":"Sagarsubedi205","uid":7632456}},"geometry":{"type":"Point","coordinates":[83.97258415,28.196880224999997]}},{"type":"Feature","id":"way/452000101","properties":{"type":"way","id":452000101,"tags":{"building":"yes","name":"Nepal Red Cross Society, Rakhi Sub Chapter","office":"ngo","own":"building","phone":"9856030725. 9856022117"},"relations":[],"meta":{"timestamp":"2016-11-08T06:02:57Z","version":1,"changeset":43479477,"user":"Ro Sun","uid":3112087}},"geometry":{"type":"Point","coordinates":[84.0383949,28.18999885]}},{"type":"Feature","id":"way/457876154","properties":{"type":"way","id":457876154,"tags":{"addr:city":"Pokhara","addr:country":"NP","addr:housenumber":"6","addr:postcode":"00977","addr:street":"Dihikopatan, Lakeside","amenity":"shelter","building":"yes","contact:phone":"061-462089, 9856027599","contact:website":"www.orphancarenepal.org","name":"Rainbow Children Home","office":"ngo","short_name":"Rainbow Children Home","social_facility":"group_home","social_facility:for":"children","source":"GPS","start_date":"2064"},"relations":[],"meta":{"timestamp":"2017-09-24T20:31:16Z","version":4,"changeset":52338710,"user":"ChrissW-R1","uid":251543}},"geometry":{"type":"Point","coordinates":[83.96027752500001,28.214341525000002]}},{"type":"Feature","id":"way/471428666","properties":{"type":"way","id":471428666,"tags":{"addr:street":"Rambazar-15, Pokhara","alt_name":"SOS","amenity":"shelter","contact:phone":"061-431095, 9846036658","name":"SOS Children Village Gandaki","office":"ngo","personnel:count":"35","social_facility":"group_home","social_facility:for":"Children","source":"2cpokhara","start_date":"2035","student:count":"154","website":"www.sosnepal.org.np"},"relations":[],"meta":{"timestamp":"2018-04-04T05:17:54Z","version":4,"changeset":57791152,"user":"Manoj Thapa","uid":781054}},"geometry":{"type":"Point","coordinates":[83.9882940923077,28.201188600000002]}},{"type":"Feature","id":"way/471442223","properties":{"type":"way","id":471442223,"tags":{"addr:street":"Indramarga--10, Pokhara","amenity":"social_facility","building":"yes","contact:phone":"061-431918, 9806647950","name":"Tiny Hands Nepal(Bethany Children home)","office":"ngo","social_facility":"group_home","social_facility:for":"children","source":"GPS Survey"},"relations":[],"meta":{"timestamp":"2017-02-17T05:54:22Z","version":2,"changeset":46155332,"user":"Alisha12","uid":4204463}},"geometry":{"type":"Point","coordinates":[83.99304735,28.203157824999998]}},{"type":"Feature","id":"way/471710628","properties":{"type":"way","id":471710628,"tags":{"addr:street":"Malepatan-5, Pokhara","amenity":"shelter","building":"yes","contact:phone":"9804148794","name":"The Love Company Children Home","office":"ngo","social_facility":"group_home","social_facility:for":"children","source":"GPS","website":"www.teachnepalikids.org"},"relations":[],"meta":{"timestamp":"2017-02-17T06:15:03Z","version":2,"changeset":46155607,"user":"Alisha12","uid":4204463}},"geometry":{"type":"Point","coordinates":[83.9710819,28.216975325]}},{"type":"Feature","id":"way/471715259","properties":{"type":"way","id":471715259,"tags":{"addr:street":"Shantidarsan marga, Nayabazar-9, Pokhara","alt_name":"CBRS Nepal","amenity":"social_facility","building":"yes","contact:email":"cbrsnepal@gmail.com","contact:phone":"061-537326, 9856025511","name":"Community Based Rehailitation Service (CBRS)-Nepal","office":"ngo","social_facility":"group_home","social_facility:for":"children","source":"GPS","start_date":"2051"},"relations":[],"meta":{"timestamp":"2017-02-17T05:54:20Z","version":2,"changeset":46155332,"user":"Alisha12","uid":4204463}},"geometry":{"type":"Point","coordinates":[83.99049545,28.2127305]}},{"type":"Feature","id":"way/485061521","properties":{"type":"way","id":485061521,"tags":{"name":"Himali Bal Kalyan","office":"ngo"},"relations":[],"meta":{"timestamp":"2017-04-06T07:21:49Z","version":1,"changeset":47497377,"user":"Ro Sun","uid":3112087}},"geometry":{"type":"Point","coordinates":[83.92623159166668,28.23409464166667]}},{"type":"Feature","id":"way/514380812","properties":{"type":"way","id":514380812,"tags":{"add:city":"Pokhara Lekhanath Municipality","addr:place":"Radha Krishna Tole","amenity":"building","name":"Jayashree Radha Krishna Aama Samuha","office":"ngo"},"relations":[],"meta":{"timestamp":"2017-12-26T09:52:13Z","version":3,"changeset":54925234,"user":"Ro Sun","uid":3112087}},"geometry":{"type":"Point","coordinates":[84.0150794,28.177484799999995]}},{"type":"Feature","id":"way/514670783","properties":{"type":"way","id":514670783,"tags":{"name":"Adarsha Jestha Nagarik samuha","office":"ngo","operator":"Community"},"relations":[],"meta":{"timestamp":"2017-12-10T05:48:42Z","version":2,"changeset":54502502,"user":"Ro Sun","uid":3112087}},"geometry":{"type":"Point","coordinates":[83.91222235000001,28.20718075]}},{"type":"Feature","id":"way/515137757","properties":{"type":"way","id":515137757,"tags":{"name":"Sunaulo Bihani Nepal","office":"ngo","opening_hours":"Mo-Fr 10:00-16:00","operator":"Community"},"relations":[],"meta":{"timestamp":"2018-05-20T10:27:23Z","version":2,"changeset":59119731,"user":"Ro Sun","uid":3112087}},"geometry":{"type":"Point","coordinates":[84.08343115,28.133250000000004]}},{"type":"Feature","id":"way/564066955","properties":{"type":"way","id":564066955,"tags":{"name":"Hency Nepal","office":"ngo","phone":"9804183649"},"relations":[],"meta":{"timestamp":"2018-02-25T13:43:39Z","version":1,"changeset":56661427,"user":"Bijay adhikari","uid":7643850}},"geometry":{"type":"Point","coordinates":[83.92125354999999,28.294762374999998]}},{"type":"Feature","id":"way/566556687","properties":{"type":"way","id":566556687,"tags":{"amenity":"shelter","contact:phone":"061-432087, 9856021343","name":"Child Welfare Scheme Nepal under JPDP","office":"ngo","opening_hours":"Su-Fr 10:00-16:00","personnel:count":"9","social_facility":"group_home","social_facility:for":"Street Children","source":"2cpokhara","student:count":"21","website":"www.cwsn.org"},"relations":[],"meta":{"timestamp":"2018-03-05T07:43:14Z","version":1,"changeset":56893268,"user":"Abash Paudel","uid":6677482}},"geometry":{"type":"Point","coordinates":[83.98689621000001,28.2001873]}},{"type":"Feature","id":"way/566577183","properties":{"type":"way","id":566577183,"tags":{"amenity":"shelter","contact:email":"chanmanshreemal1@gmail.com","contact:phone":"061-431814","name":"Himalayan Life Nepal","office":"ngo","personnel:count":"24","social_facility":"Rehabilitation","social_facility:for":"Children and Youths","source":"2cpokhara"},"relations":[],"meta":{"timestamp":"2018-04-10T06:33:20Z","version":3,"changeset":57961051,"user":"Manoj Thapa","uid":781054}},"geometry":{"type":"Point","coordinates":[83.98826529,28.198327820000003]}},{"type":"Feature","id":"way/566944561","properties":{"type":"way","id":566944561,"tags":{"name":"SOS Bahini Eco Village","office":"ngo","opening_hours":"6:00-18:00","phone":"061535602"},"relations":[],"meta":{"timestamp":"2018-04-11T05:41:42Z","version":2,"changeset":57992297,"user":"Manoj Thapa","uid":781054}},"geometry":{"type":"Point","coordinates":[83.96945794999999,28.213700199999995]}},{"type":"Feature","id":"way/567218477","properties":{"type":"way","id":567218477,"tags":{"email":"bahinieducare@gmail.com","name":"Bahini Educare Foundation","office":"ngo","phone":"061-533195","source":"2c pokhara","website":"www.bahinifoundation.org"},"relations":[],"meta":{"timestamp":"2018-03-07T02:57:49Z","version":1,"changeset":56954232,"user":"Active Asmita","uid":7644107}},"geometry":{"type":"Point","coordinates":[83.9702206,28.21877755]}},{"type":"Feature","id":"way/567467525","properties":{"type":"way","id":567467525,"tags":{"ESTD":"1997","amenity":"training center","name":"Jyoti Vocational Training Center Rameshwor Marg","office":"ngo","source":"2cpokhara"},"relations":[],"meta":{"timestamp":"2018-03-25T08:09:37Z","version":2,"changeset":57502116,"user":"Ro Sun","uid":3112087}},"geometry":{"type":"Point","coordinates":[83.97275847499999,28.181657650000002]}},{"type":"Feature","id":"way/586494543","properties":{"type":"way","id":586494543,"tags":{"name":"Annapurna Conservation Area Project","office":"ngo","operator":"National Trust for Nature Conservation","source":"2cpokhara"},"relations":[],"meta":{"timestamp":"2018-05-08T07:07:14Z","version":1,"changeset":58778615,"user":"Abash Paudel","uid":6677482}},"geometry":{"type":"Point","coordinates":[83.990613975,28.192417374999998]}},{"type":"Feature","id":"node/2824319092","properties":{"type":"node","id":2824319092,"tags":{"addr:city":"Pokhara","description":"HIC, STI , EPC and FP service available","name":"Naulo Ghumti Nepal( EIHS Project Site)","name:ne":"नौलो घुम्ती नेपाल","office":"ngo","smoking":"no"},"relations":[],"meta":{"timestamp":"2016-08-19T11:38:19Z","version":3,"changeset":41554221,"user":"Alisha12","uid":4204463}},"geometry":{"type":"Point","coordinates":[83.9868986,28.2174219]}},{"type":"Feature","id":"node/4064818800","properties":{"type":"node","id":4064818800,"tags":{"building":"INF","name":"Internation Fellowship Nepal","name:ne":"अन्तराष्ट्रिय फेलो सिप नेपाल","office":"ngo","opening_hours":"8"},"relations":[],"meta":{"timestamp":"2016-08-12T07:30:28Z","version":4,"changeset":41404491,"user":"Parassrest","uid":3569249}},"geometry":{"type":"Point","coordinates":[83.985444,28.2442794]}},{"type":"Feature","id":"node/4076237761","properties":{"type":"node","id":4076237761,"tags":{"addr:city":"Pokhara","addr:street":"Bagaletol-8, Pokhara","amenity":"social_facility","contact:phone":"061-521433, 9856029746","name":"Siddhartha Club","name:ne":"सिद्दार्थ क्लब","office":"ngo","personal:count":"14","social_facility":"group_home","source":"GPS","start_date":"2041","website":"www.siddharthaclub.org.np"},"relations":[],"meta":{"timestamp":"2017-02-17T06:23:42Z","version":5,"changeset":46155740,"user":"Alisha12","uid":4204463}},"geometry":{"type":"Point","coordinates":[83.9838258,28.2207613]}},{"type":"Feature","id":"node/4181818875","properties":{"type":"node","id":4181818875,"tags":{"email":"bahinieducare@gmail.com","name":"Bahini Educare Foundation","office":"ngo","phone":"061-533195","source":"2c pokhara","website":"www.bahinifoundation.org"},"relations":[],"meta":{"timestamp":"2018-03-07T02:57:49Z","version":3,"changeset":56954232,"user":"Active Asmita","uid":7644107}},"geometry":{"type":"Point","coordinates":[83.9702685,28.2188073]}},{"type":"Feature","id":"node/4225212547","properties":{"type":"node","id":4225212547,"tags":{"name":"Janachatana bikash kendra","name:ne":"जनचेतना विकास केन्द्र","office":"ngo"},"relations":[],"meta":{"timestamp":"2016-09-25T10:49:25Z","version":2,"changeset":42420586,"user":"Ro Sun","uid":3112087}},"geometry":{"type":"Point","coordinates":[83.9929585,28.2073403]}},{"type":"Feature","id":"node/4296155925","properties":{"type":"node","id":4296155925,"tags":{"addr:street":"Phewa Marga, Phirke-8, Pokhara","alt_name":"CWES","amenity":"social_facility","contact:email":"cwesn_kaski@gmail.com","contact:phone":"061-551367, 9846143330","name":"USAid (Child And Women Empourment Society Nepal)","name:ne":"अन्तर्राष्ट्रिय विकास लागि संयुक्त राज्य अमेरिका एजेन्सी ( वाल महिला सशक्तिकरण समाज नेपाल )","office":"ngo","personal:count":"25","social_facility":"group_home","social_facility:for":"children,women","source":"GPS","start_date":"2055"},"relations":[],"meta":{"timestamp":"2017-02-17T06:08:54Z","version":4,"changeset":46155515,"user":"Alisha12","uid":4204463}},"geometry":{"type":"Point","coordinates":[83.9778569,28.2124797]}},{"type":"Feature","id":"node/4298056097","properties":{"type":"node","id":4298056097,"tags":{"name":"Institute For Social And Environmental Research Nepal","name:ne":"सामाजिक एंड वाताओरनिय अनुसन्धान संस्था नेपाल","office":"ngo"},"relations":[],"meta":{"timestamp":"2016-09-13T08:41:15Z","version":2,"changeset":42119390,"user":"Bishal9841","uid":3573216}},"geometry":{"type":"Point","coordinates":[84.0024202,28.2083503]}},{"type":"Feature","id":"node/4350850026","properties":{"type":"node","id":4350850026,"tags":{"addr:city":"Pokhara Lekthnath Metropolitan City","addr:street":"Dhungasaghu-Tutunga, Pokhara","contact:phone":"061-229821","email":"lightofpokhara@gmail.com","estd:":"2014","name":"Light Of Pokhara","name:ne":"लाइट अफ पोखरा","office":"ngo","operator":"private","personnel:count":"8","social_facility:for":"children","start_date":"2070"},"relations":[],"meta":{"timestamp":"2018-04-15T10:41:24Z","version":7,"changeset":58107161,"user":"Manoj Thapa","uid":781054}},"geometry":{"type":"Point","coordinates":[83.9941771,28.1795937]}},{"type":"Feature","id":"node/4419914583","properties":{"type":"node","id":4419914583,"tags":{"addr:street":"Prithvichowk-8, Pokhara","amenity":"social_centre","contact:email":"saharaclubpokhara@gmail.com","contact:phone":"061- 532561, 551051, 061-551051, 9856055410","name":"Sahara Club Pokhara","office":"ngo","start_date":"2055"},"relations":[],"meta":{"timestamp":"2017-02-09T16:04:38Z","version":4,"changeset":45951018,"user":"Manoj Thapa","uid":781054}},"geometry":{"type":"Point","coordinates":[83.9876377,28.2093332]}},{"type":"Feature","id":"node/4464492745","properties":{"type":"node","id":4464492745,"tags":{"name":"Nepal Redcross Society, Pokhara 14 sub-chapter","office":"ngo","phone":"9846350457"},"relations":[],"meta":{"timestamp":"2016-10-26T07:53:15Z","version":2,"changeset":43184527,"user":"Dev Narayan Paudel","uid":3715290}},"geometry":{"type":"Point","coordinates":[84.0228261,28.1781254]}},{"type":"Feature","id":"node/4464502819","properties":{"type":"node","id":4464502819,"tags":{"name":"Nepal Red Cross Society, Pokhara Sub Chapter 18","office":"ngo","phone":"9856021466"},"relations":[],"meta":{"timestamp":"2016-10-26T07:58:24Z","version":1,"changeset":43184629,"user":"Dev Narayan Paudel","uid":3715290}},"geometry":{"type":"Point","coordinates":[84.0138369,28.1816092]}},{"type":"Feature","id":"node/4464509162","properties":{"type":"node","id":4464509162,"tags":{"name":"Nepal Red Cross Society, Pokhara Sub Chapter 1","office":"ngo","phone":"9846020432"},"relations":[],"meta":{"timestamp":"2016-10-26T08:06:24Z","version":1,"changeset":43184817,"user":"Dev Narayan Paudel","uid":3715290}},"geometry":{"type":"Point","coordinates":[83.9863786,28.2417275]}},{"type":"Feature","id":"node/4464552257","properties":{"type":"node","id":4464552257,"tags":{"name":"Nepal Red Cross Society, Pokhara Sub Chapter 12,13","note":"own building","office":"ngo","phone":"9856025189"},"relations":[],"meta":{"timestamp":"2016-10-26T08:44:41Z","version":1,"changeset":43185553,"user":"Dev Narayan Paudel","uid":3715290}},"geometry":{"type":"Point","coordinates":[84.0028261,28.213735]}},{"type":"Feature","id":"node/4464552258","properties":{"type":"node","id":4464552258,"tags":{"name":"Nepal Red Cross Society, Pokhara Sub Chapter 16","office":"ngo","phone":"9846043904"},"relations":[],"meta":{"timestamp":"2016-10-26T08:44:41Z","version":1,"changeset":43185553,"user":"Dev Narayan Paudel","uid":3715290}},"geometry":{"type":"Point","coordinates":[83.9790389,28.2634617]}},{"type":"Feature","id":"node/4464552259","properties":{"type":"node","id":4464552259,"tags":{"name":"Nepal Red Cross Society, Pokhara Sub Chapter 2,3","office":"ngo","phone":"9856025145"},"relations":[],"meta":{"timestamp":"2016-10-26T08:44:41Z","version":1,"changeset":43185553,"user":"Dev Narayan Paudel","uid":3715290}},"geometry":{"type":"Point","coordinates":[83.9824661,28.2384613]}},{"type":"Feature","id":"node/4464552260","properties":{"type":"node","id":4464552260,"tags":{"name":"Nepal Red Cross Society, Pokhara Sub Chapter 4","office":"ngo","phone":"9846048281"},"relations":[],"meta":{"timestamp":"2016-10-26T08:44:41Z","version":1,"changeset":43185553,"user":"Dev Narayan Paudel","uid":3715290}},"geometry":{"type":"Point","coordinates":[83.9849586,28.2271313]}},{"type":"Feature","id":"node/4464552262","properties":{"type":"node","id":4464552262,"tags":{"name":"Nepal Red Cross Society, Pokhara Sub Chapter 6","office":"ngo","phone":"9846024725"},"relations":[],"meta":{"timestamp":"2016-10-26T08:44:42Z","version":1,"changeset":43185553,"user":"Dev Narayan Paudel","uid":3715290}},"geometry":{"type":"Point","coordinates":[83.962491,28.2096555]}},{"type":"Feature","id":"node/4464552263","properties":{"type":"node","id":4464552263,"tags":{"name":"Nepal Red Cross Society, Kaski District Chapter","note":"own building","office":"ngo","phone":"9846141229"},"relations":[],"meta":{"timestamp":"2017-12-08T07:08:44Z","version":3,"changeset":54450942,"user":"Bharat Raj Bhat","uid":4930254}},"geometry":{"type":"Point","coordinates":[83.9812411,28.2129206]}},{"type":"Feature","id":"node/4464552264","properties":{"type":"node","id":4464552264,"tags":{"name":"Nepal Red Cross Society, Pokhara Sub Chapter 9","office":"ngo","phone":"9856023602"},"relations":[],"meta":{"timestamp":"2016-10-26T08:44:42Z","version":1,"changeset":43185553,"user":"Dev Narayan Paudel","uid":3715290}},"geometry":{"type":"Point","coordinates":[83.9905509,28.2195858]}},{"type":"Feature","id":"node/4464562024","properties":{"type":"node","id":4464562024,"tags":{"name":"Nepal Red Cross Society, Valam Sub Chapter 20","note":"own building","office":"ngo","phone":"9846036047, 9746058614"},"relations":[],"meta":{"timestamp":"2016-10-26T08:57:17Z","version":1,"changeset":43185778,"user":"Dev Narayan Paudel","uid":3715290}},"geometry":{"type":"Point","coordinates":[84.0094095,28.2547097]}},{"type":"Feature","id":"node/4464588925","properties":{"type":"node","id":4464588925,"tags":{"name":"Nepal Red Cross Society, Kristi NachnechaurSub Chapter 24","note":"own building","office":"ngo","phone":"9805849882, 9746066887"},"relations":[],"meta":{"timestamp":"2016-10-26T09:24:09Z","version":1,"changeset":43186299,"user":"Dev Narayan Paudel","uid":3715290}},"geometry":{"type":"Point","coordinates":[83.9494666,28.1851809]}},{"type":"Feature","id":"node/4464588926","properties":{"type":"node","id":4464588926,"tags":{"amenity":"ward office","contact:phone":"9856025154","name":"Nepal Red Cross Society, Nirmal Pokhari Sub Chapter 23","office":"ngo"},"relations":[],"meta":{"timestamp":"2018-04-14T15:06:32Z","version":4,"changeset":58091309,"user":"Amrit Devkota","uid":6497064}},"geometry":{"type":"Point","coordinates":[83.9983649,28.1526296]}},{"type":"Feature","id":"node/4464588927","properties":{"type":"node","id":4464588927,"tags":{"name":"Nepal Red Cross Society, Phumdubhumdi Sub Chapter 25","office":"ngo","phone":"9856032805, 9856029652"},"relations":[],"meta":{"timestamp":"2016-10-26T09:24:10Z","version":1,"changeset":43186299,"user":"Dev Narayan Paudel","uid":3715290}},"geometry":{"type":"Point","coordinates":[83.9310462,28.1877933]}},{"type":"Feature","id":"node/4464592274","properties":{"type":"node","id":4464592274,"tags":{"name":"Nepal Red Cross Society, Sarangkot Sub Chapter 26","name:ne":"नेपाल रेड क्रस सोसाइटी,साराडकोट सब च्यापटर,२६","office":"ngo","phone":"9846059066, 9846031452"},"relations":[],"meta":{"timestamp":"2016-11-04T09:49:16Z","version":2,"changeset":43397629,"user":"Bishal9841","uid":3573216}},"geometry":{"type":"Point","coordinates":[83.9768312,28.2422686]}},{"type":"Feature","id":"node/4464618245","properties":{"type":"node","id":4464618245,"tags":{"name":"Nepal Red Cross Society, Lumle Sub Chapter","office":"ngo","phone":"9746007814"},"relations":[],"meta":{"timestamp":"2016-10-26T09:49:40Z","version":1,"changeset":43187102,"user":"Dev Narayan Paudel","uid":3715290}},"geometry":{"type":"Point","coordinates":[83.8033415,28.2975792]}},{"type":"Feature","id":"node/4464641092","properties":{"type":"node","id":4464641092,"tags":{"name":"Red Cross Society, Chapakot Sub Chapter","office":"ngo","phone":"9804132696, 9806600289"},"relations":[],"meta":{"timestamp":"2016-10-26T10:14:31Z","version":1,"changeset":43187876,"user":"Dev Narayan Paudel","uid":3715290}},"geometry":{"type":"Point","coordinates":[83.9037731,28.2421989]}},{"type":"Feature","id":"node/4464650221","properties":{"type":"node","id":4464650221,"tags":{"name":"Red Cross Society, Ghachowk Sub Chapter","office":"ngo","phone":"9846066333"},"relations":[],"meta":{"timestamp":"2017-05-02T05:45:54Z","version":2,"changeset":48323925,"user":"Alisha12","uid":4204463}},"geometry":{"type":"Point","coordinates":[83.9510893,28.3285086]}},{"type":"Feature","id":"node/4464650222","properties":{"type":"node","id":4464650222,"tags":{"name":"Red Cross Society, Kaskikot Sub Chapter","name:ne":"रेड क्रस सोसाइटी,कासीकोट सब च्यापटर","office":"ngo","phone":"9804134612"},"relations":[],"meta":{"timestamp":"2017-12-10T05:02:33Z","version":3,"changeset":54502091,"user":"Ro Sun","uid":3112087}},"geometry":{"type":"Point","coordinates":[83.9079182,28.2662876]}},{"type":"Feature","id":"node/4464650223","properties":{"type":"node","id":4464650223,"tags":{"name":"Red Cross Society, Purunchaur Sub Chapter","note":"own building","office":"ngo","phone":"9846268593"},"relations":[],"meta":{"timestamp":"2016-10-26T10:30:29Z","version":1,"changeset":43188444,"user":"Dev Narayan Paudel","uid":3715290}},"geometry":{"type":"Point","coordinates":[83.9512355,28.291362]}},{"type":"Feature","id":"node/4464675752","properties":{"type":"node","id":4464675752,"tags":{"name":"Red Cross Society, Lahachowk Sub Chapter","office":"ngo","phone":"9846066160"},"relations":[],"meta":{"timestamp":"2016-10-26T10:47:10Z","version":1,"changeset":43189125,"user":"Dev Narayan Paudel","uid":3715290}},"geometry":{"type":"Point","coordinates":[83.9257702,28.3080185]}},{"type":"Feature","id":"node/4464675753","properties":{"type":"node","id":4464675753,"tags":{"name":"Red Cross Society, Shardikhola Sub Chapter","note":"own building","office":"ngo","phone":"9746031163"},"relations":[],"meta":{"timestamp":"2016-10-26T10:47:11Z","version":1,"changeset":43189125,"user":"Dev Narayan Paudel","uid":3715290}},"geometry":{"type":"Point","coordinates":[83.9635173,28.3364058]}},{"type":"Feature","id":"node/4488027403","properties":{"type":"node","id":4488027403,"tags":{"name":"Nepal Red Cross Society, Kalikai Sub Chapter","office":"ngo","phone":"9846049223, 9846077337"},"relations":[],"meta":{"timestamp":"2016-11-08T06:02:57Z","version":1,"changeset":43479477,"user":"Ro Sun","uid":3112087}},"geometry":{"type":"Point","coordinates":[84.0747977,28.2142461]}},{"type":"Feature","id":"node/4488027404","properties":{"type":"node","id":4488027404,"tags":{"name":"Nepal Red Cross Society, Majhathana Sub Chapter","office":"ngo","own":"building","phone":"9841503548, 9804184888"},"relations":[],"meta":{"timestamp":"2016-11-08T06:02:57Z","version":1,"changeset":43479477,"user":"Ro Sun","uid":3112087}},"geometry":{"type":"Point","coordinates":[84.0777389,28.2423064]}},{"type":"Feature","id":"node/4488075627","properties":{"type":"node","id":4488075627,"tags":{"amenity":"hospital","name":"Nepal Red Cross Society, Nsmsrjung Sub Chapter","note":"on community building","office":"ngo","phone":"9846048117, 9856032614"},"relations":[],"meta":{"timestamp":"2018-01-31T18:56:59Z","version":3,"changeset":55943008,"user":"alexandrebc","uid":4023025}},"geometry":{"type":"Point","coordinates":[84.1107204,28.3296534]}},{"type":"Feature","id":"node/4488075628","properties":{"type":"node","id":4488075628,"tags":{"name":"Nepal Red Cross Society, Thumakodanda Sub Chapter","office":"ngo","phone":"9846323622,9856036538"},"relations":[],"meta":{"timestamp":"2016-11-08T06:29:44Z","version":1,"changeset":43479781,"user":"Ro Sun","uid":3112087}},"geometry":{"type":"Point","coordinates":[84.0916856,28.2398847]}},{"type":"Feature","id":"node/4488166033","properties":{"type":"node","id":4488166033,"tags":{"name":"Nepal Red Cross Society, Lekhnath 10 Sub Chapter","note":"own Building","office":"ngo","phone":"9846224916, 9856050829"},"relations":[],"meta":{"timestamp":"2017-03-31T04:40:24Z","version":3,"changeset":47312467,"user":"Ro Sun","uid":3112087}},"geometry":{"type":"Point","coordinates":[84.130011,28.1829367]}},{"type":"Feature","id":"node/4488166034","properties":{"type":"node","id":4488166034,"tags":{"name":"Nepal Red Cross Society, Lekhnath 13 Sub Chapter","office":"ngo","place":"9856024034, 9846463020"},"relations":[],"meta":{"timestamp":"2016-11-08T07:38:47Z","version":1,"changeset":43480722,"user":"Ro Sun","uid":3112087}},"geometry":{"type":"Point","coordinates":[84.123795,28.1704074]}},{"type":"Feature","id":"node/4488166035","properties":{"type":"node","id":4488166035,"tags":{"description":"on joint building with community","name":"Nepal Red Cross Society, Lekhnath 9,11 Pachavaiya Sub Chapter","office":"ngo","place":"9846392224,9856030338"},"relations":[],"meta":{"timestamp":"2017-01-15T09:45:02Z","version":2,"changeset":45186388,"user":"Manoj Thapa","uid":781054}},"geometry":{"type":"Point","coordinates":[84.1004598,28.1610767]}},{"type":"Feature","id":"node/4488166037","properties":{"type":"node","id":4488166037,"tags":{"name":"Nepal Red Cross Society, Sildujure Sub Chapter","note":"VDC contact office","office":"ngo","place":"9817189032, 9846522581"},"relations":[],"meta":{"timestamp":"2016-11-08T07:38:47Z","version":1,"changeset":43480722,"user":"Ro Sun","uid":3112087}},"geometry":{"type":"Point","coordinates":[84.0732461,28.2596995]}},{"type":"Feature","id":"node/4488166038","properties":{"type":"node","id":4488166038,"tags":{"name":"Nepal Red Cross Society, Sisuwa Sub Chapter","office":"ngo","place":"9846020742,9846038829"},"relations":[],"meta":{"timestamp":"2017-05-10T07:13:24Z","version":2,"changeset":48553089,"user":"Gaurav Thapa","uid":4212590}},"geometry":{"type":"Point","coordinates":[84.0831662,28.1331833]}},{"type":"Feature","id":"node/4488192561","properties":{"type":"node","id":4488192561,"tags":{"name":"Nepal Red Cross Society, Bharatpokhari Sub Chapter","note":"on community building","office":"ngo","phone":"9846025491, 9846025847"},"relations":[],"meta":{"timestamp":"2016-11-08T07:52:14Z","version":1,"changeset":43480931,"user":"Ro Sun","uid":3112087}},"geometry":{"type":"Point","coordinates":[84.0528801,28.1380692]}},{"type":"Feature","id":"node/4641762788","properties":{"type":"node","id":4641762788,"tags":{"addr:street":"Hariyali marga, Nayagaun-15, Pokhara","alt_name":"LIS Nepal","contact:email":"www.lilsociety.org.np","contact:phone":"061-430562","name":"Swawolamban Jiban Paddati Samaj Nepal","name:ne":"स्वावलम्बन जिबन पद्दती समाज नेपाल","office":"ngo","personnel:count":"6","start_date":"2062"},"relations":[],"meta":{"timestamp":"2017-02-17T04:49:32Z","version":4,"changeset":46154429,"user":"Alisha12","uid":4204463}},"geometry":{"type":"Point","coordinates":[83.9899378,28.1933839]}},{"type":"Feature","id":"node/4658657118","properties":{"type":"node","id":4658657118,"tags":{"addr:street":"Lalupate marga, Lakeside-6,Pokhara","alt_name":"Butterfly Foundation","amenity":"social_facility","contact:phone":"061-461481, 9856023384","name":"Shree Butterfly foundation Nepal","office":"ngo","personal:count":"10","social_facility":"group_home","social_facility:for":"children,women","source":"GPS","start_date":"2060","website":"www.butterflyfoudation.org"},"relations":[],"meta":{"timestamp":"2017-02-17T06:08:54Z","version":2,"changeset":46155515,"user":"Alisha12","uid":4204463}},"geometry":{"type":"Point","coordinates":[83.9639092,28.2050697]}},{"type":"Feature","id":"node/4658665116","properties":{"type":"node","id":4658665116,"tags":{"addr:street":"Ambot, Lakeside-6, Pokhara","alt_name":"Buddha Children Library","amenity":"library","contact:phone":"061-465228","name":"Buddha Children Mobile Library","office":"ngo","social_facility":"group_home","social_facility:for":"children","source":"GPS","start_date":"2060","website":"www.hbf.org.np"},"relations":[],"meta":{"timestamp":"2017-02-17T06:08:54Z","version":2,"changeset":46155515,"user":"Alisha12","uid":4204463}},"geometry":{"type":"Point","coordinates":[83.963912,28.2050884]}},{"type":"Feature","id":"node/4658879395","properties":{"type":"node","id":4658879395,"tags":{"addr:street":"Kanya margha-3, Pokhara","amenity":"social_facility","name":"Bal Tatha Mahila Sasakti Karan Nepal","office":"ngo","social_facility":"group_home","social_facility:for":"children,women","source":"GPS"},"relations":[],"meta":{"timestamp":"2017-02-17T06:34:05Z","version":2,"changeset":46155901,"user":"Alisha12","uid":4204463}},"geometry":{"type":"Point","coordinates":[83.9893324,28.2323246]}},{"type":"Feature","id":"node/4658976906","properties":{"type":"node","id":4658976906,"tags":{"addr:street":"Simpani , Bagar-1, Pokhara","amenity":"social_facility","name":"Pravabh","office":"ngo","social_facility":"group_home","social_facility:for":"children","source":"GPS"},"relations":[],"meta":{"timestamp":"2017-02-17T06:29:38Z","version":2,"changeset":46155816,"user":"Alisha12","uid":4204463}},"geometry":{"type":"Point","coordinates":[83.9853315,28.2438903]}},{"type":"Feature","id":"node/4976721265","properties":{"type":"node","id":4976721265,"tags":{"name":"Masina tole developement office","office":"ngo","phone":"61505039"},"relations":[],"meta":{"timestamp":"2017-07-18T07:11:47Z","version":1,"changeset":50370515,"user":"friedtea15","uid":6124003}},"geometry":{"type":"Point","coordinates":[84.022197,28.1673725]}},{"type":"Feature","id":"node/4976721266","properties":{"type":"node","id":4976721266,"tags":{"name":"Shree Bhagawati Aama Samuha","office":"ngo"},"relations":[],"meta":{"timestamp":"2017-07-18T07:11:47Z","version":1,"changeset":50370515,"user":"friedtea15","uid":6124003}},"geometry":{"type":"Point","coordinates":[84.022146,28.1673229]}},{"type":"Feature","id":"node/5021951399","properties":{"type":"node","id":5021951399,"tags":{"addr:city":"Pokhara Lekhnath M.City","addr:place":"Lamachaur Chwok","addr:street":"Lamachaur Bhandaridahar Marga","email":"nacodsnepal@gmail.com","name":"Nawa Aadarsha Community Development Society","office":"ngo","opening_hours":"8:00-16:00","operator":"Community","phone":"61-441206","website":"www.nac.org.np"},"relations":[],"meta":{"timestamp":"2017-08-08T09:55:58Z","version":1,"changeset":50939272,"user":"Delta Bravo123","uid":6447837}},"geometry":{"type":"Point","coordinates":[83.9705168,28.260133]}},{"type":"Feature","id":"node/5024627806","properties":{"type":"node","id":5024627806,"tags":{"addr:city":"Pokhara Lekhnath M.City","addr:district":"Kaski","addr:place":"Lamachaur","addr:street":"Chaur","name":"Redcross, Lamachaur Upashakha","office":"ngo","opening_hours":"Mo- Sa 10:00-14:00","operator":"Community Based","phone":"9856031337"},"relations":[],"meta":{"timestamp":"2017-12-10T05:18:28Z","version":2,"changeset":54502245,"user":"Ro Sun","uid":3112087}},"geometry":{"type":"Point","coordinates":[83.9666913,28.2652784]}},{"type":"Feature","id":"node/5024627807","properties":{"type":"node","id":5024627807,"tags":{"addr:city":"Pokhara Lekhnath M.City","addr:district":"Kaski","addr:place":"Lamachaur","addr:street":"Chaur","name":"Lamachaur Disabled Independent Society Nepal","office":"ngo","opening_hours":"Su-Sa 6:00-9:00","operator":"Community Based"},"relations":[],"meta":{"timestamp":"2017-12-10T05:18:28Z","version":2,"changeset":54502245,"user":"Ro Sun","uid":3112087}},"geometry":{"type":"Point","coordinates":[83.9667343,28.2653127]}},{"type":"Feature","id":"node/5027853717","properties":{"type":"node","id":5027853717,"tags":{"addr:place":"Kharani Phat","name":"Khaste & Neurani Tal Samrachyan Bikas Samiti","office":"ngo"},"relations":[],"meta":{"timestamp":"2017-12-04T10:23:54Z","version":2,"changeset":54324635,"user":"Ro Sun","uid":3112087}},"geometry":{"type":"Point","coordinates":[84.052861,28.1876999]}},{"type":"Feature","id":"node/5040575638","properties":{"type":"node","id":5040575638,"tags":{"name":"Devi's Fall Club","office":"ngo"},"relations":[],"meta":{"timestamp":"2017-08-17T08:20:21Z","version":1,"changeset":51196961,"user":"rekhadhakal","uid":6485692}},"geometry":{"type":"Point","coordinates":[83.9577477,28.1898792]}},{"type":"Feature","id":"node/5040575639","properties":{"type":"node","id":5040575639,"tags":{"contact:phone":"9846153452","name":"Nepal Red Cross Society, Pokhara Sub Chapter 17","office":"ngo"},"relations":[],"meta":{"timestamp":"2017-08-17T08:20:21Z","version":1,"changeset":51196961,"user":"rekhadhakal","uid":6485692}},"geometry":{"type":"Point","coordinates":[83.9568066,28.1904049]}},{"type":"Feature","id":"node/5040575642","properties":{"type":"node","id":5040575642,"tags":{"addr:city":"Pokhara Lekhnath metropolitian City","addr:place":"chhorapatan","addr:street":"Simal Tuda Marga","name":"chhorapatan Bal Bikash Sasthan","office":"ngo","operator":"public"},"relations":[],"meta":{"timestamp":"2017-08-17T08:20:21Z","version":1,"changeset":51196961,"user":"rekhadhakal","uid":6485692}},"geometry":{"type":"Point","coordinates":[83.9487123,28.1911519]}},{"type":"Feature","id":"node/5100012342","properties":{"type":"node","id":5100012342,"tags":{"name":"Miteri Saskriti Samaj Kendra","office":"ngo","operator:type":"public","source":"2cpokhara"},"relations":[],"meta":{"timestamp":"2018-04-16T09:29:32Z","version":2,"changeset":58131817,"user":"sandip parajuli","uid":7668145}},"geometry":{"type":"Point","coordinates":[84.0376331,28.183901]}},{"type":"Feature","id":"node/5100059571","properties":{"type":"node","id":5100059571,"tags":{"name":"Rastriya Saichhik Tatha Samajik Bikash Sastha","office":"ngo"},"relations":[],"meta":{"timestamp":"2017-09-12T07:47:53Z","version":1,"changeset":51963558,"user":"Ashish Thapa","uid":4039113}},"geometry":{"type":"Point","coordinates":[84.0501979,28.1742455]}},{"type":"Feature","id":"node/5102457378","properties":{"type":"node","id":5102457378,"tags":{"name":"Rastriya Bhewasahik Pashupalan Thatha Dud Utpadan Krishak Samaj, Nepal","office":"ngo","operator:type":"private"},"relations":[],"meta":{"timestamp":"2017-09-13T05:37:04Z","version":1,"changeset":51992885,"user":"Ashish Thapa","uid":4039113}},"geometry":{"type":"Point","coordinates":[83.9968521,28.2071737]}},{"type":"Feature","id":"node/5103596995","properties":{"type":"node","id":5103596995,"tags":{"name":"Trekking Agencies Association Of Nepal","office":"ngo","operator:type":"private"},"relations":[],"meta":{"timestamp":"2017-09-13T16:00:12Z","version":1,"changeset":52011640,"user":"Ashish Thapa","uid":4039113}},"geometry":{"type":"Point","coordinates":[83.9656453,28.207192]}},{"type":"Feature","id":"node/5126760593","properties":{"type":"node","id":5126760593,"tags":{"name":"Human Rights Journalists Association ( HURJA),Nepal","name:ne":"मानवअधिकार पत्रकार संघ (हुर्जा)","office":"ngo","website":"https://www.facebook.com/Human-Rights-Journalists-Association-HURJANepal-163505470388432/"},"relations":[],"meta":{"timestamp":"2017-09-24T16:59:35Z","version":1,"changeset":52333630,"user":"SauravGautam","uid":3116122}},"geometry":{"type":"Point","coordinates":[83.9839856,28.2244387]}},{"type":"Feature","id":"node/5130457423","properties":{"type":"node","id":5130457423,"tags":{"name:en":"Tashiling Tibet Settlement","name:zh":"西藏難民營","office":"ngo"},"relations":[],"meta":{"timestamp":"2017-09-26T10:18:36Z","version":1,"changeset":52380665,"user":"Jade Kuo","uid":6713552}},"geometry":{"type":"Point","coordinates":[83.9567001,28.1882646]}},{"type":"Feature","id":"node/5157261869","properties":{"type":"node","id":5157261869,"tags":{"name":"Dalit Mahila Sangh","office":"ngo"},"relations":[],"meta":{"timestamp":"2017-10-09T15:31:47Z","version":1,"changeset":52763542,"user":"Ashish Thapa","uid":4039113}},"geometry":{"type":"Point","coordinates":[83.9822934,28.2321091]}},{"type":"Feature","id":"node/5242203230","properties":{"type":"node","id":5242203230,"tags":{"name":"National Educational and Social Development Organization (NESDO)","office":"ngo"},"relations":[],"meta":{"timestamp":"2017-11-22T05:46:41Z","version":1,"changeset":53991707,"user":"nishaadhikari","uid":3481073}},"geometry":{"type":"Point","coordinates":[84.0500508,28.1743027]}},{"type":"Feature","id":"node/5242353948","properties":{"type":"node","id":5242353948,"tags":{"name":"Dhaulagiri Community Resource Development Centre","office":"ngo","phone":"061560179"},"relations":[],"meta":{"timestamp":"2017-11-22T08:31:19Z","version":1,"changeset":53994414,"user":"nishaadhikari","uid":3481073}},"geometry":{"type":"Point","coordinates":[84.056862,28.1654504]}},{"type":"Feature","id":"node/5426062593","properties":{"type":"node","id":5426062593,"tags":{"name":"Jagaran Samudayik Vikas Kendra","office":"ngo"},"relations":[],"meta":{"timestamp":"2018-02-21T07:17:33Z","version":1,"changeset":56540814,"user":"Active Asmita","uid":7644107}},"geometry":{"type":"Point","coordinates":[83.9801534,28.2245264]}},{"type":"Feature","id":"node/5431594930","properties":{"type":"node","id":5431594930,"tags":{"name":"Indian EX gorkha Army contact office","office":"ngo"},"relations":[],"meta":{"timestamp":"2018-02-23T15:41:37Z","version":1,"changeset":56613303,"user":"Bijay adhikari","uid":7643850}},"geometry":{"type":"Point","coordinates":[83.9368893,28.2788058]}},{"type":"Feature","id":"node/5453944570","properties":{"type":"node","id":5453944570,"tags":{"name":"Smart View Nepal","office":"ngo","source":"2cpokhara"},"relations":[],"meta":{"timestamp":"2018-03-04T11:54:24Z","version":1,"changeset":56868714,"user":"Active Asmita","uid":7644107}},"geometry":{"type":"Point","coordinates":[83.9798232,28.2247537]}},{"type":"Feature","id":"node/5453998110","properties":{"type":"node","id":5453998110,"tags":{"contact:mail":"edventurenepal@gmail.com","name":"Edventure Nepal","office":"ngo","source":"2c pokhara"},"relations":[],"meta":{"timestamp":"2018-03-04T12:24:20Z","version":1,"changeset":56869383,"user":"Active Asmita","uid":7644107}},"geometry":{"type":"Point","coordinates":[83.9761889,28.2233331]}},{"type":"Feature","id":"node/5456987738","properties":{"type":"node","id":5456987738,"tags":{"name":"International Devlopment Enterprise Regional Office Pokhara","office":"ngo","opening_hours":"Su-Fr 10:00-16:00"},"relations":[],"meta":{"timestamp":"2018-04-08T11:08:53Z","version":2,"changeset":57910324,"user":"Ro Sun","uid":3112087}},"geometry":{"type":"Point","coordinates":[83.9730884,28.2027482]}},{"type":"Feature","id":"node/5457131902","properties":{"type":"node","id":5457131902,"tags":{"name":"Samudayek Melmilap Samaj Nepal","office":"ngo","opening_hours":"10:00-16:00"},"relations":[],"meta":{"timestamp":"2018-03-05T15:58:37Z","version":1,"changeset":56907757,"user":"LonelyNarayan","uid":7644124}},"geometry":{"type":"Point","coordinates":[83.9717956,28.2006804]}},{"type":"Feature","id":"node/5458045940","properties":{"type":"node","id":5458045940,"tags":{"name":"Construction Association Nepal Kaski","office":"ngo","opening_hours":"10:00-17:00","phone":"061465862"},"relations":[],"meta":{"timestamp":"2018-03-06T02:10:38Z","version":1,"changeset":56920528,"user":"LonelyNarayan","uid":7644124}},"geometry":{"type":"Point","coordinates":[83.9720544,28.2009168]}},{"type":"Feature","id":"node/5458045943","properties":{"type":"node","id":5458045943,"tags":{"name":"District Youth Forum Office","office":"ngo","opening_hours":"10:00-16:00","phone":"061462637"},"relations":[],"meta":{"timestamp":"2018-03-06T02:10:39Z","version":1,"changeset":56920528,"user":"LonelyNarayan","uid":7644124}},"geometry":{"type":"Point","coordinates":[83.9749217,28.2030064]}},{"type":"Feature","id":"node/5458108110","properties":{"type":"node","id":5458108110,"tags":{"name":"Civic Initative Centre State no.4","office":"ngo","opening_hours":"10:00-16:00"},"relations":[],"meta":{"timestamp":"2018-03-06T03:34:27Z","version":1,"changeset":56921363,"user":"LonelyNarayan","uid":7644124}},"geometry":{"type":"Point","coordinates":[83.9742887,28.2006261]}},{"type":"Feature","id":"node/5463724227","properties":{"type":"node","id":5463724227,"tags":{"contact:phone":"061-520664","name":"Organization for Community, Child & Environment Development","office":"ngo","source":"2c pokhara"},"relations":[],"meta":{"timestamp":"2018-03-08T07:05:13Z","version":1,"changeset":56989579,"user":"Active Asmita","uid":7644107}},"geometry":{"type":"Point","coordinates":[83.9869332,28.2293545]}},{"type":"Feature","id":"node/5470352000","properties":{"type":"node","id":5470352000,"tags":{"contact:email":"nesdo.birauta@gmail.com","contact:phone":"061-464013","name":"National Education & Social Development Organization, NESDO Nepal","name:ne":"राष्ट्रिय सैक्षिक तथा सामाजीक विकास संस्था","office":"ngo","source":"2cpokhara"},"relations":[],"meta":{"timestamp":"2018-04-23T06:39:32Z","version":2,"changeset":58328645,"user":"Manoj Thapa","uid":781054}},"geometry":{"type":"Point","coordinates":[83.9717352,28.1960762]}},{"type":"Feature","id":"node/5470524934","properties":{"type":"node","id":5470524934,"tags":{"contact:email":"gonesanep@yahoo.com","contact:phone":"061-464738","name":"Good Neighbour Service Association, Nepal","office":"ngo","source":"2cpokhara","website":"www.gonesa.org.com"},"relations":[],"meta":{"timestamp":"2018-03-11T09:04:02Z","version":1,"changeset":57075740,"user":"Sagarsubedi205","uid":7632456}},"geometry":{"type":"Point","coordinates":[83.9712182,28.1931786]}},{"type":"Feature","id":"node/5472210328","properties":{"type":"node","id":5472210328,"tags":{"contact:email":"pcec2016@gmail.com","contact:phone":"061-464392","name":"Pestalozzi Children Education Center","office":"ngo","source":"2cpokhara","student:count":"12"},"relations":[],"meta":{"timestamp":"2018-03-12T06:53:32Z","version":1,"changeset":57101001,"user":"Sagarsubedi205","uid":7632456}},"geometry":{"type":"Point","coordinates":[83.9647112,28.1894091]}},{"type":"Feature","id":"node/5488262814","properties":{"type":"node","id":5488262814,"tags":{"contact:phone":"9806547708","name":"Deepjyoti Art and Culture Forum","office":"ngo","opening_hours":"10:00 - 16:00"},"relations":[],"meta":{"timestamp":"2018-03-19T09:29:28Z","version":1,"changeset":57311579,"user":"LonelyNarayan","uid":7644124}},"geometry":{"type":"Point","coordinates":[83.9820376,28.2384418]}},{"type":"Feature","id":"node/5488262816","properties":{"type":"node","id":5488262816,"tags":{"contact:phone":"061412208","name":"Nepal Association Welfare of the Blind","office":"ngo","opening_hours":"10:00 - 16:00"},"relations":[],"meta":{"timestamp":"2018-04-23T06:29:00Z","version":2,"changeset":58328379,"user":"Manoj Thapa","uid":781054}},"geometry":{"type":"Point","coordinates":[83.9816286,28.2386864]}},{"type":"Feature","id":"node/5488272941","properties":{"type":"node","id":5488272941,"tags":{"contact:email":"lamsal.hari@gmail.com","contact:phone":"061551812,9856025909","name":"Asha Foundation","office":"ngo","opening_hours":"sunrise-sunset"},"relations":[],"meta":{"timestamp":"2018-03-19T22:44:35Z","version":2,"changeset":57334691,"user":"VlIvYur","uid":345975}},"geometry":{"type":"Point","coordinates":[83.9704216,28.2416389]}},{"type":"Feature","id":"node/5500041523","properties":{"type":"node","id":5500041523,"tags":{"name":"Safalta Youth Club","office":"ngo"},"relations":[],"meta":{"timestamp":"2018-03-24T01:10:25Z","version":1,"changeset":57473324,"user":"LonelyNarayan","uid":7644124}},"geometry":{"type":"Point","coordinates":[83.9467987,28.2387242]}},{"type":"Feature","id":"node/5517692068","properties":{"type":"node","id":5517692068,"tags":{"name":"Dhungaepatan Bal Club Office","office":"ngo"},"relations":[],"meta":{"timestamp":"2018-03-31T04:18:53Z","version":1,"changeset":57679072,"user":"Amrit Devkota","uid":6497064}},"geometry":{"type":"Point","coordinates":[84.0756574,28.1477082]}},{"type":"Feature","id":"node/5517954437","properties":{"type":"node","id":5517954437,"tags":{"contact:phone":"061561374, 9846029922","name":"Sirjansil Apanga Samaj","office":"ngo","source":"2cpokhara"},"relations":[],"meta":{"timestamp":"2018-03-31T07:48:52Z","version":1,"changeset":57681583,"user":"Amrit Devkota","uid":6497064}},"geometry":{"type":"Point","coordinates":[84.0834201,28.1349403]}},{"type":"Feature","id":"node/5520225190","properties":{"type":"node","id":5520225190,"tags":{"contact:phone":"061-621345","name":"Sathi Sansar Nepal","office":"ngo","source":"2cpokhara"},"relations":[],"meta":{"timestamp":"2018-04-01T12:00:12Z","version":1,"changeset":57710569,"user":"Sagarsubedi205","uid":7632456}},"geometry":{"type":"Point","coordinates":[84.041698,28.1466771]}},{"type":"Feature","id":"node/5537487997","properties":{"type":"node","id":5537487997,"tags":{"contact:phone":"061-466933","name":"National innovation centre of Mahavir pun","office":"ngo"},"relations":[],"meta":{"timestamp":"2018-04-08T09:42:52Z","version":1,"changeset":57908724,"user":"Ro Sun","uid":3112087}},"geometry":{"type":"Point","coordinates":[83.9595352,28.2080861]}},{"type":"Feature","id":"node/5544259304","properties":{"type":"node","id":5544259304,"tags":{"contact:phone":"061-431814","name":"Himalaya Life Nepal","office":"ngo","source":"2cpokhara"},"relations":[],"meta":{"timestamp":"2018-04-11T04:29:31Z","version":1,"changeset":57991353,"user":"Active Asmita","uid":7644107}},"geometry":{"type":"Point","coordinates":[83.9889995,28.2093866]}},{"type":"Feature","id":"node/5552007320","properties":{"type":"node","id":5552007320,"tags":{"name":"Prangik Student Parisad","office":"ngo"},"relations":[],"meta":{"timestamp":"2018-04-14T08:11:07Z","version":1,"changeset":58083865,"user":"Bijay adhikari","uid":7643850}},"geometry":{"type":"Point","coordinates":[83.9829254,28.2380176]}},{"type":"Feature","id":"node/5575064534","properties":{"type":"node","id":5575064534,"tags":{"name":"Nepal Red Cross Society , Kaski District Chapter","office":"ngo","source":"2c peset"},"relations":[],"meta":{"timestamp":"2018-04-24T04:16:25Z","version":1,"changeset":58360028,"user":"sadeepta dh","uid":4851333}},"geometry":{"type":"Point","coordinates":[83.9811231,28.2126151]}},{"type":"Feature","id":"node/5577883604","properties":{"type":"node","id":5577883604,"tags":{"name":"INSEC","office":"ngo"},"relations":[],"meta":{"timestamp":"2018-04-25T07:39:36Z","version":1,"changeset":58399252,"user":"sadeepta dh","uid":4851333}},"geometry":{"type":"Point","coordinates":[83.9765693,28.2044364]}},{"type":"Feature","id":"node/5587634864","properties":{"type":"node","id":5587634864,"tags":{"name":"Bamdhi Vir Social Forest Group","office":"ngo","opening_hours":"10:00-16:00"},"relations":[],"meta":{"timestamp":"2018-05-21T09:04:37Z","version":2,"changeset":59143904,"user":"Manoj Thapa","uid":781054}},"geometry":{"type":"Point","coordinates":[83.8904456,28.2388606]}},{"type":"Feature","id":"node/5618869425","properties":{"type":"node","id":5618869425,"tags":{"name":"Pokhara JCI","office":"ngo","source":"2cpokhara"},"relations":[],"meta":{"timestamp":"2018-05-15T04:55:45Z","version":1,"changeset":58970785,"user":"Abash Paudel","uid":6677482}},"geometry":{"type":"Point","coordinates":[83.9992654,28.2191716]}},{"type":"Feature","id":"node/4181818875","properties":{"type":"node","id":4181818875,"tags":{},"relations":[],"meta":{}},"geometry":{"type":"Point","coordinates":[83.9702685,28.2188073]}}],"createdOn":1527394663416}