{"type":"FeatureCollection","features":[{"type":"Feature","id":"way/203969496","properties":{"type":"way","id":203969496,"tags":{"leisure":"park","name":"Dam Side Park","name:ne":"ड्याम् साईड पार्क","opening_hours":"24/7","source":"2cpokhara"},"relations":[],"meta":{"timestamp":"2018-03-07T15:00:51Z","version":4,"changeset":56971521,"user":"Sagarsubedi205","uid":7632456}},"geometry":{"type":"Point","coordinates":[83.96955698,28.197295739999998]}},{"type":"Feature","id":"way/239888846","properties":{"type":"way","id":239888846,"tags":{"leisure":"park","name":"Seti River George","name:ne":"सेती जोर्ज","opening_hours":"7 AM-6 PM","operator":"government","source":"2cpokhara","tourism":"attraction"},"relations":[],"meta":{"timestamp":"2018-02-25T13:18:08Z","version":5,"changeset":56660853,"user":"Rabin Ojha","uid":6075053}},"geometry":{"type":"Point","coordinates":[83.98933352857144,28.245632728571426]}},{"type":"Feature","id":"way/311363306","properties":{"type":"way","id":311363306,"tags":{"leisure":"park"},"relations":[],"meta":{"timestamp":"2016-03-24T06:36:29Z","version":4,"changeset":38034282,"user":"Manoj Thapa","uid":781054}},"geometry":{"type":"Point","coordinates":[83.98554116874999,28.209588331250004]}},{"type":"Feature","id":"way/341270274","properties":{"type":"way","id":341270274,"tags":{"leisure":"park"},"relations":[],"meta":{"timestamp":"2015-04-28T18:14:10Z","version":1,"changeset":30590720,"user":"storeyrc","uid":2870585}},"geometry":{"type":"Point","coordinates":[83.98964383999999,28.21815206]}},{"type":"Feature","id":"way/349902179","properties":{"type":"way","id":349902179,"tags":{"leisure":"park"},"relations":[],"meta":{"timestamp":"2016-07-03T09:47:25Z","version":3,"changeset":40454816,"user":"Mrnprabhat","uid":3934069}},"geometry":{"type":"Point","coordinates":[83.99100397142857,28.211024585714284]}},{"type":"Feature","id":"way/351390151","properties":{"type":"way","id":351390151,"tags":{"leisure":"park"},"relations":[],"meta":{"timestamp":"2016-02-24T07:37:02Z","version":2,"changeset":37406199,"user":"Manoj Thapa","uid":781054}},"geometry":{"type":"Point","coordinates":[83.98871226,28.22933552]}},{"type":"Feature","id":"way/363764157","properties":{"type":"way","id":363764157,"tags":{"leisure":"park","name":"Sahid Bhawana Smiriti Park","name:ne":"सहिद भावना स्मृति पार्क","opening_hours":"6:00-18:00"},"relations":[],"meta":{"timestamp":"2018-04-12T04:22:09Z","version":5,"changeset":58023354,"user":"Manoj Thapa","uid":781054}},"geometry":{"type":"Point","coordinates":[83.97366688000001,28.26377594]}},{"type":"Feature","id":"way/363856330","properties":{"type":"way","id":363856330,"tags":{"leisure":"park","name":"SOKES park"},"relations":[],"meta":{"timestamp":"2015-08-04T05:57:45Z","version":2,"changeset":33088068,"user":"milke","uid":3117248}},"geometry":{"type":"Point","coordinates":[83.9778811263158,28.253634463157894]}},{"type":"Feature","id":"way/364350575","properties":{"type":"way","id":364350575,"tags":{"leisure":"park"},"relations":[],"meta":{"timestamp":"2016-06-20T05:43:33Z","version":3,"changeset":40148870,"user":"Mrnprabhat","uid":3934069}},"geometry":{"type":"Point","coordinates":[83.96252752499998,28.209621225]}},{"type":"Feature","id":"way/404034722","properties":{"type":"way","id":404034722,"tags":{"internet_access:fee":"free","leisure":"park","name":"Srijana Chowk park","opening_hours":"24/7","source":"2c peset"},"relations":[],"meta":{"timestamp":"2018-04-26T07:16:36Z","version":2,"changeset":58433048,"user":"Ro Sun","uid":3112087}},"geometry":{"type":"Point","coordinates":[83.98156924999999,28.21159965]}},{"type":"Feature","id":"way/407043575","properties":{"type":"way","id":407043575,"tags":{"leisure":"park"},"relations":[],"meta":{"timestamp":"2016-06-17T07:48:03Z","version":3,"changeset":40085377,"user":"Manoj Thapa","uid":781054}},"geometry":{"type":"Point","coordinates":[83.96165534,28.2067629]}},{"type":"Feature","id":"way/410996579","properties":{"type":"way","id":410996579,"tags":{"addr:street":"Lamachaur Bhandaridahar Marga","landuse":"recreation_ground","leisure":"park","name":"Blue Angel Park","name:ne":"ब्लु एन्जल पार्क"},"relations":[],"meta":{"timestamp":"2018-03-11T09:19:00Z","version":4,"changeset":57075967,"user":"Ro Sun","uid":3112087}},"geometry":{"type":"Point","coordinates":[83.969269175,28.261249475]}},{"type":"Feature","id":"way/414375418","properties":{"type":"way","id":414375418,"tags":{"leisure":"park","name":"Ramghat Park"},"relations":[],"meta":{"timestamp":"2017-05-08T09:45:42Z","version":2,"changeset":48496697,"user":"Ro Sun","uid":3112087}},"geometry":{"type":"Point","coordinates":[83.9921665,28.21862295]}},{"type":"Feature","id":"way/417834160","properties":{"type":"way","id":417834160,"tags":{"landuse":"recreation_ground","leisure":"park","name":"Lion Children Park","name:ne":"लायोन चिल्ड्रेन पार्क"},"relations":[],"meta":{"timestamp":"2016-08-09T10:57:27Z","version":4,"changeset":41342735,"user":"Ro Sun","uid":3112087}},"geometry":{"type":"Point","coordinates":[83.98005959444444,28.223697177777773]}},{"type":"Feature","id":"way/419182839","properties":{"type":"way","id":419182839,"tags":{"leisure":"park"},"relations":[],"meta":{"timestamp":"2016-05-18T08:22:50Z","version":1,"changeset":39394496,"user":"gaurab basnet","uid":3120057}},"geometry":{"type":"Point","coordinates":[83.96132632499999,28.25716915]}},{"type":"Feature","id":"way/419200025","properties":{"type":"way","id":419200025,"tags":{"leisure":"park","source":"2c pokhara"},"relations":[],"meta":{"timestamp":"2018-03-13T13:31:15Z","version":2,"changeset":57145676,"user":"Active Asmita","uid":7644107}},"geometry":{"type":"Point","coordinates":[83.9903168111111,28.234144044444445]}},{"type":"Feature","id":"way/421940813","properties":{"type":"way","id":421940813,"tags":{"leisure":"park","name":"ढुङेसगु चोक","name:ne":"ढुंगे साँगु चोक"},"relations":[],"meta":{"timestamp":"2016-09-25T10:36:18Z","version":3,"changeset":42420345,"user":"Bishal9841","uid":3573216}},"geometry":{"type":"Point","coordinates":[83.996605975,28.187565275]}},{"type":"Feature","id":"way/424970522","properties":{"type":"way","id":424970522,"tags":{"leisure":"park","name":"Tribhuvan University Park"},"relations":[],"meta":{"timestamp":"2017-06-26T07:26:02Z","version":2,"changeset":49829093,"user":"Ro Sun","uid":3112087}},"geometry":{"type":"Point","coordinates":[83.97713996666666,28.255671866666663]}},{"type":"Feature","id":"way/428418900","properties":{"type":"way","id":428418900,"tags":{"leisure":"park","name":"Manohar Park","name:ne":"मनोहर पार्क"},"relations":[],"meta":{"timestamp":"2017-12-25T08:50:32Z","version":3,"changeset":54902154,"user":"Ro Sun","uid":3112087}},"geometry":{"type":"Point","coordinates":[84.01919496666666,28.178788049999998]}},{"type":"Feature","id":"way/428419915","properties":{"type":"way","id":428419915,"tags":{"leisure":"park","name":"Manakamana park","name:ne":"मनकामना पार्क"},"relations":[],"meta":{"timestamp":"2016-09-14T10:59:51Z","version":2,"changeset":42146603,"user":"Parassrest","uid":3569249}},"geometry":{"type":"Point","coordinates":[84.017883925,28.1799965]}},{"type":"Feature","id":"way/433215704","properties":{"type":"way","id":433215704,"tags":{"leisure":"park","name":"Pokhara View Point","name:ne":"पोखरा भ्यु पोईन्ट"},"relations":[],"meta":{"timestamp":"2018-03-08T06:39:55Z","version":3,"changeset":56988888,"user":"marek kleciak","uid":338611}},"geometry":{"type":"Point","coordinates":[83.9313743142857,28.188130728571426]}},{"type":"Feature","id":"way/435427053","properties":{"type":"way","id":435427053,"tags":{"landuse":"recreation_ground","leisure":"park","name":"Madan Aashrit Marga Hila Park","name:ne":"चमेरो गुफा गरान्ड"},"relations":[],"meta":{"timestamp":"2018-03-11T07:43:24Z","version":4,"changeset":57074676,"user":"Ro Sun","uid":3112087}},"geometry":{"type":"Point","coordinates":[83.97616968888889,28.26871644444445]}},{"type":"Feature","id":"way/436206863","properties":{"type":"way","id":436206863,"tags":{"landuse":"recreation_ground","leisure":"park"},"relations":[],"meta":{"timestamp":"2017-12-22T20:15:16Z","version":3,"changeset":54849378,"user":"Oreg","uid":1926670}},"geometry":{"type":"Point","coordinates":[83.95623215734263,28.216048122377615]}},{"type":"Feature","id":"way/436694673","properties":{"type":"way","id":436694673,"tags":{"leisure":"park","name":"Amarjyoti Park","name:ne":"अमरज्योति पार्क"},"relations":[],"meta":{"timestamp":"2018-05-24T12:17:16Z","version":3,"changeset":59239938,"user":"marek kleciak","uid":338611}},"geometry":{"type":"Point","coordinates":[84.0113966272727,28.211272927272727]}},{"type":"Feature","id":"way/447951615","properties":{"type":"way","id":447951615,"tags":{"landuse":"recreation_ground","leisure":"park","name":"International Mountain Museum Park"},"relations":[],"meta":{"timestamp":"2017-06-26T09:13:58Z","version":3,"changeset":49831027,"user":"Ro Sun","uid":3112087}},"geometry":{"type":"Point","coordinates":[83.98076832727271,28.18940029090909]}},{"type":"Feature","id":"way/481335984","properties":{"type":"way","id":481335984,"tags":{"leisure":"park"},"relations":[],"meta":{"timestamp":"2017-03-19T10:02:54Z","version":1,"changeset":46974897,"user":"Papayaved","uid":406299}},"geometry":{"type":"Point","coordinates":[83.95912905,28.190077275]}},{"type":"Feature","id":"way/508357073","properties":{"type":"way","id":508357073,"tags":{"leisure":"park"},"relations":[],"meta":{"timestamp":"2017-07-18T08:02:30Z","version":2,"changeset":50371597,"user":"friedtea15","uid":6124003}},"geometry":{"type":"Point","coordinates":[84.0224675375,28.167585762500003]}},{"type":"Feature","id":"way/514388766","properties":{"type":"way","id":514388766,"tags":{"addr:city":"Pokhara Lekhanath Metropolitan City","addr:place":"Tinkune Chowk Gharipatan","addr:street":"RTO Road","leisure":"park","name":"Tinkune Park","opening_hours":"24/7","source":"2cpokhara"},"relations":[],"meta":{"timestamp":"2018-03-05T13:54:34Z","version":4,"changeset":56904438,"user":"Sagarsubedi205","uid":7632456}},"geometry":{"type":"Point","coordinates":[83.981790125,28.195448149999997]}},{"type":"Feature","id":"way/514430863","properties":{"type":"way","id":514430863,"tags":{"addr:place":"Milan Tole","addr:street":"Sugam Marga","leisure":"park","name":"Milan Park","opening_hours":"00:00-24:00","operator":"Community"},"relations":[],"meta":{"timestamp":"2017-08-10T08:21:37Z","version":1,"changeset":50993436,"user":"Ankit Keshav Baral","uid":6447999}},"geometry":{"type":"Point","coordinates":[83.9731177,28.207073416666663]}},{"type":"Feature","id":"way/514431434","properties":{"type":"way","id":514431434,"tags":{"addr:country":"NP","addr:place":"Sitaladevi Tole","addr:street":"Matepani Marga","leisure":"park","name":"Sitaladevi Park"},"relations":[],"meta":{"timestamp":"2017-09-19T18:23:42Z","version":3,"changeset":52189339,"user":"ChrissW-R1","uid":251543}},"geometry":{"type":"Point","coordinates":[84.00217610000001,28.217148200000004]}},{"type":"Feature","id":"way/514471432","properties":{"type":"way","id":514471432,"tags":{"addr:street":"Rastra Bank Marga","leisure":"park","name":"Shaid Jhapendra Smiriti Park"},"relations":[],"meta":{"timestamp":"2017-08-10T10:16:51Z","version":1,"changeset":50996798,"user":"gyanendra nepali","uid":6447854}},"geometry":{"type":"Point","coordinates":[83.972462775,28.202576225]}},{"type":"Feature","id":"way/514476502","properties":{"type":"way","id":514476502,"tags":{"addr:city":"Pokhara Lekhnath Metropolitian City","addr:country":"NP","addr:place":"Dhikalethar Tole","addr:street":"Bhadra Kali Marga","leisure":"park","name":"Shree Satya Harischandra Shrijansel Manch park"},"relations":[],"meta":{"timestamp":"2017-09-19T18:23:43Z","version":2,"changeset":52189339,"user":"ChrissW-R1","uid":251543}},"geometry":{"type":"Point","coordinates":[84.00205626666667,28.211517999999998]}},{"type":"Feature","id":"way/514479384","properties":{"type":"way","id":514479384,"tags":{"addr:city":"Pokhara Lekhanath Metropolitan City","addr:place":"Masbar Giri Tole","addr:street":"Gahan Marga","leisure":"park","name":"Gahate Park"},"relations":[],"meta":{"timestamp":"2017-08-10T10:48:16Z","version":1,"changeset":50997596,"user":"Ankit Keshav Baral","uid":6447999}},"geometry":{"type":"Point","coordinates":[83.9758796,28.211027]}},{"type":"Feature","id":"way/514675849","properties":{"type":"way","id":514675849,"tags":{"leisure":"park","name":"Sangam Park"},"relations":[],"meta":{"timestamp":"2017-12-05T03:23:25Z","version":2,"changeset":54352061,"user":"Sachham","uid":7152840}},"geometry":{"type":"Point","coordinates":[83.98584945714286,28.235029342857143]}},{"type":"Feature","id":"way/514704135","properties":{"type":"way","id":514704135,"tags":{"addr:city":"Pokhara Lekhnath Metropolitan City","addr:place":"Samidanda Tole","addr:street":"Arghun Base lekhnath Janmasthal Marg","leisure":"park","name":"Kabi Shiromani Lekhnath Museum","tourism":"museum"},"relations":[],"meta":{"timestamp":"2018-05-21T04:42:32Z","version":5,"changeset":59138263,"user":"Kshitiz Khanal","uid":977718}},"geometry":{"type":"Point","coordinates":[84.07285301666667,28.198983216666665]}},{"type":"Feature","id":"way/514704138","properties":{"type":"way","id":514704138,"tags":{"addr:city":"Pokhara Lekhnath Metropolitan City","addr:place":"Thulipokhari Tole","addr:street":"Arghun Base lekhnath Janmasthal Marg","leisure":"park","name":"Tarun Tapasi Park"},"relations":[],"meta":{"timestamp":"2017-08-11T08:14:34Z","version":1,"changeset":51024700,"user":"rmpaudel123","uid":6447862}},"geometry":{"type":"Point","coordinates":[84.0630481,28.18525929230769]}},{"type":"Feature","id":"way/514770751","properties":{"type":"way","id":514770751,"tags":{"addr:city":"Pokhara Lekhanath Metropolitan City","addr:place":"Dhunga Sau 15","addr:street":"Thati Patan","estd:":"2073","leisure":"park","name":"Dhunge Sangu Club Park","operator":"public"},"relations":[],"meta":{"timestamp":"2017-08-11T12:00:05Z","version":1,"changeset":51031474,"user":"rojipokhara","uid":6447872}},"geometry":{"type":"Point","coordinates":[83.99411925000001,28.185060925]}},{"type":"Feature","id":"way/515131069","properties":{"type":"way","id":515131069,"tags":{"leisure":"park","name":"Sahid Smiriti Park Majuwa"},"relations":[],"meta":{"timestamp":"2017-08-13T06:26:04Z","version":1,"changeset":51073007,"user":"Sunita Kc","uid":6474777}},"geometry":{"type":"Point","coordinates":[84.08245818,28.098532679999998]}},{"type":"Feature","id":"way/515135716","properties":{"type":"way","id":515135716,"tags":{"leisure":"park","name":"Namuna Children Park"},"relations":[],"meta":{"timestamp":"2018-06-05T06:04:00Z","version":2,"changeset":59557016,"user":"Ro Sun","uid":3112087}},"geometry":{"type":"Point","coordinates":[84.082557375,28.149771075]}},{"type":"Feature","id":"way/515157237","properties":{"type":"way","id":515157237,"tags":{"leisure":"park","name":"Bhanu Park","source":"2cpokhara"},"relations":[],"meta":{"timestamp":"2018-05-12T18:11:30Z","version":2,"changeset":58908598,"user":"Abash Paudel","uid":6677482}},"geometry":{"type":"Point","coordinates":[83.99642482857143,28.22382462857143]}},{"type":"Feature","id":"way/567467528","properties":{"type":"way","id":567467528,"tags":{"leisure":"park","name":"Park","source":"2cpokhara"},"relations":[],"meta":{"timestamp":"2018-03-25T08:09:37Z","version":2,"changeset":57502116,"user":"Ro Sun","uid":3112087}},"geometry":{"type":"Point","coordinates":[83.97032975,28.181538083333333]}},{"type":"Feature","id":"way/568615965","properties":{"type":"way","id":568615965,"tags":{"leisure":"park","name":"Badahar Park"},"relations":[],"meta":{"timestamp":"2018-03-11T05:59:01Z","version":1,"changeset":57073512,"user":"Ro Sun","uid":3112087}},"geometry":{"type":"Point","coordinates":[83.98384592,28.25959316]}},{"type":"Feature","id":"way/568847087","properties":{"type":"way","id":568847087,"tags":{"leisure":"park","name":"Dhunge Sangu Paryetan Isthal Sanrakhyan Samiti Park","source":"2cpokhara"},"relations":[],"meta":{"timestamp":"2018-03-12T06:08:19Z","version":1,"changeset":57100126,"user":"Sagarsubedi205","uid":7632456}},"geometry":{"type":"Point","coordinates":[83.99158338571429,28.17819641428571]}},{"type":"Feature","id":"way/584641966","properties":{"type":"way","id":584641966,"tags":{"leisure":"park","name":"Sahid Smriti Park","source":"2c peset"},"relations":[],"meta":{"timestamp":"2018-04-30T11:14:34Z","version":1,"changeset":58551599,"user":"Kshitizraj Sharma","uid":7004124}},"geometry":{"type":"Point","coordinates":[83.90041772000001,28.2095848]}},{"type":"Feature","id":"way/585881954","properties":{"type":"way","id":585881954,"tags":{"leisure":"park"},"relations":[],"meta":{"timestamp":"2018-05-05T09:35:32Z","version":1,"changeset":58703104,"user":"Bijay adhikari","uid":7643850}},"geometry":{"type":"Point","coordinates":[84.00951928333333,28.213971916666665]}},{"type":"Feature","id":"way/588008462","properties":{"type":"way","id":588008462,"tags":{"leisure":"park","name":"Underconstruction park"},"relations":[],"meta":{"timestamp":"2018-05-14T07:04:27Z","version":1,"changeset":58941471,"user":"Abash Paudel","uid":6677482}},"geometry":{"type":"Point","coordinates":[83.99641316,28.21387522]}},{"type":"Feature","id":"way/588276367","properties":{"type":"way","id":588276367,"tags":{"leisure":"park","name":"Park","source":"2cpokhara"},"relations":[],"meta":{"timestamp":"2018-05-15T05:25:02Z","version":1,"changeset":58971151,"user":"Abash Paudel","uid":6677482}},"geometry":{"type":"Point","coordinates":[84.00693857499999,28.219195875]}},{"type":"Feature","id":"way/591956964","properties":{"type":"way","id":591956964,"tags":{"landuse":"recreation_ground","leisure":"park"},"relations":[],"meta":{"timestamp":"2018-05-30T04:52:47Z","version":1,"changeset":59385482,"user":"Ro Sun","uid":3112087}},"geometry":{"type":"Point","coordinates":[84.0065079,28.201298599999998]}},{"type":"Feature","id":"node/5477772822","properties":{"type":"node","id":5477772822,"tags":{"leisure":"park","name":"Chapai Ko Chautara","place":"locality"},"relations":[],"meta":{"timestamp":"2018-03-14T11:32:42Z","version":1,"changeset":57175270,"user":"LonelyNarayan","uid":7644124}},"geometry":{"type":"Point","coordinates":[83.9404922,28.2492312]}},{"type":"Feature","id":"node/5591681944","properties":{"type":"node","id":5591681944,"tags":{"leisure":"park","name":"Chautara"},"relations":[],"meta":{"timestamp":"2018-05-02T07:06:43Z","version":1,"changeset":58604859,"user":"LonelyNarayan","uid":7644124}},"geometry":{"type":"Point","coordinates":[83.8251297,28.2297208]}}],"createdOn":1528618730074}