{"type":"FeatureCollection","features":[{"type":"Feature","id":"way/232854582","properties":{"type":"way","id":232854582,"tags":{"amenity":"pharmacy","building":"yes","name":"Kaskeli Pharmacy","operator":"private"},"relations":[],"meta":{"timestamp":"2017-08-13T07:51:37Z","version":2,"changeset":51074387,"user":"Bibek99","uid":6475007}},"geometry":{"type":"Point","coordinates":[83.9182249,28.265825399999997]}},{"type":"Feature","id":"way/407990278","properties":{"type":"way","id":407990278,"tags":{"amenity":"pharmacy","building":"yes","contact:phone":"9846041458","name":"Savi Medical Hall","opening_hours":"7:00-21:00","operator":"Private","source":"2cpokhara"},"relations":[],"meta":{"timestamp":"2018-04-03T03:15:38Z","version":2,"changeset":57757947,"user":"Abash Paudel","uid":6677482}},"geometry":{"type":"Point","coordinates":[83.9957086,28.19781555]}},{"type":"Feature","id":"way/412118404","properties":{"type":"way","id":412118404,"tags":{"addr:city":"Pokhara Lekhnath Metropolitan city","addr:housenumber":"45","addr:place":"Ramghat","addr:street":"gautan buddha marga","amenity":"pharmacy","building":"yes","building:levels":"3","contact:phone":"061-538460, 9856025919","name":"Paschimanchal Pyathalogy Centre"},"relations":[],"meta":{"timestamp":"2017-09-02T15:49:46Z","version":5,"changeset":51672981,"user":"Ashish Thapa","uid":4039113}},"geometry":{"type":"Point","coordinates":[83.9980773,28.2113074]}},{"type":"Feature","id":"way/412118410","properties":{"type":"way","id":412118410,"tags":{"addr:city":"Pokhara Lekhnath Metropolitan city","addr:housenumber":"35","addr:street":"Gautam Buddha Marga","amenity":"pharmacy","building":"yes","building:levels":"3","contact:phone":"061-541575","name":"Swostika Referral Laboratory"},"relations":[],"meta":{"timestamp":"2018-05-24T11:22:51Z","version":6,"changeset":59238556,"user":"Nirab Pudasaini","uid":826065}},"geometry":{"type":"Point","coordinates":[83.9982417,28.211365525]}},{"type":"Feature","id":"way/412357587","properties":{"type":"way","id":412357587,"tags":{"addr:place":"Hospital Chowk, Pokhara-10","amenity":"pharmacy","building":"yes","name":"Medicare Pharmacy"},"relations":[],"meta":{"timestamp":"2017-09-02T15:22:43Z","version":3,"changeset":51672369,"user":"Ashish Thapa","uid":4039113}},"geometry":{"type":"Point","coordinates":[83.99974048000001,28.212329899999997]}},{"type":"Feature","id":"way/414310349","properties":{"type":"way","id":414310349,"tags":{"amenity":"pharmacy","building":"yes","name":"Khadka Medico Pharma","name:ne":"खड्का मेडिको फर्मा"},"relations":[],"meta":{"timestamp":"2016-08-19T05:13:07Z","version":3,"changeset":41548576,"user":"Parassrest","uid":3569249}},"geometry":{"type":"Point","coordinates":[83.99077235,28.22321635]}},{"type":"Feature","id":"way/414945864","properties":{"type":"way","id":414945864,"tags":{"addr:housenumber":"83","addr:street":"Gauri Marga","amenity":"pharmacy","building":"yes","contact:phone":"9804193027","name":"Kiran Homiyo Pharmacy"},"relations":[],"meta":{"timestamp":"2017-09-06T07:30:10Z","version":4,"changeset":51771832,"user":"Ashish Thapa","uid":4039113}},"geometry":{"type":"Point","coordinates":[83.99545624,28.202085040000004]}},{"type":"Feature","id":"way/416878569","properties":{"type":"way","id":416878569,"tags":{"addr:city":"Gharmi","addr:street":"Jaimure Gufa","amenity":"pharmacy","building":"yes","name":"Rara Pharmacy","name:ne":"रारा फार्मेसी"},"relations":[],"meta":{"timestamp":"2018-05-31T05:18:33Z","version":3,"changeset":59416220,"user":"Manoj Thapa","uid":781054}},"geometry":{"type":"Point","coordinates":[83.98336715,28.276061]}},{"type":"Feature","id":"way/416878589","properties":{"type":"way","id":416878589,"tags":{"amenity":"pharmacy","contact:email":"safalbuddha@gmail.com","contact:phone":"9846550029","name":"Bisistha Pharmacy","name:ne":"बिशिस्थ फार्मेसी","opening_hours":"7 AM-7 PM","source":"2cpokhara"},"relations":[],"meta":{"timestamp":"2018-05-31T05:18:34Z","version":3,"changeset":59416220,"user":"Manoj Thapa","uid":781054}},"geometry":{"type":"Point","coordinates":[83.98333075,28.275993800000002]}},{"type":"Feature","id":"way/416890240","properties":{"type":"way","id":416890240,"tags":{"amenity":"pharmacy","building":"yes"},"relations":[],"meta":{"timestamp":"2016-05-11T08:16:15Z","version":2,"changeset":39235356,"user":"sagar karki","uid":2757453}},"geometry":{"type":"Point","coordinates":[84.02485770000001,28.1734683]}},{"type":"Feature","id":"way/416891078","properties":{"type":"way","id":416891078,"tags":{"amenity":"pharmacy","opening_hours":"sunrise-sunset"},"relations":[],"meta":{"timestamp":"2016-06-21T08:58:57Z","version":2,"changeset":40175524,"user":"Manoj Thapa","uid":781054}},"geometry":{"type":"Point","coordinates":[83.9726395,28.213728825]}},{"type":"Feature","id":"way/416905764","properties":{"type":"way","id":416905764,"tags":{"amenity":"pharmacy","building":"yes","name":"Shulav Medical Hall","name:ne":"मेडिकल","opening_hours":"Su-Sa 7:00-19:00"},"relations":[],"meta":{"timestamp":"2017-12-25T07:06:42Z","version":5,"changeset":54900824,"user":"Ro Sun","uid":3112087}},"geometry":{"type":"Point","coordinates":[84.024792275,28.18583965]}},{"type":"Feature","id":"way/418032421","properties":{"type":"way","id":418032421,"tags":{"amenity":"pharmacy","building":"yes","name":"Janahit Pharmacy"},"relations":[],"meta":{"timestamp":"2017-04-17T11:03:20Z","version":4,"changeset":47866565,"user":"Alisha12","uid":4204463}},"geometry":{"type":"Point","coordinates":[83.98470195,28.230660675000003]}},{"type":"Feature","id":"way/418032524","properties":{"type":"way","id":418032524,"tags":{"amenity":"pharmacy","building":"yes","name":"Ruhani Pharmacy","name:ne":"रुहानी फार्मेसी"},"relations":[],"meta":{"timestamp":"2016-09-11T10:34:46Z","version":3,"changeset":42075285,"user":"Parassrest","uid":3569249}},"geometry":{"type":"Point","coordinates":[83.98495572499999,28.231499924999998]}},{"type":"Feature","id":"way/418032584","properties":{"type":"way","id":418032584,"tags":{"amenity":"pharmacy","building":"yes","name":"Sagun Medical HAll","opening_hours":"6:00-20:00","operator":"Private"},"relations":[],"meta":{"timestamp":"2018-04-14T08:11:13Z","version":3,"changeset":58083865,"user":"Bijay adhikari","uid":7643850}},"geometry":{"type":"Point","coordinates":[83.98457334285715,28.231004085714286]}},{"type":"Feature","id":"way/419206958","properties":{"type":"way","id":419206958,"tags":{"amenity":"pharmacy","building":"yes","name":"Tejaswi Pharmacy"},"relations":[],"meta":{"timestamp":"2017-11-22T05:27:28Z","version":2,"changeset":53991452,"user":"nishaadhikari","uid":3481073}},"geometry":{"type":"Point","coordinates":[84.01092630000001,28.200351425]}},{"type":"Feature","id":"way/419388149","properties":{"type":"way","id":419388149,"tags":{"amenity":"pharmacy","building":"yes","name":"Aagan Pharmacy."},"relations":[],"meta":{"timestamp":"2017-08-22T06:00:00Z","version":2,"changeset":51325618,"user":"Ashish Thapa","uid":4039113}},"geometry":{"type":"Point","coordinates":[83.9770273,28.257889050000003]}},{"type":"Feature","id":"way/419627304","properties":{"type":"way","id":419627304,"tags":{"amenity":"pharmacy","building":"yes","contact:phone":"061-524754","name":"Kriti Ayurbedic Medi Sales","name:ne":"क्रिति आयुर्बेद मेडि सेल्स","source":"2c pokhara"},"relations":[],"meta":{"timestamp":"2018-03-10T17:43:12Z","version":3,"changeset":57063705,"user":"Active Asmita","uid":7644107}},"geometry":{"type":"Point","coordinates":[83.989024825,28.22831205]}},{"type":"Feature","id":"way/419627369","properties":{"type":"way","id":419627369,"tags":{"amenity":"pharmacy","building":"yes","name":"Shubham Krishna Ayurvedik Pasal"},"relations":[],"meta":{"timestamp":"2017-09-11T06:17:13Z","version":2,"changeset":51928051,"user":"Ashish Thapa","uid":4039113}},"geometry":{"type":"Point","coordinates":[83.988568325,28.22837495]}},{"type":"Feature","id":"way/419627412","properties":{"type":"way","id":419627412,"tags":{"amenity":"pharmacy","building":"yes","name":"Bidhya Ayurbed Centre","name:ne":"बिद्या आयुर्बेद सेन्टर"},"relations":[],"meta":{"timestamp":"2016-09-11T10:34:45Z","version":3,"changeset":42075285,"user":"Parassrest","uid":3569249}},"geometry":{"type":"Point","coordinates":[83.98847445000001,28.2284028]}},{"type":"Feature","id":"way/419627450","properties":{"type":"way","id":419627450,"tags":{"amenity":"pharmacy","building":"yes","name":"Sumeru Ayurbedic Clinic","name:ne":"सुमेरु आयुर्बेद क्लिनिक"},"relations":[],"meta":{"timestamp":"2016-09-11T10:34:47Z","version":3,"changeset":42075285,"user":"Parassrest","uid":3569249}},"geometry":{"type":"Point","coordinates":[83.98617735,28.22994045]}},{"type":"Feature","id":"way/419627487","properties":{"type":"way","id":419627487,"tags":{"amenity":"pharmacy","building":"yes","name":"Shrada Ayurbed Pharm","name:ne":"शारधा आयुर्बेद फार्मेसी"},"relations":[],"meta":{"timestamp":"2016-10-23T10:33:29Z","version":4,"changeset":43097117,"user":"Alisha12","uid":4204463}},"geometry":{"type":"Point","coordinates":[83.98900926249999,28.228040075]}},{"type":"Feature","id":"way/419627491","properties":{"type":"way","id":419627491,"tags":{"addr:housenumber":"87","addr:postcode":"00977","addr:street":"Tersapatti Road","amenity":"pharmacy","building":"yes","name":"Resham Ayurbedic and Ausadhi Pasal","name:en":"Shree Sahila Ayurvedic Aushadhalaya.","name:ne":"रेशम आयुर्बेद तथा ओषधि पसल","phone":"061530335"},"relations":[],"meta":{"timestamp":"2017-08-04T15:38:52Z","version":4,"changeset":50842846,"user":"Bikash Tamrakar","uid":6430905}},"geometry":{"type":"Point","coordinates":[83.9883545,28.228480450000003]}},{"type":"Feature","id":"way/420469570","properties":{"type":"way","id":420469570,"tags":{"amenity":"pharmacy","building":"yes","name":"Aana Medical Hall","name:ne":"आन मेडिकल हल"},"relations":[],"meta":{"timestamp":"2016-08-21T10:52:42Z","version":3,"changeset":41591158,"user":"Ro Sun","uid":3112087}},"geometry":{"type":"Point","coordinates":[83.99041825,28.223290600000002]}},{"type":"Feature","id":"way/420486544","properties":{"type":"way","id":420486544,"tags":{"amenity":"pharmacy","building":"yes","name":"Satya Sai Drug Distributors","name:ne":"सत्य साई ड्रग वितरक"},"relations":[],"meta":{"timestamp":"2016-09-16T09:07:41Z","version":3,"changeset":42197944,"user":"Bishal9841","uid":3573216}},"geometry":{"type":"Point","coordinates":[83.989097725,28.220825599999998]}},{"type":"Feature","id":"way/420486596","properties":{"type":"way","id":420486596,"tags":{"amenity":"pharmacy","building":"yes","name":"Binayak Medico Pharma","name:ne":"विनायक मेडिकल फार्म"},"relations":[],"meta":{"timestamp":"2016-10-25T07:59:16Z","version":4,"changeset":43150222,"user":"Alisha12","uid":4204463}},"geometry":{"type":"Point","coordinates":[83.98945526666667,28.22137783333333]}},{"type":"Feature","id":"way/420579444","properties":{"type":"way","id":420579444,"tags":{"amenity":"pharmacy","building":"yes","name":"Bhagwati Pharm","name:ne":"भगवती फर्म"},"relations":[],"meta":{"timestamp":"2016-08-21T06:36:59Z","version":3,"changeset":41587595,"user":"Alisha12","uid":4204463}},"geometry":{"type":"Point","coordinates":[83.98956257500001,28.220973200000003]}},{"type":"Feature","id":"way/420580186","properties":{"type":"way","id":420580186,"tags":{"amenity":"pharmacy","building":"yes","name":"Bandana Medicine Distributors","name:ne":"बन्दना मेडिसिन वितरक"},"relations":[],"meta":{"timestamp":"2016-08-21T07:05:37Z","version":3,"changeset":41587913,"user":"Alisha12","uid":4204463}},"geometry":{"type":"Point","coordinates":[83.9892497,28.221041274999997]}},{"type":"Feature","id":"way/421275174","properties":{"type":"way","id":421275174,"tags":{"amenity":"pharmacy","building":"yes","name":"Ram Medical Hall","source":"2cpokhara"},"relations":[],"meta":{"timestamp":"2018-05-10T06:30:22Z","version":2,"changeset":58839266,"user":"Abash Paudel","uid":6677482}},"geometry":{"type":"Point","coordinates":[84.00045907500001,28.230560875]}},{"type":"Feature","id":"way/422176887","properties":{"type":"way","id":422176887,"tags":{"amenity":"pharmacy","building":"yes"},"relations":[],"meta":{"timestamp":"2016-08-16T10:25:22Z","version":2,"changeset":41486571,"user":"gaurab basnet","uid":3120057}},"geometry":{"type":"Point","coordinates":[83.948966525,28.269185625]}},{"type":"Feature","id":"way/422790682","properties":{"type":"way","id":422790682,"tags":{"addr:street":"Hospital Marga","amenity":"pharmacy","dispensing":"no","name":"Sajha Swastha Sewa","name:ne":"साझा स्वस्थ सेवा","operator":"Government","payment:cash":"yes","payment:coins":"yes","payment:notes":"yes"},"relations":[],"meta":{"timestamp":"2016-11-06T10:15:28Z","version":3,"changeset":43437840,"user":"Alisha12","uid":4204463}},"geometry":{"type":"Point","coordinates":[83.99944138333332,28.21226965]}},{"type":"Feature","id":"way/426768336","properties":{"type":"way","id":426768336,"tags":{"amenity":"pharmacy","building":"yes","name":"Nabin Pharmacy and Doctor's Clinic","opening_hours":"6:00-21:00","operator":"Private"},"relations":[],"meta":{"timestamp":"2017-08-13T07:00:02Z","version":2,"changeset":51073589,"user":"rmpaudel123","uid":6447862}},"geometry":{"type":"Point","coordinates":[84.08287565,28.133207000000002]}},{"type":"Feature","id":"way/441427445","properties":{"type":"way","id":441427445,"tags":{"amenity":"pharmacy","building":"yes"},"relations":[],"meta":{"timestamp":"2017-11-22T06:40:04Z","version":2,"changeset":53992515,"user":"nishaadhikari","uid":3481073}},"geometry":{"type":"Point","coordinates":[84.0678177125,28.165127587500002]}},{"type":"Feature","id":"way/463217650","properties":{"type":"way","id":463217650,"tags":{"amenity":"pharmacy","building":"yes","name":"Brighter Pharmacy"},"relations":[],"meta":{"timestamp":"2017-01-03T10:31:28Z","version":3,"changeset":44867238,"user":"Bishal9841","uid":3573216}},"geometry":{"type":"Point","coordinates":[83.98665141666667,28.211408549999998]}},{"type":"Feature","id":"way/496081381","properties":{"type":"way","id":496081381,"tags":{"amenity":"pharmacy","name":"Prajwala Pharmacy"},"relations":[],"meta":{"timestamp":"2018-04-05T10:41:53Z","version":2,"changeset":57830536,"user":"Manoj Thapa","uid":781054}},"geometry":{"type":"Point","coordinates":[83.97188725,28.260866200000002]}},{"type":"Feature","id":"way/514683523","properties":{"type":"way","id":514683523,"tags":{"amenity":"pharmacy","name":"Nabmo Buddha Pharmacy","opening_hours":"9:00 - 19:00","operator":"private"},"relations":[],"meta":{"timestamp":"2017-08-11T07:04:03Z","version":1,"changeset":51022756,"user":"Sailesh Prj","uid":6443256}},"geometry":{"type":"Point","coordinates":[83.98887655,28.228645025]}},{"type":"Feature","id":"way/520811645","properties":{"type":"way","id":520811645,"tags":{"addr:place":"Hospital Chowk, Pokhara-10","amenity":"pharmacy","building":"yes","contact:phone":"9846279966","name":"Shreena Pharmacy"},"relations":[],"meta":{"timestamp":"2017-09-02T15:22:43Z","version":1,"changeset":51672369,"user":"Ashish Thapa","uid":4039113}},"geometry":{"type":"Point","coordinates":[83.999475675,28.2122085]}},{"type":"Feature","id":"way/563619459","properties":{"type":"way","id":563619459,"tags":{"amenity":"pharmacy","contact:phone":"9803737591","name":"Ayush Medical Hall","name:ne":"आयुष मेडिकल हल","opening_hours":"07:00-19:00","source":"2cpokhara"},"relations":[],"meta":{"timestamp":"2018-05-31T08:27:03Z","version":3,"changeset":59421053,"user":"Manoj Thapa","uid":781054}},"geometry":{"type":"Point","coordinates":[83.9940522,28.28879935]}},{"type":"Feature","id":"node/2142193511","properties":{"type":"node","id":2142193511,"tags":{"amenity":"pharmacy","dispensing":"no","name":"Pratikshya Pharma","name:ne":"प्रतिक्क्ष्या फारम"},"relations":[],"meta":{"timestamp":"2016-08-08T12:01:25Z","version":2,"changeset":41322692,"user":"Bishal9841","uid":3573216}},"geometry":{"type":"Point","coordinates":[83.9708922,28.2006536]}},{"type":"Feature","id":"node/4061845192","properties":{"type":"node","id":4061845192,"tags":{"amenity":"pharmacy","name":"Shreyas Pharmacy","name:ne":"फार्मेसी"},"relations":[],"meta":{"timestamp":"2017-09-13T09:12:30Z","version":5,"changeset":51998079,"user":"Ashish Thapa","uid":4039113}},"geometry":{"type":"Point","coordinates":[83.9684625,28.205673]}},{"type":"Feature","id":"node/4062775507","properties":{"type":"node","id":4062775507,"tags":{"amenity":"pharmacy","name":"Pharmacy","name:ne":"फार्मेसी"},"relations":[],"meta":{"timestamp":"2016-08-09T08:08:40Z","version":3,"changeset":41339664,"user":"Parassrest","uid":3569249}},"geometry":{"type":"Point","coordinates":[83.9658547,28.2041255]}},{"type":"Feature","id":"node/4063216832","properties":{"type":"node","id":4063216832,"tags":{"amenity":"pharmacy","name":"medical","name:ne":"मेडिकल (फार्मेसी)"},"relations":[],"meta":{"timestamp":"2016-08-28T06:21:54Z","version":3,"changeset":41748692,"user":"Bishal9841","uid":3573216}},"geometry":{"type":"Point","coordinates":[84.0039992,28.1769902]}},{"type":"Feature","id":"node/4148609248","properties":{"type":"node","id":4148609248,"tags":{"amenity":"pharmacy","name":"Biswas Medical Hall"},"relations":[],"meta":{"timestamp":"2018-03-06T16:59:23Z","version":2,"changeset":56941486,"user":"Active Asmita","uid":7644107}},"geometry":{"type":"Point","coordinates":[83.9743602,28.2166444]}},{"type":"Feature","id":"node/4160638674","properties":{"type":"node","id":4160638674,"tags":{"amenity":"pharmacy","name":"Jana Kalyan Mediacal Hall"},"relations":[],"meta":{"timestamp":"2017-09-13T05:37:05Z","version":3,"changeset":51992885,"user":"Ashish Thapa","uid":4039113}},"geometry":{"type":"Point","coordinates":[83.9947621,28.2063566]}},{"type":"Feature","id":"node/4160825726","properties":{"type":"node","id":4160825726,"tags":{"amenity":"pharmacy","name":"Chiraayu Medical","name:ne":"चिरायु मेडिकल"},"relations":[],"meta":{"timestamp":"2018-04-06T08:47:18Z","version":6,"changeset":57858395,"user":"Manoj Thapa","uid":781054}},"geometry":{"type":"Point","coordinates":[83.9878743,28.2399008]}},{"type":"Feature","id":"node/4160825744","properties":{"type":"node","id":4160825744,"tags":{"amenity":"pharmacy","name":"Kafle Medical","name:ne":"काफ्ले मेडिकल","shop":"medical_supply"},"relations":[],"meta":{"timestamp":"2018-02-21T13:47:14Z","version":4,"changeset":56550097,"user":"Bijay adhikari","uid":7643850}},"geometry":{"type":"Point","coordinates":[83.987456,28.2396609]}},{"type":"Feature","id":"node/4160825908","properties":{"type":"node","id":4160825908,"tags":{"addr:city":"Pokhara lekthnath municipility","amenity":"pharmacy","name":"Pokhreli Ayurvedic Medical","name:ne":"पोखरेली आयुर्वेद्यिक मेडिकल"},"relations":[],"meta":{"timestamp":"2017-08-10T11:11:05Z","version":6,"changeset":50998217,"user":"liladevkota123","uid":6448317}},"geometry":{"type":"Point","coordinates":[83.9857987,28.2378926]}},{"type":"Feature","id":"node/4160825931","properties":{"type":"node","id":4160825931,"tags":{"amenity":"pharmacy","name":"Shrensya Medical","name:ne":"स्रयास मेडिकल"},"relations":[],"meta":{"timestamp":"2017-02-01T07:21:26Z","version":4,"changeset":45708599,"user":"Alisha12","uid":4204463}},"geometry":{"type":"Point","coordinates":[83.9860129,28.238353]}},{"type":"Feature","id":"node/4170743225","properties":{"type":"node","id":4170743225,"tags":{"amenity":"pharmacy","name":"Dipu Pharmacy","name:ne":"दिपु फार्मेसी"},"relations":[],"meta":{"timestamp":"2017-08-15T08:12:01Z","version":3,"changeset":51132007,"user":"Sunita Kc","uid":6474777}},"geometry":{"type":"Point","coordinates":[83.998047,28.2113993]}},{"type":"Feature","id":"node/4170743226","properties":{"type":"node","id":4170743226,"tags":{"amenity":"pharmacy","name":"Pari Drug House","name:ne":"परि औसधी पसल"},"relations":[],"meta":{"timestamp":"2017-08-15T08:12:01Z","version":5,"changeset":51132007,"user":"Sunita Kc","uid":6474777}},"geometry":{"type":"Point","coordinates":[83.9983693,28.2114818]}},{"type":"Feature","id":"node/4170743228","properties":{"type":"node","id":4170743228,"tags":{"amenity":"pharmacy","name":"Prayogshala Lab","name:ne":"प्रयोगशाला ल्याब"},"relations":[],"meta":{"timestamp":"2017-08-15T08:12:01Z","version":3,"changeset":51132007,"user":"Sunita Kc","uid":6474777}},"geometry":{"type":"Point","coordinates":[83.9980113,28.2113933]}},{"type":"Feature","id":"node/4170743229","properties":{"type":"node","id":4170743229,"tags":{"amenity":"pharmacy","name":"Rakshya Pharmacy","name:ne":"रक्षा फार्मेसी"},"relations":[],"meta":{"timestamp":"2017-09-02T15:49:46Z","version":3,"changeset":51672981,"user":"Ashish Thapa","uid":4039113}},"geometry":{"type":"Point","coordinates":[83.9981253,28.2113943]}},{"type":"Feature","id":"node/4170743230","properties":{"type":"node","id":4170743230,"tags":{"addr:place":"Hospital Chowk, Pokhara-10","amenity":"pharmacy","contact:phone":"061-522139","name":"Sumi Pharmacy","name:ne":"सुबी पार्मेसी"},"relations":[],"meta":{"timestamp":"2017-09-02T15:49:46Z","version":5,"changeset":51672981,"user":"Ashish Thapa","uid":4039113}},"geometry":{"type":"Point","coordinates":[83.998273,28.2114351]}},{"type":"Feature","id":"node/4170743231","properties":{"type":"node","id":4170743231,"tags":{"addr:place":"Hospital Chowk, Pokhara-10","amenity":"pharmacy","contact:phone":"061-532533","name":"Yeti Med Corners","name:ne":"एती मेड कर्नर"},"relations":[],"meta":{"timestamp":"2017-09-02T15:49:46Z","version":3,"changeset":51672981,"user":"Ashish Thapa","uid":4039113}},"geometry":{"type":"Point","coordinates":[83.9981557,28.2114002]}},{"type":"Feature","id":"node/4172769746","properties":{"type":"node","id":4172769746,"tags":{"amenity":"pharmacy","contact:phone":"061-432558","name":"Aadhikhola Medical Hal","name:ne":"आधिखोला मेडिकल हल"},"relations":[],"meta":{"timestamp":"2016-12-25T11:20:01Z","version":4,"changeset":44659669,"user":"Alisha12","uid":4204463}},"geometry":{"type":"Point","coordinates":[83.9950805,28.2026441]}},{"type":"Feature","id":"node/4172769747","properties":{"type":"node","id":4172769747,"tags":{"amenity":"pharmacy","contact:phone":"061-2298420, 9856029138","name":"Birgha Pharmacy","name:ne":"बिर्घ फार्मेसी","source":"2cpokhara Field Visit"},"relations":[],"meta":{"timestamp":"2018-05-29T09:20:10Z","version":4,"changeset":59361949,"user":"Ro Sun","uid":3112087}},"geometry":{"type":"Point","coordinates":[83.9946874,28.2056219]}},{"type":"Feature","id":"node/4175152189","properties":{"type":"node","id":4175152189,"tags":{"amenity":"pharmacy","contact:phone":"9846051992","name":"Anish Medical Hall","name:ne":"अनिश मेडिकल हल","opening_hours":"7 AM-7 PM","operator":"Durga Adhikari","source":"2cpokhara"},"relations":[],"meta":{"timestamp":"2018-02-23T11:58:51Z","version":5,"changeset":56607665,"user":"Rabin Ojha","uid":6075053}},"geometry":{"type":"Point","coordinates":[83.9802008,28.2710071]}},{"type":"Feature","id":"node/4175723726","properties":{"type":"node","id":4175723726,"tags":{"amenity":"pharmacy","name":"Saino Medical Hall","source":"2c pokhara"},"relations":[],"meta":{"timestamp":"2018-03-07T02:57:49Z","version":3,"changeset":56954232,"user":"Active Asmita","uid":7644107}},"geometry":{"type":"Point","coordinates":[83.9716058,28.2153924]}},{"type":"Feature","id":"node/4175851203","properties":{"type":"node","id":4175851203,"tags":{"amenity":"pharmacy","name":"Shiwani Pharmacy","source":"2c pokhara"},"relations":[],"meta":{"timestamp":"2018-03-07T02:57:49Z","version":3,"changeset":56954232,"user":"Active Asmita","uid":7644107}},"geometry":{"type":"Point","coordinates":[83.9697742,28.2162373]}},{"type":"Feature","id":"node/4178127560","properties":{"type":"node","id":4178127560,"tags":{"amenity":"pharmacy","name":"Aatish Medico Pharma","name:en":"Aatish Medico Pharma"},"relations":[],"meta":{"timestamp":"2017-07-09T07:17:43Z","version":5,"changeset":50145777,"user":"Ro Sun","uid":3112087}},"geometry":{"type":"Point","coordinates":[83.9766361,28.2183747]}},{"type":"Feature","id":"node/4178433089","properties":{"type":"node","id":4178433089,"tags":{"amenity":"pharmacy","name":"PCH pharmacy","name:ne":"पि सि एच् फार्मेसी"},"relations":[],"meta":{"timestamp":"2016-08-08T08:41:44Z","version":2,"changeset":41319036,"user":"Parassrest","uid":3569249}},"geometry":{"type":"Point","coordinates":[83.988354,28.2086308]}},{"type":"Feature","id":"node/4180402803","properties":{"type":"node","id":4180402803,"tags":{"amenity":"pharmacy","name":"Ajay Pharmacy"},"relations":[],"meta":{"timestamp":"2016-05-12T07:34:38Z","version":1,"changeset":39259776,"user":"Nirab Pudasaini","uid":826065}},"geometry":{"type":"Point","coordinates":[84.0593869,28.163169]}},{"type":"Feature","id":"node/4180402815","properties":{"type":"node","id":4180402815,"tags":{"amenity":"pharmacy","name":"Life Pharmacy","name:ne":"लाइफ फर्र्मेसी"},"relations":[],"meta":{"timestamp":"2016-09-13T06:29:58Z","version":2,"changeset":42116688,"user":"Alisha12","uid":4204463}},"geometry":{"type":"Point","coordinates":[84.0682382,28.16359]}},{"type":"Feature","id":"node/4180402823","properties":{"type":"node","id":4180402823,"tags":{"amenity":"pharmacy","name":"Rudra Medical Pharma"},"relations":[],"meta":{"timestamp":"2017-09-12T09:17:48Z","version":3,"changeset":51966205,"user":"Ashish Thapa","uid":4039113}},"geometry":{"type":"Point","coordinates":[84.0571996,28.1635681]}},{"type":"Feature","id":"node/4182853653","properties":{"type":"node","id":4182853653,"tags":{"amenity":"pharmacy","name":"Balika Pharmacy and Dental Clinic","name:ne":"बालिका फार्मेसी"},"relations":[],"meta":{"timestamp":"2017-01-10T10:23:35Z","version":3,"changeset":45047091,"user":"Alisha12","uid":4204463}},"geometry":{"type":"Point","coordinates":[83.9910548,28.2193191]}},{"type":"Feature","id":"node/4198944756","properties":{"type":"node","id":4198944756,"tags":{"amenity":"pharmacy","name":"Panchanga Aayurveda Pharmacy","phone":"9856022916,9804105457","source":"2c pokhara"},"relations":[],"meta":{"timestamp":"2018-03-10T17:43:11Z","version":2,"changeset":57063705,"user":"Active Asmita","uid":7644107}},"geometry":{"type":"Point","coordinates":[83.9903981,28.2266448]}},{"type":"Feature","id":"node/4199845593","properties":{"type":"node","id":4199845593,"tags":{"amenity":"pharmacy","name":"Kamala Medical Hall","name:ne":"कमला मेडिकल हल"},"relations":[],"meta":{"timestamp":"2016-08-24T05:35:21Z","version":2,"changeset":41653511,"user":"Alisha12","uid":4204463}},"geometry":{"type":"Point","coordinates":[84.0141979,28.2077581]}},{"type":"Feature","id":"node/4199856249","properties":{"type":"node","id":4199856249,"tags":{"amenity":"pharmacy","name":"Nirjin Medical Hall","name:ne":"निर्जिन मेडिकल हल"},"relations":[],"meta":{"timestamp":"2016-08-09T07:56:56Z","version":2,"changeset":41339500,"user":"Alisha12","uid":4204463}},"geometry":{"type":"Point","coordinates":[84.0096181,28.2086911]}},{"type":"Feature","id":"node/4225209527","properties":{"type":"node","id":4225209527,"tags":{"amenity":"pharmacy","name":"Apollo Medical Hall","name:ne":"एपोलो मेडिकल हल","phone":"9804133682, 9804133682, 9856031105"},"relations":[],"meta":{"timestamp":"2017-09-02T15:49:46Z","version":4,"changeset":51672981,"user":"Ashish Thapa","uid":4039113}},"geometry":{"type":"Point","coordinates":[83.9984829,28.2116612]}},{"type":"Feature","id":"node/4225212549","properties":{"type":"node","id":4225212549,"tags":{"amenity":"pharmacy","name":"Machhepuchhre herbal limited","name:ne":"माछापुछ्रे हेर्बल लिमिटेड"},"relations":[],"meta":{"timestamp":"2016-08-24T04:55:04Z","version":3,"changeset":41652966,"user":"Alisha12","uid":4204463}},"geometry":{"type":"Point","coordinates":[83.994778,28.2102215]}},{"type":"Feature","id":"node/4225212550","properties":{"type":"node","id":4225212550,"tags":{"amenity":"pharmacy","name":"Nature care home","name:ne":"नेचर केयार होम"},"relations":[],"meta":{"timestamp":"2016-09-25T10:49:26Z","version":3,"changeset":42420586,"user":"Ro Sun","uid":3112087}},"geometry":{"type":"Point","coordinates":[83.9931234,28.2070723]}},{"type":"Feature","id":"node/4225215857","properties":{"type":"node","id":4225215857,"tags":{"amenity":"pharmacy","name":"Aadaar Satkaar Pharmacy","name:ne":"आदार सत्कार फार्मेसी"},"relations":[],"meta":{"timestamp":"2016-09-25T10:56:06Z","version":2,"changeset":42420709,"user":"Ro Sun","uid":3112087}},"geometry":{"type":"Point","coordinates":[83.9944537,28.2060333]}},{"type":"Feature","id":"node/4229490251","properties":{"type":"node","id":4229490251,"tags":{"amenity":"pharmacy","name":"Metrocity Hospital Pharmacy"},"relations":[],"meta":{"timestamp":"2017-05-05T09:50:26Z","version":2,"changeset":48421063,"user":"Ro Sun","uid":3112087}},"geometry":{"type":"Point","coordinates":[83.9815341,28.211771]}},{"type":"Feature","id":"node/4246088598","properties":{"type":"node","id":4246088598,"tags":{"amenity":"pharmacy","name":"Bimal Ausadhi Pasal"},"relations":[],"meta":{"timestamp":"2017-07-23T16:38:45Z","version":2,"changeset":50505958,"user":"Bijay Dhakal","uid":2761566}},"geometry":{"type":"Point","coordinates":[84.1093783,28.1357729]}},{"type":"Feature","id":"node/4250644156","properties":{"type":"node","id":4250644156,"tags":{"amenity":"pharmacy","name":"Pame Doctor's Clinic"},"relations":[],"meta":{"timestamp":"2016-06-19T04:50:12Z","version":2,"changeset":40127562,"user":"Manoj Thapa","uid":781054}},"geometry":{"type":"Point","coordinates":[83.9095519,28.2357566]}},{"type":"Feature","id":"node/4250646206","properties":{"type":"node","id":4250646206,"tags":{"addr:street":"Pame","amenity":"pharmacy","contact:phone":"9846041002","name":"Gautam Aausadhi Pasal"},"relations":[],"meta":{"timestamp":"2017-04-09T09:37:37Z","version":2,"changeset":47588586,"user":"Gaurav Thapa","uid":4212590}},"geometry":{"type":"Point","coordinates":[83.9085259,28.2362434]}},{"type":"Feature","id":"node/4262206586","properties":{"type":"node","id":4262206586,"tags":{"addr:city":"pokhara lekhnath municipality","amenity":"pharmacy","name":"Regional Hospital Pharmacy","name:ne":"रिजनल अस्पताल फारमेसी","opening_hours":"Sa-Su 00:00-24:00"},"relations":[],"meta":{"timestamp":"2017-08-10T10:45:38Z","version":5,"changeset":50997524,"user":"gyanendra nepali","uid":6447854}},"geometry":{"type":"Point","coordinates":[83.9754241,28.2141708]}},{"type":"Feature","id":"node/4287370139","properties":{"type":"node","id":4287370139,"tags":{"amenity":"pharmacy","name":"Ramakanta Pharmacy","name:ne":"रमाकान्त फार्मेसी"},"relations":[],"meta":{"timestamp":"2016-09-11T10:34:47Z","version":2,"changeset":42075285,"user":"Parassrest","uid":3569249}},"geometry":{"type":"Point","coordinates":[83.9901472,28.227308]}},{"type":"Feature","id":"node/4287418943","properties":{"type":"node","id":4287418943,"tags":{"amenity":"pharmacy","name":"Kaligandaki Medical Pharma","name:ne":"काली गण्डकी मेडिकल फर्मा"},"relations":[],"meta":{"timestamp":"2016-08-19T05:13:08Z","version":2,"changeset":41548576,"user":"Parassrest","uid":3569249}},"geometry":{"type":"Point","coordinates":[83.9906191,28.2232738]}},{"type":"Feature","id":"node/4287418944","properties":{"type":"node","id":4287418944,"tags":{"amenity":"pharmacy","name":"Srijan Median Sales","name:ne":"श्रीजन मिडियन सेल्स"},"relations":[],"meta":{"timestamp":"2016-08-19T05:13:09Z","version":2,"changeset":41548576,"user":"Parassrest","uid":3569249}},"geometry":{"type":"Point","coordinates":[83.9906466,28.223269]}},{"type":"Feature","id":"node/4296048411","properties":{"type":"node","id":4296048411,"tags":{"amenity":"pharmacy","contact:phone":"061-523376","name":"Aayu Pharmacy","name:ne":"आयु फार्मेसी"},"relations":[],"meta":{"timestamp":"2017-04-17T11:30:53Z","version":4,"changeset":47867335,"user":"Alisha12","uid":4204463}},"geometry":{"type":"Point","coordinates":[83.9851261,28.2092575]}},{"type":"Feature","id":"node/4296106834","properties":{"type":"node","id":4296106834,"tags":{"amenity":"pharmacy","name":"Subekshya Medical Hall","name:ne":"सुबेक्ष्या मेडिकल हल"},"relations":[],"meta":{"timestamp":"2017-01-08T04:31:35Z","version":3,"changeset":44993465,"user":"Alisha12","uid":4204463}},"geometry":{"type":"Point","coordinates":[83.9849104,28.2089731]}},{"type":"Feature","id":"node/4296138314","properties":{"type":"node","id":4296138314,"tags":{"amenity":"pharmacy","name":"BL Pathology","name:ne":"बि एल प्याथोलोजी"},"relations":[],"meta":{"timestamp":"2016-08-21T07:05:39Z","version":2,"changeset":41587913,"user":"Alisha12","uid":4204463}},"geometry":{"type":"Point","coordinates":[83.9903625,28.2233371]}},{"type":"Feature","id":"node/4296138316","properties":{"type":"node","id":4296138316,"tags":{"addr:housenumber":"13","addr:street":"B.P Marga","amenity":"pharmacy","name":"Bishwash Medical Hall","name:en":"Biva Medical Hall","name:ne":"विश्वास मेडिकल हल","phone":"061535071"},"relations":[],"meta":{"timestamp":"2017-09-10T04:28:12Z","version":3,"changeset":51896963,"user":"Ashish Thapa","uid":4039113}},"geometry":{"type":"Point","coordinates":[83.9904687,28.2233068]}},{"type":"Feature","id":"node/4296138328","properties":{"type":"node","id":4296138328,"tags":{"amenity":"pharmacy","name":"Pokhara Pharmacy","name:ne":"पोखरा फार्मेसी"},"relations":[],"meta":{"timestamp":"2016-08-21T07:05:39Z","version":2,"changeset":41587913,"user":"Alisha12","uid":4204463}},"geometry":{"type":"Point","coordinates":[83.9903521,28.2233392]}},{"type":"Feature","id":"node/4296138329","properties":{"type":"node","id":4296138329,"tags":{"amenity":"pharmacy","name":"SRL Ranbay Diagonstics","name:ne":"एस.आर.एल रयानबे डाइगनोंस्टिक"},"relations":[],"meta":{"timestamp":"2016-09-14T10:02:59Z","version":2,"changeset":42145444,"user":"Bishal9841","uid":3573216}},"geometry":{"type":"Point","coordinates":[83.9903155,28.2233449]}},{"type":"Feature","id":"node/4296138331","properties":{"type":"node","id":4296138331,"tags":{"amenity":"pharmacy","name":"Syangja Medical Center","name:ne":"स्याङ्जा मेडिकल सेन्टर"},"relations":[],"meta":{"timestamp":"2016-08-09T11:55:48Z","version":2,"changeset":41343777,"user":"Alisha12","uid":4204463}},"geometry":{"type":"Point","coordinates":[83.9908875,28.2232097]}},{"type":"Feature","id":"node/4308942902","properties":{"type":"node","id":4308942902,"tags":{"amenity":"pharmacy"},"relations":[],"meta":{"timestamp":"2016-07-18T12:23:16Z","version":1,"changeset":40817178,"user":"Kushal KC","uid":3489709}},"geometry":{"type":"Point","coordinates":[84.0089804,28.1819975]}},{"type":"Feature","id":"node/4308942903","properties":{"type":"node","id":4308942903,"tags":{"amenity":"pharmacy"},"relations":[],"meta":{"timestamp":"2016-07-18T12:23:16Z","version":1,"changeset":40817178,"user":"Kushal KC","uid":3489709}},"geometry":{"type":"Point","coordinates":[84.0085217,28.1824822]}},{"type":"Feature","id":"node/4345418574","properties":{"type":"node","id":4345418574,"tags":{"amenity":"pharmacy","name":"Bhhatarai linic","name:en":"Bhhatarai Aausadhi Pasal","name:ne":"भट्टराई क्लिनिक"},"relations":[],"meta":{"timestamp":"2017-06-24T06:35:42Z","version":4,"changeset":49787342,"user":"Ro Sun","uid":3112087}},"geometry":{"type":"Point","coordinates":[83.9772681,28.2211198]}},{"type":"Feature","id":"node/4350539233","properties":{"type":"node","id":4350539233,"tags":{"amenity":"pharmacy","name":"Koirala Pharmacy","name:ne":"कोइराला फार्मेसी"},"relations":[],"meta":{"timestamp":"2016-08-15T05:15:42Z","version":2,"changeset":41460073,"user":"Manoj Thapa","uid":781054}},"geometry":{"type":"Point","coordinates":[84.0192482,28.2160918]}},{"type":"Feature","id":"node/4350539234","properties":{"type":"node","id":4350539234,"tags":{"amenity":"pharmacy","name":"Shrestha Medical","name:ne":"श्रेष्ठ मेडिकल"},"relations":[],"meta":{"timestamp":"2017-02-14T06:02:01Z","version":3,"changeset":46069228,"user":"Alisha12","uid":4204463}},"geometry":{"type":"Point","coordinates":[84.0187741,28.2161159]}},{"type":"Feature","id":"node/4350540779","properties":{"type":"node","id":4350540779,"tags":{"amenity":"pharmacy","name":"Prasiddha Pharma","name:ne":"प्रसिद्ध फर्मा"},"relations":[],"meta":{"timestamp":"2016-08-15T05:05:58Z","version":1,"changeset":41459934,"user":"Manoj Thapa","uid":781054}},"geometry":{"type":"Point","coordinates":[84.0199821,28.2157736]}},{"type":"Feature","id":"node/4350550300","properties":{"type":"node","id":4350550300,"tags":{"amenity":"pharmacy","name":"Dudhpokhari Pharmacy","name:ne":"दुधपोखरी फार्मेसी"},"relations":[],"meta":{"timestamp":"2016-08-15T05:15:42Z","version":1,"changeset":41460073,"user":"Manoj Thapa","uid":781054}},"geometry":{"type":"Point","coordinates":[84.0290993,28.2171606]}},{"type":"Feature","id":"node/4352171771","properties":{"type":"node","id":4352171771,"tags":{"addr:street":"Seti Bridge","amenity":"pharmacy","email":"mnr.p1994@gmail.com","name":"Chowk Pharma","name:en":"Chowk pharmacy","name:ne":"चोक फर्म","phone":"061538744"},"relations":[],"meta":{"timestamp":"2017-07-29T05:35:55Z","version":2,"changeset":50663866,"user":"PrAdip Bohara","uid":4871417}},"geometry":{"type":"Point","coordinates":[83.997417,28.234875]}},{"type":"Feature","id":"node/4352171772","properties":{"type":"node","id":4352171772,"tags":{"amenity":"pharmacy","name":"Dhovan Pharma","name:ne":"दोभान फर्म"},"relations":[],"meta":{"timestamp":"2018-04-05T10:37:06Z","version":2,"changeset":57830409,"user":"Madan Acharya","uid":7707025}},"geometry":{"type":"Point","coordinates":[83.997609,28.2345965]}},{"type":"Feature","id":"node/4352171773","properties":{"type":"node","id":4352171773,"tags":{"amenity":"pharmacy","name":"Sachin Pharma","name:ne":"सचिन फर्म"},"relations":[],"meta":{"timestamp":"2016-08-16T05:27:50Z","version":1,"changeset":41482155,"user":"Manoj Thapa","uid":781054}},"geometry":{"type":"Point","coordinates":[83.997663,28.2344715]}},{"type":"Feature","id":"node/4352171774","properties":{"type":"node","id":4352171774,"tags":{"amenity":"pharmacy","name":"Shakar Pharma","name:ne":"साकार फर्म"},"relations":[],"meta":{"timestamp":"2016-08-16T05:27:50Z","version":1,"changeset":41482155,"user":"Manoj Thapa","uid":781054}},"geometry":{"type":"Point","coordinates":[83.9974849,28.2347661]}},{"type":"Feature","id":"node/4352173607","properties":{"type":"node","id":4352173607,"tags":{"amenity":"pharmacy","name":"Ram Medical Hall","name:ne":"राम मेडिकल हल"},"relations":[],"meta":{"timestamp":"2016-08-16T05:32:07Z","version":1,"changeset":41482181,"user":"Manoj Thapa","uid":781054}},"geometry":{"type":"Point","coordinates":[83.997384,28.2349463]}},{"type":"Feature","id":"node/4358393393","properties":{"type":"node","id":4358393393,"tags":{"amenity":"pharmacy","building":"yes","contact:phone":"9856021418","name":"Yeusikaa Medical Hall","name:ne":"युसिका मेडिकल हाल","opening_hours":"Su-Sa 7:00-21:00","source":"2cpokhara"},"relations":[],"meta":{"timestamp":"2018-03-31T15:58:02Z","version":2,"changeset":57692045,"user":"Sagarsubedi205","uid":7632456}},"geometry":{"type":"Point","coordinates":[84.0412216,28.1463195]}},{"type":"Feature","id":"node/4361274084","properties":{"type":"node","id":4361274084,"tags":{"amenity":"pharmacy","name":"Indus Pharma( Medical Hall)","name:ne":"इन्दुस फर्मा (मेडिकल हल)"},"relations":[],"meta":{"timestamp":"2018-04-06T09:28:59Z","version":4,"changeset":57859539,"user":"Manoj Thapa","uid":781054}},"geometry":{"type":"Point","coordinates":[83.9905712,28.2238485]}},{"type":"Feature","id":"node/4373206109","properties":{"type":"node","id":4373206109,"tags":{"amenity":"pharmacy","contact:phone":"9819127404","name":"Sewa Medical","name:ne":"सेवा मेडिकल","opening_hours":"8:00-20:00","source":"2cpokhara"},"relations":[],"meta":{"timestamp":"2018-05-17T21:25:24Z","version":4,"changeset":59062761,"user":"ForstEK","uid":1737608}},"geometry":{"type":"Point","coordinates":[83.9734631,28.1865956]}},{"type":"Feature","id":"node/4375196311","properties":{"type":"node","id":4375196311,"tags":{"amenity":"pharmacy","name":"Sujan Medical Hall","name:ne":"सुजन मेडीकल हल","source":"2C Pokhara Field Data Collection"},"relations":[],"meta":{"timestamp":"2017-01-09T08:36:49Z","version":3,"changeset":45020500,"user":"Alisha12","uid":4204463}},"geometry":{"type":"Point","coordinates":[83.9706258,28.1920811]}},{"type":"Feature","id":"node/4419914526","properties":{"type":"node","id":4419914526,"tags":{"amenity":"pharmacy","name":"Biraj Eye Clinic","opening_hours":"10:00-16:00"},"relations":[],"meta":{"timestamp":"2016-09-27T06:55:18Z","version":1,"changeset":42462405,"user":"Marbhunge Motu","uid":3686604}},"geometry":{"type":"Point","coordinates":[83.9884903,28.2087376]}},{"type":"Feature","id":"node/4423256172","properties":{"type":"node","id":4423256172,"tags":{"amenity":"pharmacy","contact:phone":"984610593","name":"Siddheshor Medical Hall"},"relations":[],"meta":{"timestamp":"2016-12-25T11:20:02Z","version":2,"changeset":44659669,"user":"Alisha12","uid":4204463}},"geometry":{"type":"Point","coordinates":[83.9957113,28.201054]}},{"type":"Feature","id":"node/4450185076","properties":{"type":"node","id":4450185076,"tags":{"addr:city":"Pokhara","addr:street":"kolpatan","amenity":"pharmacy","name":"Aaush Medical Hall","name:ne":"आयुस मेडिकल हल"},"relations":[],"meta":{"timestamp":"2016-11-08T04:06:16Z","version":3,"changeset":43478244,"user":"Alisha12","uid":4204463}},"geometry":{"type":"Point","coordinates":[83.9962342,28.1913528]}},{"type":"Feature","id":"node/4461306882","properties":{"type":"node","id":4461306882,"tags":{"amenity":"pharmacy","name":"Parkland Hospital Pharmacy","name:ne":"पार्क लाण्ड होस्पिटल फर्माेसि"},"relations":[],"meta":{"timestamp":"2017-02-08T08:47:04Z","version":5,"changeset":45909365,"user":"Alisha12","uid":4204463}},"geometry":{"type":"Point","coordinates":[84.0012831,28.2045828]}},{"type":"Feature","id":"node/4461436290","properties":{"type":"node","id":4461436290,"tags":{"addr:street":"Prithivi chowk","amenity":"pharmacy","contact:phone":"9846513357, 061-550017","name":"Deep Jyoti Medical Hall","name:ne":"दिप ज्योति मेडिकल हल","source":"2C Pokhara Field Data Collection"},"relations":[],"meta":{"timestamp":"2018-04-11T04:29:31Z","version":3,"changeset":57991353,"user":"Active Asmita","uid":7644107}},"geometry":{"type":"Point","coordinates":[83.985518,28.209304]}},{"type":"Feature","id":"node/4511683044","properties":{"type":"node","id":4511683044,"tags":{"amenity":"pharmacy","name":"Kafle Medical Hall","name:ne":"काफ्ले मेडीकल हल"},"relations":[],"meta":{"timestamp":"2018-04-06T08:47:19Z","version":4,"changeset":57858395,"user":"Manoj Thapa","uid":781054}},"geometry":{"type":"Point","coordinates":[83.987553,28.2397402]}},{"type":"Feature","id":"node/4511690597","properties":{"type":"node","id":4511690597,"tags":{"amenity":"pharmacy","name":"satish Farms and Medical Hall","name:ne":"सतिश फार्मेसी तथा मेडिकल हल"},"relations":[],"meta":{"timestamp":"2017-04-17T11:03:20Z","version":2,"changeset":47866565,"user":"Alisha12","uid":4204463}},"geometry":{"type":"Point","coordinates":[83.9849404,28.2306912]}},{"type":"Feature","id":"node/4511697738","properties":{"type":"node","id":4511697738,"tags":{"amenity":"pharmacy","name":"Chhatra Medical Hall","phone":"9856027090"},"relations":[],"meta":{"timestamp":"2017-06-24T06:35:39Z","version":2,"changeset":49787342,"user":"Ro Sun","uid":3112087}},"geometry":{"type":"Point","coordinates":[83.9776709,28.2208686]}},{"type":"Feature","id":"node/4511700328","properties":{"type":"node","id":4511700328,"tags":{"amenity":"pharmacy","name":"Koirala Pharmacy"},"relations":[],"meta":{"timestamp":"2017-06-25T01:51:13Z","version":4,"changeset":49804771,"user":"Ro Sun","uid":3112087}},"geometry":{"type":"Point","coordinates":[83.9787498,28.2224054]}},{"type":"Feature","id":"node/4511700329","properties":{"type":"node","id":4511700329,"tags":{"amenity":"pharmacy","name":"Diya Medical Hall"},"relations":[],"meta":{"timestamp":"2018-02-21T07:12:17Z","version":5,"changeset":56540721,"user":"Active Asmita","uid":7644107}},"geometry":{"type":"Point","coordinates":[83.9802324,28.2246033]}},{"type":"Feature","id":"node/4544174091","properties":{"type":"node","id":4544174091,"tags":{"amenity":"pharmacy","name":"New Pokhara Pharmacy","source":"2cpokhara"},"relations":[],"meta":{"timestamp":"2018-05-14T07:04:27Z","version":4,"changeset":58941471,"user":"Abash Paudel","uid":6677482}},"geometry":{"type":"Point","coordinates":[83.9948986,28.2188505]}},{"type":"Feature","id":"node/4566233007","properties":{"type":"node","id":4566233007,"tags":{"amenity":"pharmacy","name":"Fewa City Hospital Pharmacy","opening_hours":"24/7","operator:type":"private","source":"2c peset"},"relations":[],"meta":{"timestamp":"2018-04-24T16:35:21Z","version":2,"changeset":58379954,"user":"sadeepta dh","uid":4851333}},"geometry":{"type":"Point","coordinates":[83.9814418,28.206643]}},{"type":"Feature","id":"node/4571467980","properties":{"type":"node","id":4571467980,"tags":{"amenity":"pharmacy","contact:phone":"9846197347","name":"Dip Jyoti Homiyo Pharmacy"},"relations":[],"meta":{"timestamp":"2016-12-25T11:19:59Z","version":1,"changeset":44659669,"user":"Alisha12","uid":4204463}},"geometry":{"type":"Point","coordinates":[83.9953359,28.2031324]}},{"type":"Feature","id":"node/4571467984","properties":{"type":"node","id":4571467984,"tags":{"amenity":"pharmacy","contact:phone":"061-431798","name":"Kiran Gurung Medical Hall"},"relations":[],"meta":{"timestamp":"2016-12-25T11:19:59Z","version":1,"changeset":44659669,"user":"Alisha12","uid":4204463}},"geometry":{"type":"Point","coordinates":[83.9949257,28.2014204]}},{"type":"Feature","id":"node/4571467985","properties":{"type":"node","id":4571467985,"tags":{"amenity":"pharmacy","contact:phone":"061-430819","name":"New Subharaj Medical Hall"},"relations":[],"meta":{"timestamp":"2016-12-25T11:19:59Z","version":1,"changeset":44659669,"user":"Alisha12","uid":4204463}},"geometry":{"type":"Point","coordinates":[83.9950938,28.2012586]}},{"type":"Feature","id":"node/4574870196","properties":{"type":"node","id":4574870196,"tags":{"addr:city":"pokhara","addr:street":"Pokhara Baglung Rajmarg","amenity":"pharmacy","description":"field visit","name":"Dudh Pokhari Pharmacy","opening_hours":"24/7","operator":"Private"},"relations":[],"meta":{"timestamp":"2017-08-08T15:06:43Z","version":4,"changeset":50946675,"user":"Sailesh Prj","uid":6443256}},"geometry":{"type":"Point","coordinates":[83.9829256,28.2377692]}},{"type":"Feature","id":"node/4579370615","properties":{"type":"node","id":4579370615,"tags":{"amenity":"pharmacy","name":"Brighter Pharmacy","source":"2cpokhara"},"relations":[],"meta":{"timestamp":"2018-04-02T03:26:25Z","version":2,"changeset":57727331,"user":"Active Asmita","uid":7644107}},"geometry":{"type":"Point","coordinates":[83.9867332,28.2113389]}},{"type":"Feature","id":"node/4579370616","properties":{"type":"node","id":4579370616,"tags":{"amenity":"pharmacy","name":"Neha Ausadhi"},"relations":[],"meta":{"timestamp":"2016-12-29T12:48:07Z","version":1,"changeset":44756444,"user":"Gaurav Thapa","uid":4212590}},"geometry":{"type":"Point","coordinates":[83.9864596,28.2104975]}},{"type":"Feature","id":"node/4579370654","properties":{"type":"node","id":4579370654,"tags":{"amenity":"pharmacy","name":"Sabhagriya Medicare","source":"2C Pokhara Field Data Collection"},"relations":[],"meta":{"timestamp":"2017-01-11T10:39:03Z","version":2,"changeset":45073222,"user":"Alisha12","uid":4204463}},"geometry":{"type":"Point","coordinates":[83.9846367,28.2109311]}},{"type":"Feature","id":"node/4592397383","properties":{"type":"node","id":4592397383,"tags":{"amenity":"pharmacy","contact:phone":"9846030213","name":"Dhaulagiri Medical Hall","opening_hours":"8am-7pm","source":"2cpokhara"},"relations":[],"meta":{"timestamp":"2018-03-05T13:54:33Z","version":3,"changeset":56904438,"user":"Sagarsubedi205","uid":7632456}},"geometry":{"type":"Point","coordinates":[83.9786172,28.1939983]}},{"type":"Feature","id":"node/4595643910","properties":{"type":"node","id":4595643910,"tags":{"amenity":"pharmacy","contact:phone":"9846022676, 061-463596","name":"Sayapatri Medical Hall","name:ne":"सयपत्री मेडिकल हल","source":"2C Pokhara Field Data Collection"},"relations":[],"meta":{"timestamp":"2017-01-08T04:58:34Z","version":1,"changeset":44993667,"user":"Alisha12","uid":4204463}},"geometry":{"type":"Point","coordinates":[83.9598492,28.2064238]}},{"type":"Feature","id":"node/4595904436","properties":{"type":"node","id":4595904436,"tags":{"amenity":"pharmacy","name":"Goma Medical Hall","source":"2C Pokhara Field Data Collection"},"relations":[],"meta":{"timestamp":"2017-09-30T03:23:11Z","version":3,"changeset":52498772,"user":"GOwin","uid":1041828}},"geometry":{"type":"Point","coordinates":[83.9577889,28.2143234]}},{"type":"Feature","id":"node/4595904440","properties":{"type":"node","id":4595904440,"tags":{"alt_name":"ATM","amenity":"pharmacy","contact:phone":"061-461684","name":"Milap Pharmacy","source":"2C Pokhara Field Data Collection"},"relations":[],"meta":{"timestamp":"2018-03-09T08:12:24Z","version":2,"changeset":57023542,"user":"Shrestha Khum","uid":7644104}},"geometry":{"type":"Point","coordinates":[83.9578112,28.2085264]}},{"type":"Feature","id":"node/4595904442","properties":{"type":"node","id":4595904442,"tags":{"amenity":"pharmacy","name":"Pandey Medical Hall","source":"2C Pokhara Field Data Collection"},"relations":[],"meta":{"timestamp":"2017-01-09T06:21:27Z","version":2,"changeset":45018498,"user":"Alisha12","uid":4204463}},"geometry":{"type":"Point","coordinates":[83.9594048,28.2135684]}},{"type":"Feature","id":"node/4595904443","properties":{"type":"node","id":4595904443,"tags":{"amenity":"pharmacy","name":"Ramba Pharmacy","source":"2C Pokhara Field Data Collection"},"relations":[],"meta":{"timestamp":"2017-01-09T06:21:27Z","version":2,"changeset":45018498,"user":"Alisha12","uid":4204463}},"geometry":{"type":"Point","coordinates":[83.9580844,28.2149353]}},{"type":"Feature","id":"node/4595945797","properties":{"type":"node","id":4595945797,"tags":{"amenity":"pharmacy","name":"Smriti Medical","source":"2C Pokhara Field Data Collection"},"relations":[],"meta":{"timestamp":"2018-04-01T11:11:13Z","version":5,"changeset":57709722,"user":"Shrestha Khum","uid":7644104}},"geometry":{"type":"Point","coordinates":[83.9588405,28.2177983]}},{"type":"Feature","id":"node/4597488998","properties":{"type":"node","id":4597488998,"tags":{"amenity":"pharmacy","name":"The Lake Pharmacy"},"relations":[],"meta":{"timestamp":"2017-04-13T07:24:41Z","version":2,"changeset":47732959,"user":"Gaurav Thapa","uid":4212590}},"geometry":{"type":"Point","coordinates":[83.9574019,28.2118359]}},{"type":"Feature","id":"node/4597652682","properties":{"type":"node","id":4597652682,"tags":{"amenity":"pharmacy","name":"Birauta Medical Pharma","source":"2C Pokhara Field Data Collection"},"relations":[],"meta":{"timestamp":"2017-01-09T08:36:48Z","version":1,"changeset":45020500,"user":"Alisha12","uid":4204463}},"geometry":{"type":"Point","coordinates":[83.9703691,28.1917027]}},{"type":"Feature","id":"node/4597653690","properties":{"type":"node","id":4597653690,"tags":{"amenity":"pharmacy","contact:phone":"9856031841","name":"Subha Prabhat Pharmacy","opening_hours":"Su-Sa 6:00-21:00","source":"2cpokhara"},"relations":[],"meta":{"timestamp":"2018-03-11T09:04:04Z","version":3,"changeset":57075740,"user":"Sagarsubedi205","uid":7632456}},"geometry":{"type":"Point","coordinates":[83.971229,28.1922474]}},{"type":"Feature","id":"node/4599188352","properties":{"type":"node","id":4599188352,"tags":{"amenity":"pharmacy","name":"Samata Pharmacy","source":"2C Pokhara Field Data Collection"},"relations":[],"meta":{"timestamp":"2017-01-10T05:22:03Z","version":1,"changeset":45042660,"user":"Alisha12","uid":4204463}},"geometry":{"type":"Point","coordinates":[83.9751633,28.198545]}},{"type":"Feature","id":"node/4599209617","properties":{"type":"node","id":4599209617,"tags":{"addr:city":"Simalchaur-8, Pokhara","amenity":"pharmacy","contact:phone":"061-521076, 9856051488, 9846051488","name":"NIMS Pharmacy","source":"2C Pokhara Field Data Collection"},"relations":[],"meta":{"timestamp":"2017-06-13T07:31:48Z","version":2,"changeset":49490774,"user":"Ro Sun","uid":3112087}},"geometry":{"type":"Point","coordinates":[83.9790654,28.2092964]}},{"type":"Feature","id":"node/4599306668","properties":{"type":"node","id":4599306668,"tags":{"amenity":"pharmacy","name":"Aasirbad Medical Service","source":"2C Pokhara Field Data Collection"},"relations":[],"meta":{"timestamp":"2017-01-10T08:01:02Z","version":1,"changeset":45044654,"user":"Alisha12","uid":4204463}},"geometry":{"type":"Point","coordinates":[83.9841685,28.2101024]}},{"type":"Feature","id":"node/4599306669","properties":{"type":"node","id":4599306669,"tags":{"addr:city":"Simalchaur-8, Pokhara","amenity":"pharmacy","name":"Nanita Pharmacy","source":"2C Pokhara Field Data Collection"},"relations":[],"meta":{"timestamp":"2017-01-10T08:01:02Z","version":1,"changeset":45044654,"user":"Alisha12","uid":4204463}},"geometry":{"type":"Point","coordinates":[83.9795033,28.2098709]}},{"type":"Feature","id":"node/4599518601","properties":{"type":"node","id":4599518601,"tags":{"amenity":"pharmacy","contact:phone":"061-522083","name":"Anmol Medical","shop":"wholesale","source":"2C Pokhara Field Data Collection"},"relations":[],"meta":{"timestamp":"2018-04-10T16:32:16Z","version":2,"changeset":57978508,"user":"Active Asmita","uid":7644107}},"geometry":{"type":"Point","coordinates":[83.9914177,28.2210503]}},{"type":"Feature","id":"node/4599587147","properties":{"type":"node","id":4599587147,"tags":{"amenity":"pharmacy","name":"Area Medical Hall","source":"2C Pokhara Field Data Collection"},"relations":[],"meta":{"timestamp":"2017-04-17T10:48:37Z","version":2,"changeset":47866117,"user":"Alisha12","uid":4204463}},"geometry":{"type":"Point","coordinates":[83.9879588,28.240232]}},{"type":"Feature","id":"node/4601383669","properties":{"type":"node","id":4601383669,"tags":{"amenity":"pharmacy","name":"Padhma Pharmacy","source":"2C Pokhara Field Data Collection"},"relations":[],"meta":{"timestamp":"2017-01-11T10:26:27Z","version":1,"changeset":45073005,"user":"Alisha12","uid":4204463}},"geometry":{"type":"Point","coordinates":[83.9867133,28.2196661]}},{"type":"Feature","id":"node/4631858314","properties":{"type":"node","id":4631858314,"tags":{"amenity":"pharmacy","name":"Panthi Pharmacy","source":"Field Visit"},"relations":[],"meta":{"timestamp":"2017-01-25T10:57:23Z","version":1,"changeset":45471347,"user":"Alisha12","uid":4204463}},"geometry":{"type":"Point","coordinates":[83.960556,28.2144786]}},{"type":"Feature","id":"node/4634033814","properties":{"type":"node","id":4634033814,"tags":{"amenity":"pharmacy","name":"Everest Medico Pharma","source":"Local Knowledge"},"relations":[],"meta":{"timestamp":"2017-01-26T05:29:54Z","version":1,"changeset":45499766,"user":"Alisha12","uid":4204463}},"geometry":{"type":"Point","coordinates":[84.0012553,28.203055]}},{"type":"Feature","id":"node/4650648169","properties":{"type":"node","id":4650648169,"tags":{"addr:city":"Pokhara Lekhnath Metropolitan City","addr:place":"Tal Chowk","addr:street":"Talchowk Begnas","amenity":"pharmacy","contact:phone":"9846029690/061-561377","name":"Rupa Pharmacy","opening_hours":"Su-Sa 07:00-19:00","operator":"Private"},"relations":[],"meta":{"timestamp":"2017-09-12T09:17:49Z","version":3,"changeset":51966205,"user":"Ashish Thapa","uid":4039113}},"geometry":{"type":"Point","coordinates":[84.0575008,28.1630407]}},{"type":"Feature","id":"node/4650789101","properties":{"type":"node","id":4650789101,"tags":{"amenity":"pharmacy","name":"Barak Medical"},"relations":[],"meta":{"timestamp":"2017-02-01T05:49:53Z","version":1,"changeset":45706951,"user":"Alisha12","uid":4204463}},"geometry":{"type":"Point","coordinates":[84.050169,28.1749342]}},{"type":"Feature","id":"node/4650815025","properties":{"type":"node","id":4650815025,"tags":{"addr:place":"Swagat Nagar, Chauthe, Pokhara-14","amenity":"pharmacy","contact:phone":"9846027840","name":"Bigya Pharmacy","source":"2C Pokhara Field Data Collection"},"relations":[],"meta":{"timestamp":"2017-09-05T14:16:27Z","version":2,"changeset":51752408,"user":"Ashish Thapa","uid":4039113}},"geometry":{"type":"Point","coordinates":[84.0148572,28.1986271]}},{"type":"Feature","id":"node/4650815026","properties":{"type":"node","id":4650815026,"tags":{"amenity":"pharmacy","contact:phone":"0614113951","name":"Yekata Pharmacy","opening_hours":"7:00-19:00","operator:type":"private"},"relations":[],"meta":{"timestamp":"2018-04-16T10:01:20Z","version":2,"changeset":58132599,"user":"sandip parajuli","uid":7668145}},"geometry":{"type":"Point","coordinates":[84.0305605,28.1902176]}},{"type":"Feature","id":"node/4650852756","properties":{"type":"node","id":4650852756,"tags":{"amenity":"pharmacy","name":"Pokhara Medical Hall or Clinic"},"relations":[],"meta":{"timestamp":"2017-02-06T05:44:28Z","version":2,"changeset":45846252,"user":"Ro Sun","uid":3112087}},"geometry":{"type":"Point","coordinates":[83.9913366,28.2251819]}},{"type":"Feature","id":"node/4674651329","properties":{"type":"node","id":4674651329,"tags":{"addr:city":"Lamachaur, Pokhara","amenity":"pharmacy","contact:phone":"9856080333,9856035506","name":"Acharya Medical Hall","opening_hours":"7 AM-8 PM","source":"2cpokhara"},"relations":[],"meta":{"timestamp":"2018-02-24T10:30:51Z","version":4,"changeset":56632750,"user":"Rabin Ojha","uid":6075053}},"geometry":{"type":"Point","coordinates":[83.9720945,28.2616893]}},{"type":"Feature","id":"node/4674651333","properties":{"type":"node","id":4674651333,"tags":{"amenity":"pharmacy","name":"Lamachaur Medical"},"relations":[],"meta":{"timestamp":"2018-03-26T04:37:49Z","version":2,"changeset":57522368,"user":"Ro Sun","uid":3112087}},"geometry":{"type":"Point","coordinates":[83.9718044,28.2608068]}},{"type":"Feature","id":"node/4676761454","properties":{"type":"node","id":4676761454,"tags":{"amenity":"pharmacy","name":"Saru Medical"},"relations":[],"meta":{"timestamp":"2017-02-09T16:04:38Z","version":1,"changeset":45951018,"user":"Manoj Thapa","uid":781054}},"geometry":{"type":"Point","coordinates":[83.9877112,28.2094805]}},{"type":"Feature","id":"node/4690073189","properties":{"type":"node","id":4690073189,"tags":{"amenity":"pharmacy","name":"Trekking Medicine Pharmacy"},"relations":[],"meta":{"timestamp":"2017-05-05T09:58:22Z","version":2,"changeset":48421383,"user":"Ro Sun","uid":3112087}},"geometry":{"type":"Point","coordinates":[83.9582646,28.2115694]}},{"type":"Feature","id":"node/4716527190","properties":{"type":"node","id":4716527190,"tags":{"addr:place":"Sidahartha Chowk, Pokhara","amenity":"pharmacy","name":"Mersany Medical Hall","name:en":"Mersany Medical Hall","name:hi":"मर्सनी मेडिकल हल"},"relations":[],"meta":{"timestamp":"2017-09-09T04:52:21Z","version":3,"changeset":51869303,"user":"Ashish Thapa","uid":4039113}},"geometry":{"type":"Point","coordinates":[83.9843652,28.2243562]}},{"type":"Feature","id":"node/4720321089","properties":{"type":"node","id":4720321089,"tags":{"addr:street":"New Road","amenity":"pharmacy","email":"pokharalikata@gmail.com","internet_access":"wlan","name:en":"New road pharmacy","operator":"Bibek Pokharel","phone":"061532947"},"relations":[],"meta":{"timestamp":"2017-12-01T06:09:49Z","version":2,"changeset":54224996,"user":"Ro Sun","uid":3112087}},"geometry":{"type":"Point","coordinates":[83.9866445,28.2179347]}},{"type":"Feature","id":"node/4759017650","properties":{"type":"node","id":4759017650,"tags":{"amenity":"pharmacy","name":"Lio Pharmacy"},"relations":[],"meta":{"timestamp":"2017-05-05T10:03:54Z","version":2,"changeset":48421585,"user":"Ro Sun","uid":3112087}},"geometry":{"type":"Point","coordinates":[83.9795082,28.2236734]}},{"type":"Feature","id":"node/4759244923","properties":{"type":"node","id":4759244923,"tags":{"amenity":"pharmacy","name":"Geno Pharmacy"},"relations":[],"meta":{"timestamp":"2017-05-05T10:45:41Z","version":2,"changeset":48422937,"user":"Ro Sun","uid":3112087}},"geometry":{"type":"Point","coordinates":[83.9836917,28.2435381]}},{"type":"Feature","id":"node/4759421525","properties":{"type":"node","id":4759421525,"tags":{"amenity":"pharmacy","name":"Pharmacy Unit"},"relations":[],"meta":{"timestamp":"2017-05-05T10:45:41Z","version":2,"changeset":48422937,"user":"Ro Sun","uid":3112087}},"geometry":{"type":"Point","coordinates":[83.9887877,28.2433139]}},{"type":"Feature","id":"node/4769742724","properties":{"type":"node","id":4769742724,"tags":{"amenity":"pharmacy","name":"Sunene Pradhan Medical Hall","phone":"061-432009"},"relations":[],"meta":{"timestamp":"2018-05-30T04:52:48Z","version":3,"changeset":59385482,"user":"Ro Sun","uid":3112087}},"geometry":{"type":"Point","coordinates":[84.0015757,28.2044375]}},{"type":"Feature","id":"node/4776531321","properties":{"type":"node","id":4776531321,"tags":{"amenity":"pharmacy","contact:phone":"061 551089, 9846212373","name":"Shanti Medical Hall"},"relations":[],"meta":{"timestamp":"2017-09-10T03:38:34Z","version":3,"changeset":51896512,"user":"Ashish Thapa","uid":4039113}},"geometry":{"type":"Point","coordinates":[83.9889774,28.2446259]}},{"type":"Feature","id":"node/4777952423","properties":{"type":"node","id":4777952423,"tags":{"addr:city":"pokhara lekhnath municipality","addr:place":"Thulakhet-23","addr:street":"Thulakhet marga","amenity":"pharmacy","contact:phone":"9816193828","name":"Laxmi Pharmacy","opening_hours":"5:00-17:00","operator":"Private"},"relations":[],"meta":{"timestamp":"2017-08-13T05:29:25Z","version":5,"changeset":51072352,"user":"Ast adhikari","uid":6447911}},"geometry":{"type":"Point","coordinates":[83.8743272,28.2465752]}},{"type":"Feature","id":"node/4786025024","properties":{"type":"node","id":4786025024,"tags":{"amenity":"pharmacy","name":"Anna Medicko Pharm","name:ne":"अन्न मेडिको फर्म"},"relations":[],"meta":{"timestamp":"2018-05-31T06:44:47Z","version":2,"changeset":59418385,"user":"Manoj Thapa","uid":781054}},"geometry":{"type":"Point","coordinates":[83.964862,28.3324222]}},{"type":"Feature","id":"node/4788190927","properties":{"type":"node","id":4788190927,"tags":{"amenity":"pharmacy","contact:phone":"9846053977","name":"Devi Medical Hall"},"relations":[],"meta":{"timestamp":"2017-04-12T07:53:14Z","version":2,"changeset":47684662,"user":"Parassrest","uid":3569249}},"geometry":{"type":"Point","coordinates":[84.0432212,28.1846589]}},{"type":"Feature","id":"node/4788191430","properties":{"type":"node","id":4788191430,"tags":{"amenity":"pharmacy","contact:phone":"98460232088","name":"Aausadhi Pasal","operator:type":"private","source":"2cpokhara"},"relations":[],"meta":{"timestamp":"2018-04-16T09:38:21Z","version":4,"changeset":58132023,"user":"sandip parajuli","uid":7668145}},"geometry":{"type":"Point","coordinates":[84.0372512,28.1846774]}},{"type":"Feature","id":"node/4788226022","properties":{"type":"node","id":4788226022,"tags":{"amenity":"pharmacy","contact:phone":"9846142903","name":"Upakar Medical Hall","opening_hours":"7:00-20:00"},"relations":[],"meta":{"timestamp":"2018-04-16T08:48:50Z","version":4,"changeset":58130705,"user":"sandip parajuli","uid":7668145}},"geometry":{"type":"Point","coordinates":[84.0456489,28.1801081]}},{"type":"Feature","id":"node/4788226423","properties":{"type":"node","id":4788226423,"tags":{"amenity":"pharmacy","name":"Baral Medical Hall"},"relations":[],"meta":{"timestamp":"2017-04-17T04:08:55Z","version":2,"changeset":47854847,"user":"Parassrest","uid":3569249}},"geometry":{"type":"Point","coordinates":[84.049895,28.1751217]}},{"type":"Feature","id":"node/4798534241","properties":{"type":"node","id":4798534241,"tags":{"amenity":"pharmacy","name":"Sabyata Pharmacy"},"relations":[],"meta":{"timestamp":"2018-05-13T18:12:05Z","version":2,"changeset":58930764,"user":"Abash Paudel","uid":6677482}},"geometry":{"type":"Point","coordinates":[83.9920885,28.2230896]}},{"type":"Feature","id":"node/4798561854","properties":{"type":"node","id":4798561854,"tags":{"amenity":"pharmacy","name":"Amarsingh Pharmacy"},"relations":[],"meta":{"timestamp":"2017-09-14T07:40:50Z","version":2,"changeset":52028129,"user":"marek kleciak","uid":338611}},"geometry":{"type":"Point","coordinates":[84.0006166,28.2052393]}},{"type":"Feature","id":"node/4798561856","properties":{"type":"node","id":4798561856,"tags":{"amenity":"pharmacy","name":"Nidan Medical Hall"},"relations":[],"meta":{"timestamp":"2017-04-17T10:13:48Z","version":1,"changeset":47865203,"user":"Alisha12","uid":4204463}},"geometry":{"type":"Point","coordinates":[84.0023765,28.2041358]}},{"type":"Feature","id":"node/4798561858","properties":{"type":"node","id":4798561858,"tags":{"amenity":"pharmacy","name":"Aimee Pharmacy"},"relations":[],"meta":{"timestamp":"2017-04-17T10:13:49Z","version":1,"changeset":47865203,"user":"Alisha12","uid":4204463}},"geometry":{"type":"Point","coordinates":[84.0014458,28.2045037]}},{"type":"Feature","id":"node/4798610254","properties":{"type":"node","id":4798610254,"tags":{"amenity":"pharmacy","contact:phone":"061 528345","name":"Talbarahi Pharmacy","opening_hours":"24/7"},"relations":[],"meta":{"timestamp":"2017-11-17T08:14:34Z","version":4,"changeset":53866908,"user":"Alisha12","uid":4204463}},"geometry":{"type":"Point","coordinates":[83.9899531,28.226066]}},{"type":"Feature","id":"node/4798636067","properties":{"type":"node","id":4798636067,"tags":{"amenity":"pharmacy","name":"Nishchal Parmacy"},"relations":[],"meta":{"timestamp":"2017-04-17T10:48:36Z","version":1,"changeset":47866117,"user":"Alisha12","uid":4204463}},"geometry":{"type":"Point","coordinates":[83.9892434,28.2451093]}},{"type":"Feature","id":"node/4798636068","properties":{"type":"node","id":4798636068,"tags":{"amenity":"pharmacy","contact:phone":"9815117820","name":"Nawa Jiwan Darsan Pharmacy","opening_hours":"7 AM-7 PM","source":"2cpokhara"},"relations":[],"meta":{"timestamp":"2018-02-25T13:18:07Z","version":2,"changeset":56660853,"user":"Rabin Ojha","uid":6075053}},"geometry":{"type":"Point","coordinates":[83.986494,28.2477987]}},{"type":"Feature","id":"node/4798636073","properties":{"type":"node","id":4798636073,"tags":{"amenity":"pharmacy","name":"Sardikhola Pharmacy"},"relations":[],"meta":{"timestamp":"2017-04-17T10:48:36Z","version":1,"changeset":47866117,"user":"Alisha12","uid":4204463}},"geometry":{"type":"Point","coordinates":[83.9888125,28.2435143]}},{"type":"Feature","id":"node/4798636096","properties":{"type":"node","id":4798636096,"tags":{"amenity":"pharmacy","name":"Multi Medical Hall"},"relations":[],"meta":{"timestamp":"2017-04-17T10:48:36Z","version":1,"changeset":47866117,"user":"Alisha12","uid":4204463}},"geometry":{"type":"Point","coordinates":[83.9879476,28.2404042]}},{"type":"Feature","id":"node/4798646988","properties":{"type":"node","id":4798646988,"tags":{"amenity":"pharmacy","contact:phone":"9843463608","name":"Daju Vai Pharmacy","opening_hours":"6:30-21:00","operator:name":"Bharat Acharya","source":"2cpokhara"},"relations":[],"meta":{"timestamp":"2018-02-25T05:20:39Z","version":3,"changeset":56652150,"user":"Ro Sun","uid":3112087}},"geometry":{"type":"Point","coordinates":[83.9810982,28.2583445]}},{"type":"Feature","id":"node/4798686267","properties":{"type":"node","id":4798686267,"tags":{"amenity":"pharmacy","name":"Siddhartha Homiyo Pharmacy"},"relations":[],"meta":{"timestamp":"2017-04-17T11:20:34Z","version":1,"changeset":47867059,"user":"Alisha12","uid":4204463}},"geometry":{"type":"Point","coordinates":[83.9846081,28.2246902]}},{"type":"Feature","id":"node/4800832822","properties":{"type":"node","id":4800832822,"tags":{"amenity":"pharmacy","name":"Sarathi Medical Hall"},"relations":[],"meta":{"timestamp":"2017-04-18T09:31:22Z","version":1,"changeset":47899368,"user":"ayushupreti22","uid":3911278}},"geometry":{"type":"Point","coordinates":[83.9588184,28.2169194]}},{"type":"Feature","id":"node/4805349950","properties":{"type":"node","id":4805349950,"tags":{"amenity":"pharmacy","contact:phone":"9856010789","name":"Raj Pharmacy","opening_hours":"8:00-19:00","source":"2cpokhara"},"relations":[],"meta":{"timestamp":"2018-03-12T07:11:13Z","version":3,"changeset":57101308,"user":"Sagarsubedi205","uid":7632456}},"geometry":{"type":"Point","coordinates":[83.9715713,28.1920022]}},{"type":"Feature","id":"node/4805349957","properties":{"type":"node","id":4805349957,"tags":{"amenity":"pharmacy","name":"Aarkid Pharmacy"},"relations":[],"meta":{"timestamp":"2017-04-20T08:27:07Z","version":1,"changeset":47963522,"user":"Alisha12","uid":4204463}},"geometry":{"type":"Point","coordinates":[83.9730199,28.1926725]}},{"type":"Feature","id":"node/4805382925","properties":{"type":"node","id":4805382925,"tags":{"amenity":"pharmacy","contact:phone":"9857033158","name":"Pahichan Medical","opening_hours":"7:00-18:00","source":"2cpokhara"},"relations":[],"meta":{"timestamp":"2018-03-07T10:49:36Z","version":2,"changeset":56964115,"user":"Sagarsubedi205","uid":7632456}},"geometry":{"type":"Point","coordinates":[83.9537234,28.1911607]}},{"type":"Feature","id":"node/4805411461","properties":{"type":"node","id":4805411461,"tags":{"amenity":"pharmacy","name":"Namrata Medical Hall","opening_hours":"8:00-19:00","source":"2cpokhara"},"relations":[],"meta":{"timestamp":"2018-03-06T14:31:51Z","version":2,"changeset":56937658,"user":"Sagarsubedi205","uid":7632456}},"geometry":{"type":"Point","coordinates":[83.9597242,28.1889786]}},{"type":"Feature","id":"node/4805411467","properties":{"type":"node","id":4805411467,"tags":{"amenity":"pharmacy","contact:phone":"9856030048","name":"Devis fall Medical Hall","opening_hours":"8:00-19:00","source":"2cpokhara"},"relations":[],"meta":{"timestamp":"2018-03-06T14:31:51Z","version":2,"changeset":56937658,"user":"Sagarsubedi205","uid":7632456}},"geometry":{"type":"Point","coordinates":[83.9579833,28.1896542]}},{"type":"Feature","id":"node/4805411473","properties":{"type":"node","id":4805411473,"tags":{"amenity":"pharmacy","name":"Mandip Pharmacy","opening_hours":"8:00-19:00","source":"2cpokhara"},"relations":[],"meta":{"timestamp":"2018-03-06T14:31:51Z","version":2,"changeset":56937658,"user":"Sagarsubedi205","uid":7632456}},"geometry":{"type":"Point","coordinates":[83.9575994,28.1900001]}},{"type":"Feature","id":"node/4805429554","properties":{"type":"node","id":4805429554,"tags":{"amenity":"pharmacy","contact:phone":"9856065535","name":"Dev Pharmacy","opening_hours":"Su-Fr 7:00-19:00","source":"2cpokhara"},"relations":[],"meta":{"timestamp":"2018-03-11T09:04:05Z","version":4,"changeset":57075740,"user":"Sagarsubedi205","uid":7632456}},"geometry":{"type":"Point","coordinates":[83.9711934,28.19239]}},{"type":"Feature","id":"node/4805433821","properties":{"type":"node","id":4805433821,"tags":{"amenity":"pharmacy","contact:phone":"9847596614","name":"Manish Medical Hall","opening_hours":"Sun-Sa 7:00-20:00","source":"2cpokhara"},"relations":[],"meta":{"timestamp":"2018-03-11T09:13:17Z","version":2,"changeset":57075881,"user":"Sagarsubedi205","uid":7632456}},"geometry":{"type":"Point","coordinates":[83.9702233,28.1953652]}},{"type":"Feature","id":"node/4805438800","properties":{"type":"node","id":4805438800,"tags":{"amenity":"pharmacy","contact:phone":"98560377066","name":"Fulbari Pharmacy","opening_hours":"Su-Sa 07:00-20:00","source":"2cpokhara"},"relations":[],"meta":{"timestamp":"2018-04-08T11:08:53Z","version":3,"changeset":57910324,"user":"Ro Sun","uid":3112087}},"geometry":{"type":"Point","coordinates":[83.9713454,28.2005868]}},{"type":"Feature","id":"node/4805458663","properties":{"type":"node","id":4805458663,"tags":{"amenity":"pharmacy"},"relations":[],"meta":{"timestamp":"2017-04-20T09:24:57Z","version":1,"changeset":47965247,"user":"Alisha12","uid":4204463}},"geometry":{"type":"Point","coordinates":[84.0095183,28.2135735]}},{"type":"Feature","id":"node/4805458674","properties":{"type":"node","id":4805458674,"tags":{"amenity":"pharmacy","name":"Bhim Pharmacy"},"relations":[],"meta":{"timestamp":"2017-04-20T09:24:58Z","version":1,"changeset":47965247,"user":"Alisha12","uid":4204463}},"geometry":{"type":"Point","coordinates":[84.0114223,28.2105642]}},{"type":"Feature","id":"node/4805458675","properties":{"type":"node","id":4805458675,"tags":{"amenity":"pharmacy","name":"Kundhar Medical Hall"},"relations":[],"meta":{"timestamp":"2017-04-20T09:24:58Z","version":1,"changeset":47965247,"user":"Alisha12","uid":4204463}},"geometry":{"type":"Point","coordinates":[84.0115345,28.2101069]}},{"type":"Feature","id":"node/4807288821","properties":{"type":"node","id":4807288821,"tags":{"amenity":"pharmacy","name":"Uniqie Medical"},"relations":[],"meta":{"timestamp":"2017-05-11T04:59:38Z","version":3,"changeset":48579793,"user":"Ro Sun","uid":3112087}},"geometry":{"type":"Point","coordinates":[84.081675,28.1331883]}},{"type":"Feature","id":"node/4810836254","properties":{"type":"node","id":4810836254,"tags":{"amenity":"pharmacy","contact:phone":"9846037693, 9846218672","opening_hours":"7 am - 8 pm","operator":"private","source":"2cpokhara"},"relations":[],"meta":{"timestamp":"2018-03-27T15:15:01Z","version":3,"changeset":57570971,"user":"Amrit Devkota","uid":6497064}},"geometry":{"type":"Point","coordinates":[84.06874,28.1643277]}},{"type":"Feature","id":"node/4812835923","properties":{"type":"node","id":4812835923,"tags":{"amenity":"pharmacy","name":"Gagan Medical Hall"},"relations":[],"meta":{"timestamp":"2017-05-05T10:45:42Z","version":2,"changeset":48422937,"user":"Ro Sun","uid":3112087}},"geometry":{"type":"Point","coordinates":[84.0870735,28.1286607]}},{"type":"Feature","id":"node/4813407223","properties":{"type":"node","id":4813407223,"tags":{"amenity":"pharmacy","contact:phone":"9856061871, 9846032113","name":"Dahal clinic","opening_hours":"Su-Sa 7:00-21:00","source":"2cpokhara"},"relations":[],"meta":{"timestamp":"2018-04-01T11:39:22Z","version":4,"changeset":57710171,"user":"Sagarsubedi205","uid":7632456}},"geometry":{"type":"Point","coordinates":[84.0439529,28.1439306]}},{"type":"Feature","id":"node/4813407521","properties":{"type":"node","id":4813407521,"tags":{"amenity":"pharmacy","contact:phone":"9846040160","name":"Jyoti Medical Hall","opening_hours":"Su-Sa 7:00-21:00","source":"2cpokhara"},"relations":[],"meta":{"timestamp":"2018-03-31T15:58:03Z","version":3,"changeset":57692045,"user":"Sagarsubedi205","uid":7632456}},"geometry":{"type":"Point","coordinates":[84.0445127,28.1438219]}},{"type":"Feature","id":"node/4814800567","properties":{"type":"node","id":4814800567,"tags":{"amenity":"pharmacy","name":"Balika Ausodhi Pasal"},"relations":[],"meta":{"timestamp":"2017-04-25T05:10:58Z","version":1,"changeset":48110005,"user":"Parassrest","uid":3569249}},"geometry":{"type":"Point","coordinates":[84.1031907,28.1201504]}},{"type":"Feature","id":"node/4857189221","properties":{"type":"node","id":4857189221,"tags":{"amenity":"pharmacy","name":"Swikriti Ayurved Medicine Pharma","name:en":"Swikriti Ayurved Medicine Pharma","opening_hours":"Su-Fr 07:00-18:00","operator:type":"private","phone":"061462683"},"relations":[],"meta":{"timestamp":"2018-03-05T15:58:38Z","version":3,"changeset":56907757,"user":"LonelyNarayan","uid":7644124}},"geometry":{"type":"Point","coordinates":[83.9716736,28.201182]}},{"type":"Feature","id":"node/4878196350","properties":{"type":"node","id":4878196350,"tags":{"amenity":"pharmacy","contact:email":"sundarpokhara@gmail.com","contact:phone":"9846031332","name":"Sharmila Medical Hall","opening_hours":"7 AM-7 PM","operator":"Sundar Thapa","source":"2cpokhara"},"relations":[],"meta":{"timestamp":"2018-02-24T10:30:51Z","version":2,"changeset":56632750,"user":"Rabin Ojha","uid":6075053}},"geometry":{"type":"Point","coordinates":[83.9797221,28.2629677]}},{"type":"Feature","id":"node/4912025611","properties":{"type":"node","id":4912025611,"tags":{"amenity":"pharmacy","name":"Omage Medical Hall"},"relations":[],"meta":{"timestamp":"2017-06-13T06:20:52Z","version":1,"changeset":49488935,"user":"Ro Sun","uid":3112087}},"geometry":{"type":"Point","coordinates":[83.9797376,28.2462581]}},{"type":"Feature","id":"node/4912038294","properties":{"type":"node","id":4912038294,"tags":{"amenity":"pharmacy","name":"Shyama Pharmacy"},"relations":[],"meta":{"timestamp":"2017-06-13T06:27:49Z","version":1,"changeset":49489135,"user":"Ro Sun","uid":3112087}},"geometry":{"type":"Point","coordinates":[83.9875032,28.2411886]}},{"type":"Feature","id":"node/4912038295","properties":{"type":"node","id":4912038295,"tags":{"amenity":"pharmacy","contact:phone":"061-541640","name":"Polite Medicine House","opening_hours":"6:00-20:00"},"relations":[],"meta":{"timestamp":"2017-08-09T08:31:56Z","version":2,"changeset":50964431,"user":"cibesh009","uid":6145192}},"geometry":{"type":"Point","coordinates":[83.983551,28.2374025]}},{"type":"Feature","id":"node/4912048173","properties":{"type":"node","id":4912048173,"tags":{"amenity":"pharmacy","name":"Darshan Pharmacy"},"relations":[],"meta":{"timestamp":"2017-06-13T06:34:00Z","version":1,"changeset":49489316,"user":"Ro Sun","uid":3112087}},"geometry":{"type":"Point","coordinates":[83.989239,28.2450035]}},{"type":"Feature","id":"node/4912048176","properties":{"type":"node","id":4912048176,"tags":{"amenity":"pharmacy","name":"Arniko Pharmacy"},"relations":[],"meta":{"timestamp":"2017-06-13T06:34:00Z","version":1,"changeset":49489316,"user":"Ro Sun","uid":3112087}},"geometry":{"type":"Point","coordinates":[83.9872524,28.2417882]}},{"type":"Feature","id":"node/4912059917","properties":{"type":"node","id":4912059917,"tags":{"amenity":"pharmacy","name":"Anurag Medical Pharma"},"relations":[],"meta":{"timestamp":"2017-06-13T06:40:40Z","version":1,"changeset":49489498,"user":"Ro Sun","uid":3112087}},"geometry":{"type":"Point","coordinates":[83.9777219,28.2561561]}},{"type":"Feature","id":"node/4912059918","properties":{"type":"node","id":4912059918,"tags":{"amenity":"pharmacy","contact:phone":"9846044443","name":"Shivam Pharma","opening_hours":"7 AM-8 PM","source":"2cpokhara"},"relations":[],"meta":{"timestamp":"2018-02-25T13:18:07Z","version":2,"changeset":56660853,"user":"Rabin Ojha","uid":6075053}},"geometry":{"type":"Point","coordinates":[83.9863998,28.248011]}},{"type":"Feature","id":"node/4912099624","properties":{"type":"node","id":4912099624,"tags":{"amenity":"pharmacy","name":"Saujanya Pharmacy"},"relations":[],"meta":{"timestamp":"2017-06-13T06:54:30Z","version":1,"changeset":49489866,"user":"Ro Sun","uid":3112087}},"geometry":{"type":"Point","coordinates":[83.9903756,28.2262289]}},{"type":"Feature","id":"node/4912099625","properties":{"type":"node","id":4912099625,"tags":{"amenity":"pharmacy","contact:phone":"9846109477, 061-535596","name":"Kripa Ayuverdic Pharmacy","source":"2c pokhara"},"relations":[],"meta":{"timestamp":"2018-03-10T17:43:11Z","version":2,"changeset":57063705,"user":"Active Asmita","uid":7644107}},"geometry":{"type":"Point","coordinates":[83.9906389,28.2263121]}},{"type":"Feature","id":"node/4912174117","properties":{"type":"node","id":4912174117,"tags":{"amenity":"pharmacy","name":"Swecha Medicine"},"relations":[],"meta":{"timestamp":"2017-06-13T07:31:48Z","version":1,"changeset":49490774,"user":"Ro Sun","uid":3112087}},"geometry":{"type":"Point","coordinates":[83.9762051,28.1922773]}},{"type":"Feature","id":"node/4933675023","properties":{"type":"node","id":4933675023,"tags":{"amenity":"pharmacy","name":"Emerge Medical Hall"},"relations":[],"meta":{"timestamp":"2017-06-24T08:14:07Z","version":1,"changeset":49788609,"user":"Ro Sun","uid":3112087}},"geometry":{"type":"Point","coordinates":[83.9844434,28.2280396]}},{"type":"Feature","id":"node/4933675122","properties":{"type":"node","id":4933675122,"tags":{"amenity":"pharmacy","name":"Shulav Pharmacy"},"relations":[],"meta":{"timestamp":"2017-06-24T08:14:09Z","version":1,"changeset":49788609,"user":"Ro Sun","uid":3112087}},"geometry":{"type":"Point","coordinates":[83.9845914,28.2252874]}},{"type":"Feature","id":"node/4933675123","properties":{"type":"node","id":4933675123,"tags":{"amenity":"pharmacy","name":"Sahayog Medical Concern"},"relations":[],"meta":{"timestamp":"2017-06-24T08:14:11Z","version":1,"changeset":49788609,"user":"Ro Sun","uid":3112087}},"geometry":{"type":"Point","coordinates":[83.982336,28.2154873]}},{"type":"Feature","id":"node/4933675621","properties":{"type":"node","id":4933675621,"tags":{"amenity":"pharmacy","name":"Shushan Pharmacy"},"relations":[],"meta":{"timestamp":"2017-06-24T08:14:05Z","version":1,"changeset":49788609,"user":"Ro Sun","uid":3112087}},"geometry":{"type":"Point","coordinates":[83.9856962,28.2348237]}},{"type":"Feature","id":"node/4933675622","properties":{"type":"node","id":4933675622,"tags":{"amenity":"pharmacy","name":"Metrocity Pharmacy"},"relations":[],"meta":{"timestamp":"2017-06-24T08:14:15Z","version":1,"changeset":49788609,"user":"Ro Sun","uid":3112087}},"geometry":{"type":"Point","coordinates":[83.9811372,28.2118108]}},{"type":"Feature","id":"node/4934286923","properties":{"type":"node","id":4934286923,"tags":{"amenity":"pharmacy","name":"Kaskali Pharmacy"},"relations":[],"meta":{"timestamp":"2017-06-24T16:16:55Z","version":1,"changeset":49797314,"user":"Ro Sun","uid":3112087}},"geometry":{"type":"Point","coordinates":[83.9832222,28.2380666]}},{"type":"Feature","id":"node/4934286924","properties":{"type":"node","id":4934286924,"tags":{"amenity":"pharmacy","name":"Polite Medicine House"},"relations":[],"meta":{"timestamp":"2017-06-24T16:16:59Z","version":1,"changeset":49797314,"user":"Ro Sun","uid":3112087}},"geometry":{"type":"Point","coordinates":[83.983565,28.2372718]}},{"type":"Feature","id":"node/4934290421","properties":{"type":"node","id":4934290421,"tags":{"amenity":"pharmacy","name":"Janapriya Pharmacy"},"relations":[],"meta":{"timestamp":"2018-04-11T08:40:45Z","version":2,"changeset":57996195,"user":"Manoj Thapa","uid":781054}},"geometry":{"type":"Point","coordinates":[83.9803986,28.2247188]}},{"type":"Feature","id":"node/4934290422","properties":{"type":"node","id":4934290422,"tags":{"amenity":"pharmacy","name":"Aarjun Medical Hall"},"relations":[],"meta":{"timestamp":"2017-06-24T16:16:47Z","version":1,"changeset":49797314,"user":"Ro Sun","uid":3112087}},"geometry":{"type":"Point","coordinates":[83.9821938,28.2318358]}},{"type":"Feature","id":"node/4934290521","properties":{"type":"node","id":4934290521,"tags":{"amenity":"pharmacy","name":"Padam Medical Hall"},"relations":[],"meta":{"timestamp":"2017-06-24T16:16:45Z","version":1,"changeset":49797314,"user":"Ro Sun","uid":3112087}},"geometry":{"type":"Point","coordinates":[83.9815427,28.2298011]}},{"type":"Feature","id":"node/4934290522","properties":{"type":"node","id":4934290522,"tags":{"amenity":"pharmacy","name":"Medanta Ayurvedic Pharma"},"relations":[],"meta":{"timestamp":"2017-06-24T16:16:52Z","version":1,"changeset":49797314,"user":"Ro Sun","uid":3112087}},"geometry":{"type":"Point","coordinates":[83.9831221,28.2372228]}},{"type":"Feature","id":"node/4976721263","properties":{"type":"node","id":4976721263,"tags":{"amenity":"pharmacy","name":"New Milijuli Pragati Farmacy"},"relations":[],"meta":{"timestamp":"2017-07-23T03:53:49Z","version":2,"changeset":50492459,"user":"Ro Sun","uid":3112087}},"geometry":{"type":"Point","coordinates":[84.0222735,28.1683662]}},{"type":"Feature","id":"node/5000407035","properties":{"type":"node","id":5000407035,"tags":{"amenity":"pharmacy","name:en":"Aarambha Medico Pharma","source":"2cpokhara"},"relations":[],"meta":{"timestamp":"2018-04-02T06:21:24Z","version":2,"changeset":57729551,"user":"Abash Paudel","uid":6677482}},"geometry":{"type":"Point","coordinates":[83.9902864,28.1941091]}},{"type":"Feature","id":"node/5027871496","properties":{"type":"node","id":5027871496,"tags":{"addr:city":"Pokhara Lektnath Municipality","addr:place":"Majherpatan-14","amenity":"pharmacy","contact":"9856070181","name":"Aviral Pharmacy","opening_hours":"Su-Sa 6:00-19:00"},"relations":[],"meta":{"timestamp":"2017-08-11T07:36:46Z","version":1,"changeset":51023725,"user":"Kabita_pokhrel","uid":6447971}},"geometry":{"type":"Point","coordinates":[84.026105,28.1731653]}},{"type":"Feature","id":"node/5028339468","properties":{"type":"node","id":5028339468,"tags":{"amenity":"pharmacy","contact:phone":"9846032562","name":"Soniya Pharmacy","opening_hours":"7:00-8:00","operator":"Private"},"relations":[],"meta":{"timestamp":"2018-03-12T09:30:23Z","version":2,"changeset":57104722,"user":"sandip parajuli","uid":7668145}},"geometry":{"type":"Point","coordinates":[84.0650895,28.1500141]}},{"type":"Feature","id":"node/5028339470","properties":{"type":"node","id":5028339470,"tags":{"addr:city":"Pokhara Lekhanath Metropolitan City","addr:place":"Bhandardhik","amenity":"pharmacy","name":"Chetan Pharmacy","operator":"Private"},"relations":[],"meta":{"timestamp":"2017-08-21T22:35:47Z","version":2,"changeset":51321633,"user":"remie1529","uid":6523327}},"geometry":{"type":"Point","coordinates":[84.0681544,28.1431962]}},{"type":"Feature","id":"node/5060901521","properties":{"type":"node","id":5060901521,"tags":{"amenity":"pharmacy","name":"Acahrya Aaudhadi Pasal"},"relations":[],"meta":{"timestamp":"2017-08-26T19:48:11Z","version":1,"changeset":51466979,"user":"Ro Sun","uid":3112087}},"geometry":{"type":"Point","coordinates":[83.981769,28.2349818]}},{"type":"Feature","id":"node/5075522758","properties":{"type":"node","id":5075522758,"tags":{"addr:place":"Hospital Chowk, Pokhara-10","amenity":"pharmacy","name":"Nirdesh Pharmacy"},"relations":[],"meta":{"timestamp":"2017-09-02T15:49:45Z","version":1,"changeset":51672981,"user":"Ashish Thapa","uid":4039113}},"geometry":{"type":"Point","coordinates":[83.9981815,28.2114037]}},{"type":"Feature","id":"node/5081732630","properties":{"type":"node","id":5081732630,"tags":{"addr:place":"Swagat Nagar, Chauthe, Pokhara-14","amenity":"pharmacy","contact:phone":"9846521308, 9804175592"},"relations":[],"meta":{"timestamp":"2017-11-14T07:21:54Z","version":2,"changeset":53762989,"user":"Ro Sun","uid":3112087}},"geometry":{"type":"Point","coordinates":[84.0156283,28.2001205]}},{"type":"Feature","id":"node/5084973397","properties":{"type":"node","id":5084973397,"tags":{"addr:place":"Kajipokhari, Pokhara-14","amenity":"pharmacy"},"relations":[],"meta":{"timestamp":"2017-09-07T06:38:33Z","version":2,"changeset":51799829,"user":"Ashish Thapa","uid":4039113}},"geometry":{"type":"Point","coordinates":[84.0026987,28.1971494]}},{"type":"Feature","id":"node/5085429346","properties":{"type":"node","id":5085429346,"tags":{"amenity":"pharmacy"},"relations":[],"meta":{"timestamp":"2017-09-07T08:29:54Z","version":1,"changeset":51802808,"user":"Ashish Thapa","uid":4039113}},"geometry":{"type":"Point","coordinates":[84.0105887,28.1970685]}},{"type":"Feature","id":"node/5094240601","properties":{"type":"node","id":5094240601,"tags":{"amenity":"pharmacy","name":"Ashsok Medical Hall"},"relations":[],"meta":{"timestamp":"2017-09-10T09:03:20Z","version":1,"changeset":51901646,"user":"Ashish Thapa","uid":4039113}},"geometry":{"type":"Point","coordinates":[83.9911236,28.229647]}},{"type":"Feature","id":"node/5094240602","properties":{"type":"node","id":5094240602,"tags":{"amenity":"pharmacy","contact:phone":"9846039823","name":"Janasathi Pharmacy"},"relations":[],"meta":{"timestamp":"2017-09-10T09:03:20Z","version":1,"changeset":51901646,"user":"Ashish Thapa","uid":4039113}},"geometry":{"type":"Point","coordinates":[83.9914448,28.2298797]}},{"type":"Feature","id":"node/5096668178","properties":{"type":"node","id":5096668178,"tags":{"amenity":"pharmacy","name":"Ankita Pharmacy"},"relations":[],"meta":{"timestamp":"2018-05-10T03:59:56Z","version":2,"changeset":58837028,"user":"Abash Paudel","uid":6677482}},"geometry":{"type":"Point","coordinates":[83.9968628,28.1875728]}},{"type":"Feature","id":"node/5096668189","properties":{"type":"node","id":5096668189,"tags":{"amenity":"pharmacy","contact:phone":"9841813670","name":"Sworan Pharma","opening_hours":"8:00-19:30","source":"2cpokhara"},"relations":[],"meta":{"timestamp":"2018-05-10T03:59:56Z","version":2,"changeset":58837028,"user":"Abash Paudel","uid":6677482}},"geometry":{"type":"Point","coordinates":[83.9968367,28.1879449]}},{"type":"Feature","id":"node/5096897265","properties":{"type":"node","id":5096897265,"tags":{"amenity":"pharmacy"},"relations":[],"meta":{"timestamp":"2017-09-11T04:48:32Z","version":1,"changeset":51926374,"user":"Ashish Thapa","uid":4039113}},"geometry":{"type":"Point","coordinates":[83.9961212,28.1943718]}},{"type":"Feature","id":"node/5099947375","properties":{"type":"node","id":5099947375,"tags":{"amenity":"pharmacy","name":"Priti Medical Hall"},"relations":[],"meta":{"timestamp":"2017-09-12T06:36:37Z","version":1,"changeset":51961723,"user":"Ashish Thapa","uid":4039113}},"geometry":{"type":"Point","coordinates":[84.0233088,28.1916482]}},{"type":"Feature","id":"node/5100008970","properties":{"type":"node","id":5100008970,"tags":{"amenity":"pharmacy","name":"Palungtar Pharmacy"},"relations":[],"meta":{"timestamp":"2018-02-03T17:54:19Z","version":2,"changeset":56035487,"user":"Ro Sun","uid":3112087}},"geometry":{"type":"Point","coordinates":[84.0302483,28.1905734]}},{"type":"Feature","id":"node/5100009007","properties":{"type":"node","id":5100009007,"tags":{"amenity":"pharmacy","contact:phone":"9856060202, 9846268265","name":"Soschhya Pharmacy"},"relations":[],"meta":{"timestamp":"2017-10-10T04:39:30Z","version":2,"changeset":52777954,"user":"Manoj Thapa","uid":781054}},"geometry":{"type":"Point","coordinates":[84.0237553,28.1921443]}},{"type":"Feature","id":"node/5100127075","properties":{"type":"node","id":5100127075,"tags":{"amenity":"pharmacy","name":"Sambridhi Pharmacy"},"relations":[],"meta":{"timestamp":"2018-04-15T09:32:11Z","version":2,"changeset":58106022,"user":"Ro Sun","uid":3112087}},"geometry":{"type":"Point","coordinates":[84.0524228,28.1721193]}},{"type":"Feature","id":"node/5100226174","properties":{"type":"node","id":5100226174,"tags":{"amenity":"pharmacy","contact:phone":"061 531666, 9846744422","name":"Tal Chowk Pharmacy"},"relations":[],"meta":{"timestamp":"2017-09-12T09:17:47Z","version":1,"changeset":51966205,"user":"Ashish Thapa","uid":4039113}},"geometry":{"type":"Point","coordinates":[84.0572876,28.1631866]}},{"type":"Feature","id":"node/5100274831","properties":{"type":"node","id":5100274831,"tags":{"amenity":"pharmacy","name":"Sishuwa Aurbhed Ausadalaya"},"relations":[],"meta":{"timestamp":"2017-09-12T09:41:21Z","version":1,"changeset":51966873,"user":"Ashish Thapa","uid":4039113}},"geometry":{"type":"Point","coordinates":[84.0679528,28.1653242]}},{"type":"Feature","id":"node/5100274834","properties":{"type":"node","id":5100274834,"tags":{"amenity":"pharmacy","name":"Abhaya Upachar Kendra"},"relations":[],"meta":{"timestamp":"2017-09-12T09:41:21Z","version":1,"changeset":51966873,"user":"Ashish Thapa","uid":4039113}},"geometry":{"type":"Point","coordinates":[84.067883,28.1638132]}},{"type":"Feature","id":"node/5100274836","properties":{"type":"node","id":5100274836,"tags":{"amenity":"pharmacy","name":"Aashu Medical Hall"},"relations":[],"meta":{"timestamp":"2017-11-21T09:52:52Z","version":2,"changeset":53971073,"user":"Ro Sun","uid":3112087}},"geometry":{"type":"Point","coordinates":[84.0684178,28.1637526]}},{"type":"Feature","id":"node/5100358849","properties":{"type":"node","id":5100358849,"tags":{"amenity":"pharmacy","name":"B and B Aurbhedic Upachar and Anusandhan Kendra"},"relations":[],"meta":{"timestamp":"2017-09-12T10:13:19Z","version":1,"changeset":51967730,"user":"Ashish Thapa","uid":4039113}},"geometry":{"type":"Point","coordinates":[84.056609,28.171741]}},{"type":"Feature","id":"node/5102457334","properties":{"type":"node","id":5102457334,"tags":{"amenity":"pharmacy"},"relations":[],"meta":{"timestamp":"2017-09-13T05:37:02Z","version":1,"changeset":51992885,"user":"Ashish Thapa","uid":4039113}},"geometry":{"type":"Point","coordinates":[83.9921338,28.206901]}},{"type":"Feature","id":"node/5102868619","properties":{"type":"node","id":5102868619,"tags":{"amenity":"pharmacy","name":"National Pharmacy"},"relations":[],"meta":{"timestamp":"2017-09-13T09:38:57Z","version":1,"changeset":51998996,"user":"Ashish Thapa","uid":4039113}},"geometry":{"type":"Point","coordinates":[83.9667651,28.206955]}},{"type":"Feature","id":"node/5104522275","properties":{"type":"node","id":5104522275,"tags":{"amenity":"pharmacy","name":"Prime Pharmacy"},"relations":[],"meta":{"timestamp":"2017-09-14T05:06:05Z","version":1,"changeset":52025812,"user":"Ashish Thapa","uid":4039113}},"geometry":{"type":"Point","coordinates":[83.9638381,28.2045597]}},{"type":"Feature","id":"node/5104541372","properties":{"type":"node","id":5104541372,"tags":{"amenity":"pharmacy","name":"Sahayatri Pharmacy"},"relations":[],"meta":{"timestamp":"2018-04-15T05:43:19Z","version":2,"changeset":58102781,"user":"Manoj Thapa","uid":781054}},"geometry":{"type":"Point","coordinates":[83.9622449,28.2104799]}},{"type":"Feature","id":"node/5104554447","properties":{"type":"node","id":5104554447,"tags":{"amenity":"pharmacy","name":"Bishal Medico Pharma"},"relations":[],"meta":{"timestamp":"2017-09-14T05:39:50Z","version":1,"changeset":52026251,"user":"Ashish Thapa","uid":4039113}},"geometry":{"type":"Point","coordinates":[83.960181,28.2121846]}},{"type":"Feature","id":"node/5157241891","properties":{"type":"node","id":5157241891,"tags":{"amenity":"pharmacy","contact:phone":"9846041494","name":"Prichit Medical Hall"},"relations":[],"meta":{"timestamp":"2017-10-09T15:19:17Z","version":1,"changeset":52763155,"user":"Ashish Thapa","uid":4039113}},"geometry":{"type":"Point","coordinates":[83.9906066,28.2260998]}},{"type":"Feature","id":"node/5157261866","properties":{"type":"node","id":5157261866,"tags":{"amenity":"pharmacy","name":"Arjun Medical Hall"},"relations":[],"meta":{"timestamp":"2017-10-09T15:31:47Z","version":1,"changeset":52763542,"user":"Ashish Thapa","uid":4039113}},"geometry":{"type":"Point","coordinates":[83.9823407,28.2323439]}},{"type":"Feature","id":"node/5195632525","properties":{"type":"node","id":5195632525,"tags":{"amenity":"pharmacy"},"relations":[],"meta":{"timestamp":"2018-01-02T12:27:18Z","version":2,"changeset":55099278,"user":"Oreg","uid":1926670}},"geometry":{"type":"Point","coordinates":[83.8520706,28.3003204]}},{"type":"Feature","id":"node/5207516063","properties":{"type":"node","id":5207516063,"tags":{"amenity":"pharmacy","name":"Amar Ayurbedic Clinic"},"relations":[],"meta":{"timestamp":"2017-11-03T02:21:19Z","version":1,"changeset":53467162,"user":"Ashish Thapa","uid":4039113}},"geometry":{"type":"Point","coordinates":[83.9865665,28.2295205]}},{"type":"Feature","id":"node/5213966922","properties":{"type":"node","id":5213966922,"tags":{"amenity":"pharmacy","name":"Ishwor Medical Hall"},"relations":[],"meta":{"timestamp":"2017-11-06T10:16:38Z","version":1,"changeset":53550622,"user":"Ro Sun","uid":3112087}},"geometry":{"type":"Point","coordinates":[83.9870875,28.2199009]}},{"type":"Feature","id":"node/5225829822","properties":{"type":"node","id":5225829822,"tags":{"amenity":"pharmacy","name":"Pasture Pharmacy's"},"relations":[],"meta":{"timestamp":"2017-11-13T05:22:45Z","version":1,"changeset":53729864,"user":"Ro Sun","uid":3112087}},"geometry":{"type":"Point","coordinates":[83.9814219,28.2112612]}},{"type":"Feature","id":"node/5225835122","properties":{"type":"node","id":5225835122,"tags":{"amenity":"pharmacy","contact:phone":"061-534755","name":"Jeewan Pharmacy","opening_hours":"7:00-20:30","operator:type":"private","source":"2c peset"},"relations":[],"meta":{"timestamp":"2018-04-23T01:48:39Z","version":2,"changeset":58323985,"user":"sadeepta dh","uid":4851333}},"geometry":{"type":"Point","coordinates":[83.9830898,28.2105711]}},{"type":"Feature","id":"node/5227484922","properties":{"type":"node","id":5227484922,"tags":{"amenity":"pharmacy","name":"Sipora Medical Hall"},"relations":[],"meta":{"timestamp":"2018-04-10T17:13:04Z","version":2,"changeset":57979655,"user":"Active Asmita","uid":7644107}},"geometry":{"type":"Point","coordinates":[83.9862382,28.2095645]}},{"type":"Feature","id":"node/5227484923","properties":{"type":"node","id":5227484923,"tags":{"amenity":"pharmacy","name":"Sancho Medical Pharma"},"relations":[],"meta":{"timestamp":"2017-11-14T04:21:44Z","version":1,"changeset":53759785,"user":"Ro Sun","uid":3112087}},"geometry":{"type":"Point","coordinates":[83.9762342,28.2127708]}},{"type":"Feature","id":"node/5227485821","properties":{"type":"node","id":5227485821,"tags":{"amenity":"pharmacy","name":"Puspa Jyoti Pharmacy"},"relations":[],"meta":{"timestamp":"2017-11-14T04:21:38Z","version":1,"changeset":53759785,"user":"Ro Sun","uid":3112087}},"geometry":{"type":"Point","coordinates":[83.9837617,28.2106409]}},{"type":"Feature","id":"node/5234901822","properties":{"type":"node","id":5234901822,"tags":{"amenity":"pharmacy","name:en":"Dudh Pokhari Pharmacy","opening_hours":"24/7"},"relations":[],"meta":{"timestamp":"2017-11-17T14:38:51Z","version":1,"changeset":53876904,"user":"Sailesh Prj","uid":6443256}},"geometry":{"type":"Point","coordinates":[83.9828741,28.2378202]}},{"type":"Feature","id":"node/5234910021","properties":{"type":"node","id":5234910021,"tags":{"amenity":"pharmacy","name:en":"कस्केली(Kaskeli) Pharmacy","operator":"Madhu Giri"},"relations":[],"meta":{"timestamp":"2017-11-17T14:38:52Z","version":1,"changeset":53876904,"user":"Sailesh Prj","uid":6443256}},"geometry":{"type":"Point","coordinates":[83.9832479,28.2379898]}},{"type":"Feature","id":"node/5239480523","properties":{"type":"node","id":5239480523,"tags":{"amenity":"pharmacy","name":"Nadipur Medical Hall","phone":"9846054805"},"relations":[],"meta":{"timestamp":"2017-11-20T13:53:01Z","version":1,"changeset":53949754,"user":"Gaurav Thapa","uid":4212590}},"geometry":{"type":"Point","coordinates":[83.9897937,28.2355778]}},{"type":"Feature","id":"node/5242305565","properties":{"type":"node","id":5242305565,"tags":{"amenity":"pharmacy","name":"Kafle Medical Hall"},"relations":[],"meta":{"timestamp":"2017-11-22T07:38:04Z","version":1,"changeset":53993498,"user":"nishaadhikari","uid":3481073}},"geometry":{"type":"Point","coordinates":[84.0899625,28.1651198]}},{"type":"Feature","id":"node/5255460821","properties":{"type":"node","id":5255460821,"tags":{"addr:street":"Lakeside, Pokhara","amenity":"pharmacy","email":"sattva@ayurveda.com.np","name:en":"Ayurvedic health home","phone":"+97761463205","website":"http://www.ayurveda.com.np"},"relations":[],"meta":{"timestamp":"2017-11-30T10:15:31Z","version":1,"changeset":54200898,"user":"rcsmit","uid":369124}},"geometry":{"type":"Point","coordinates":[83.9610794,28.2166861]}},{"type":"Feature","id":"node/5351178521","properties":{"type":"node","id":5351178521,"tags":{"amenity":"pharmacy","name":"Bisesh Pharmacy"},"relations":[],"meta":{"timestamp":"2018-01-20T15:19:46Z","version":1,"changeset":55605849,"user":"Ro Sun","uid":3112087}},"geometry":{"type":"Point","coordinates":[83.9831853,28.2315512]}},{"type":"Feature","id":"node/5383565226","properties":{"type":"node","id":5383565226,"tags":{"amenity":"pharmacy","name":"Ayushree Ayurvedic Pharma","opening_hours":"8:00-19:00","operator:type":"private","source":"2cpokhara"},"relations":[],"meta":{"timestamp":"2018-04-16T09:29:32Z","version":2,"changeset":58131817,"user":"sandip parajuli","uid":7668145}},"geometry":{"type":"Point","coordinates":[84.0373546,28.1841641]}},{"type":"Feature","id":"node/5383599922","properties":{"type":"node","id":5383599922,"tags":{"amenity":"pharmacy","name":"Laxmi Medical Pharma","opening_hours":"06:00-20:00","operator:type":"private","source":"2cpokhara"},"relations":[],"meta":{"timestamp":"2018-04-17T11:01:49Z","version":3,"changeset":58164297,"user":"dgitto","uid":554973}},"geometry":{"type":"Point","coordinates":[84.0383328,28.1833221]}},{"type":"Feature","id":"node/5433044747","properties":{"type":"node","id":5433044747,"tags":{"amenity":"pharmacy","name":"Aagan Pharmacy","opening_hours":"Morning 6:00 AM-9 AM Evening 5:00 PM-9:00 PM","operator":"private"},"relations":[],"meta":{"timestamp":"2018-02-24T10:30:49Z","version":1,"changeset":56632750,"user":"Rabin Ojha","uid":6075053}},"geometry":{"type":"Point","coordinates":[83.9770118,28.2578768]}},{"type":"Feature","id":"node/5433624913","properties":{"type":"node","id":5433624913,"tags":{"addr:city":"Pokhara","amenity":"pharmacy","contact:phone":"9846041599","healthcare":"pharmacy","name":"Sovit Medical Hall","opening_hours":"8:00-10:00, 17:00-20:00","operator":"private","source":"2cpokhara"},"relations":[],"meta":{"timestamp":"2018-02-25T05:20:39Z","version":2,"changeset":56652150,"user":"Ro Sun","uid":3112087}},"geometry":{"type":"Point","coordinates":[83.9810541,28.2586263]}},{"type":"Feature","id":"node/5453758000","properties":{"type":"node","id":5453758000,"tags":{"amenity":"pharmacy","contact:phone":"061-537773","name":"Ganesh Aayurveda Pharma"},"relations":[],"meta":{"timestamp":"2018-03-04T10:16:27Z","version":1,"changeset":56866677,"user":"Active Asmita","uid":7644107}},"geometry":{"type":"Point","coordinates":[83.9758271,28.2149714]}},{"type":"Feature","id":"node/5453776938","properties":{"type":"node","id":5453776938,"tags":{"amenity":"pharmacy","name":"Lumbini Medical Hall","phone":"061-537521","source":"2cpokhara"},"relations":[],"meta":{"timestamp":"2018-04-11T06:16:41Z","version":2,"changeset":57992809,"user":"Ro Sun","uid":3112087}},"geometry":{"type":"Point","coordinates":[83.9748049,28.2129063]}},{"type":"Feature","id":"node/5453797158","properties":{"type":"node","id":5453797158,"tags":{"amenity":"pharmacy","name":"Nepali Medical Hall","phone":"061-531410"},"relations":[],"meta":{"timestamp":"2018-03-04T10:41:34Z","version":1,"changeset":56867178,"user":"Active Asmita","uid":7644107}},"geometry":{"type":"Point","coordinates":[83.9756939,28.212588]}},{"type":"Feature","id":"node/5453797161","properties":{"type":"node","id":5453797161,"tags":{"amenity":"pharmacy","name":"Yuni Chinese Acupuncture Centre Pvt.Ltd.","phone":"061-551544"},"relations":[],"meta":{"timestamp":"2018-03-04T10:41:34Z","version":1,"changeset":56867178,"user":"Active Asmita","uid":7644107}},"geometry":{"type":"Point","coordinates":[83.9744557,28.2133559]}},{"type":"Feature","id":"node/5453993150","properties":{"type":"node","id":5453993150,"tags":{"amenity":"pharmacy","name":"Mohan Medico Pharma"},"relations":[],"meta":{"timestamp":"2018-03-04T12:22:27Z","version":1,"changeset":56869336,"user":"Active Asmita","uid":7644107}},"geometry":{"type":"Point","coordinates":[83.9780226,28.222729]}},{"type":"Feature","id":"node/5456766162","properties":{"type":"node","id":5456766162,"tags":{"amenity":"pharmacy","contact:phone":"061-460312","name":"Sujal Medical Hall","opening_hours":"7:30- 20:00","source":"2cpokhara","wheelchair":"yes"},"relations":[],"meta":{"timestamp":"2018-04-13T07:20:32Z","version":3,"changeset":58055565,"user":"Manoj Thapa","uid":781054}},"geometry":{"type":"Point","coordinates":[83.9705712,28.1920465]}},{"type":"Feature","id":"node/5456944685","properties":{"type":"node","id":5456944685,"tags":{"amenity":"pharmacy","contact:phone":"9856002341","name":"Sheruga Medico Pharma","opening_hours":"8:00-21:00","source":"2cpokhara"},"relations":[],"meta":{"timestamp":"2018-03-05T14:25:55Z","version":1,"changeset":56905336,"user":"Sagarsubedi205","uid":7632456}},"geometry":{"type":"Point","coordinates":[83.9758833,28.1933642]}},{"type":"Feature","id":"node/5456995072","properties":{"type":"node","id":5456995072,"tags":{"amenity":"pharmacy","contact:phone":"9804165614","name":"Shree Medical"},"relations":[],"meta":{"timestamp":"2018-03-05T15:07:29Z","version":1,"changeset":56906453,"user":"cazar","uid":7644110}},"geometry":{"type":"Point","coordinates":[83.9192431,28.2654024]}},{"type":"Feature","id":"node/5456995082","properties":{"type":"node","id":5456995082,"tags":{"amenity":"pharmacy","name":"Subedi Phramacy","opening_hours":"sun-sat 6-8"},"relations":[],"meta":{"timestamp":"2018-03-05T15:07:29Z","version":1,"changeset":56906453,"user":"cazar","uid":7644110}},"geometry":{"type":"Point","coordinates":[83.9012597,28.2699646]}},{"type":"Feature","id":"node/5458045793","properties":{"type":"node","id":5458045793,"tags":{"amenity":"pharmacy","contact:phone":"9846855015","name":"Mayor pharmacy","opening_hours":"7:00-20:00","source":"2cpokhara"},"relations":[],"meta":{"timestamp":"2018-03-12T06:53:32Z","version":2,"changeset":57101001,"user":"Sagarsubedi205","uid":7632456}},"geometry":{"type":"Point","coordinates":[83.9674488,28.1912669]}},{"type":"Feature","id":"node/5458108113","properties":{"type":"node","id":5458108113,"tags":{"amenity":"pharmacy","name":"Subechha Pharmacy","opening_hours":"10:00-16:00","operator:type":"private"},"relations":[],"meta":{"timestamp":"2018-03-06T03:34:27Z","version":1,"changeset":56921363,"user":"LonelyNarayan","uid":7644124}},"geometry":{"type":"Point","coordinates":[83.9743128,28.2059044]}},{"type":"Feature","id":"node/5459366073","properties":{"type":"node","id":5459366073,"tags":{"amenity":"pharmacy","name":"Bright Medical Hall","source":"2cpokhara"},"relations":[],"meta":{"timestamp":"2018-03-06T13:47:28Z","version":1,"changeset":56936456,"user":"Sagarsubedi205","uid":7632456}},"geometry":{"type":"Point","coordinates":[83.9755172,28.1875143]}},{"type":"Feature","id":"node/5459366081","properties":{"type":"node","id":5459366081,"tags":{"amenity":"pharmacy","name":"Pramis Pharmacy","source":"2cpokhara"},"relations":[],"meta":{"timestamp":"2018-03-06T13:47:29Z","version":1,"changeset":56936456,"user":"Sagarsubedi205","uid":7632456}},"geometry":{"type":"Point","coordinates":[83.9748426,28.1850556]}},{"type":"Feature","id":"node/5459447515","properties":{"type":"node","id":5459447515,"tags":{"amenity":"pharmacy","contact:phone":"061460781","name":"Sifa Ayurvedic Ausadhyala","source":"2cpokhara"},"relations":[],"meta":{"timestamp":"2018-03-06T14:27:26Z","version":1,"changeset":56937568,"user":"Sagarsubedi205","uid":7632456}},"geometry":{"type":"Point","coordinates":[83.9642881,28.190171]}},{"type":"Feature","id":"node/5459447726","properties":{"type":"node","id":5459447726,"tags":{"amenity":"pharmacy","contact:phone":"9846072765,9846043586","name":"Aavash Ayurvedic Pharma","opening_hours":"8:00-20:00","source":"2cpokhara"},"relations":[],"meta":{"timestamp":"2018-03-06T14:27:27Z","version":1,"changeset":56937568,"user":"Sagarsubedi205","uid":7632456}},"geometry":{"type":"Point","coordinates":[83.9681545,28.1911302]}},{"type":"Feature","id":"node/5459587706","properties":{"type":"node","id":5459587706,"tags":{"amenity":"pharmacy","contact:phone":"98041123457","name":"Sahana Pharma","opening_hours":"7:00-20:00","source":"2cpokhara"},"relations":[],"meta":{"timestamp":"2018-03-06T15:48:30Z","version":1,"changeset":56939466,"user":"Sagarsubedi205","uid":7632456}},"geometry":{"type":"Point","coordinates":[83.9705987,28.1911249]}},{"type":"Feature","id":"node/5459587713","properties":{"type":"node","id":5459587713,"tags":{"amenity":"pharmacy","contact:phone":"9856018200","name":"Raj Vai Pharmacy","opening_hours":"8:00-19:00","source":"2cpokhara"},"relations":[],"meta":{"timestamp":"2018-03-16T16:33:53Z","version":2,"changeset":57246600,"user":"Ro Sun","uid":3112087}},"geometry":{"type":"Point","coordinates":[83.9723414,28.1922288]}},{"type":"Feature","id":"node/5461784157","properties":{"type":"node","id":5461784157,"tags":{"amenity":"pharmacy","name":"National Pharmacy","source":"2c pokhara"},"relations":[],"meta":{"timestamp":"2018-03-07T10:27:05Z","version":1,"changeset":56963504,"user":"Active Asmita","uid":7644107}},"geometry":{"type":"Point","coordinates":[83.9767572,28.2249438]}},{"type":"Feature","id":"node/5461844516","properties":{"type":"node","id":5461844516,"tags":{"amenity":"pharmacy","contact:phone":"9846031270","name":"Mankamana Pharmacy","opening_hours":"7:00-19:30","source":"2cpokhara"},"relations":[],"meta":{"timestamp":"2018-03-07T10:49:35Z","version":1,"changeset":56964115,"user":"Sagarsubedi205","uid":7632456}},"geometry":{"type":"Point","coordinates":[83.9530537,28.1913057]}},{"type":"Feature","id":"node/5461924087","properties":{"type":"node","id":5461924087,"tags":{"amenity":"pharmacy","name":"Suyogya Pharmacy","source":"2c pokhara"},"relations":[],"meta":{"timestamp":"2018-03-07T11:29:35Z","version":1,"changeset":56965291,"user":"Active Asmita","uid":7644107}},"geometry":{"type":"Point","coordinates":[83.9843124,28.2248361]}},{"type":"Feature","id":"node/5462147887","properties":{"type":"node","id":5462147887,"tags":{"amenity":"pharmacy","name":"Regmi Medical Hall","source":"2cpokhara"},"relations":[],"meta":{"timestamp":"2018-03-07T12:59:27Z","version":1,"changeset":56968007,"user":"Sagarsubedi205","uid":7632456}},"geometry":{"type":"Point","coordinates":[83.9707183,28.1840245]}},{"type":"Feature","id":"node/5462506980","properties":{"type":"node","id":5462506980,"tags":{"amenity":"pharmacy","contact:phone":"061-537193, 061-533193","name":"Babina Pharmacy","source":"2c pokhara"},"relations":[],"meta":{"timestamp":"2018-03-07T15:28:42Z","version":1,"changeset":56972452,"user":"Active Asmita","uid":7644107}},"geometry":{"type":"Point","coordinates":[83.9881959,28.2264309]}},{"type":"Feature","id":"node/5462506983","properties":{"type":"node","id":5462506983,"tags":{"amenity":"pharmacy","name":"Ramlaxman Pharmacy","phone":"061-528345","source":"2c pokhara"},"relations":[],"meta":{"timestamp":"2018-03-07T15:28:42Z","version":1,"changeset":56972452,"user":"Active Asmita","uid":7644107}},"geometry":{"type":"Point","coordinates":[83.9902203,28.2262819]}},{"type":"Feature","id":"node/5462506988","properties":{"type":"node","id":5462506988,"tags":{"amenity":"pharmacy","name":"Aayush Pharmacy","phone":"061-534537,061-521870","source":"2c pokhara"},"relations":[],"meta":{"timestamp":"2018-03-07T15:28:43Z","version":1,"changeset":56972452,"user":"Active Asmita","uid":7644107}},"geometry":{"type":"Point","coordinates":[83.990362,28.2239039]}},{"type":"Feature","id":"node/5463724230","properties":{"type":"node","id":5463724230,"tags":{"amenity":"pharmacy","name":"Sarita Aayurveda Aushhadhalaya","phone":"061-5359781,9846177695","source":"2c pokhara"},"relations":[],"meta":{"timestamp":"2018-03-08T07:05:13Z","version":1,"changeset":56989579,"user":"Active Asmita","uid":7644107}},"geometry":{"type":"Point","coordinates":[83.9870882,28.2292634]}},{"type":"Feature","id":"node/5464295413","properties":{"type":"node","id":5464295413,"tags":{"amenity":"pharmacy","name":"Arayan Pharmacy","opening_hours":"8:00-17:00"},"relations":[],"meta":{"timestamp":"2018-03-08T11:05:29Z","version":1,"changeset":56995526,"user":"LonelyNarayan","uid":7644124}},"geometry":{"type":"Point","coordinates":[83.9822817,28.197861]}},{"type":"Feature","id":"node/5469375649","properties":{"type":"node","id":5469375649,"tags":{"amenity":"pharmacy","contact:phone":"061-520525","name":"Indra Pharma","source":"2c pokhara"},"relations":[],"meta":{"timestamp":"2018-03-10T15:35:24Z","version":1,"changeset":57060710,"user":"Active Asmita","uid":7644107}},"geometry":{"type":"Point","coordinates":[83.9881158,28.2287076]}},{"type":"Feature","id":"node/5469569854","properties":{"type":"node","id":5469569854,"tags":{"amenity":"pharmacy","name":"Shining Medical Hall","opening_hours":"10:00 a.m. - 16:00 p.m."},"relations":[],"meta":{"timestamp":"2018-03-10T17:43:09Z","version":1,"changeset":57063705,"user":"Active Asmita","uid":7644107}},"geometry":{"type":"Point","coordinates":[83.9892064,28.2287301]}},{"type":"Feature","id":"node/5469569856","properties":{"type":"node","id":5469569856,"tags":{"amenity":"pharmacy","contact:phone":"061-521562","name":"Vidhya Aayurveda Pharmacy","source":"2c pokhara"},"relations":[],"meta":{"timestamp":"2018-03-10T17:43:09Z","version":1,"changeset":57063705,"user":"Active Asmita","uid":7644107}},"geometry":{"type":"Point","coordinates":[83.988553,28.2284088]}},{"type":"Feature","id":"node/5469569872","properties":{"type":"node","id":5469569872,"tags":{"amenity":"pharmacy","contact:phone":"061-520755","name":"Shrestha Drug Concern","source":"2c pokhara"},"relations":[],"meta":{"timestamp":"2018-03-10T17:43:11Z","version":1,"changeset":57063705,"user":"Active Asmita","uid":7644107}},"geometry":{"type":"Point","coordinates":[83.9891385,28.2279906]}},{"type":"Feature","id":"node/5470204413","properties":{"type":"node","id":5470204413,"tags":{"amenity":"pharmacy","contact:phone":"9846030440","name":"Subhatar Pharmacy"},"relations":[],"meta":{"timestamp":"2018-03-11T03:26:45Z","version":1,"changeset":57072375,"user":"cazar","uid":7644110}},"geometry":{"type":"Point","coordinates":[83.985901,28.2176641]}},{"type":"Feature","id":"node/5470329128","properties":{"type":"node","id":5470329128,"tags":{"amenity":"pharmacy","contact:phone":"9806680547","name:en":"Global health care"},"relations":[],"meta":{"timestamp":"2018-04-08T09:42:56Z","version":2,"changeset":57908724,"user":"Ro Sun","uid":3112087}},"geometry":{"type":"Point","coordinates":[83.9596599,28.2084004]}},{"type":"Feature","id":"node/5470351998","properties":{"type":"node","id":5470351998,"tags":{"amenity":"pharmacy","name":"Managalam Pharmacy","opening_hours":"Su-Sa 7:00-20:00","source":"2cpokhara"},"relations":[],"meta":{"timestamp":"2018-03-11T06:41:17Z","version":1,"changeset":57073996,"user":"Sagarsubedi205","uid":7632456}},"geometry":{"type":"Point","coordinates":[83.9704686,28.1964544]}},{"type":"Feature","id":"node/5470373756","properties":{"type":"node","id":5470373756,"tags":{"amenity":"pharmacy","contact:phone":"98161970211","name":"Puja Medical Hall","opening_hours":"Su-Sa 7:00-20:00","source":"2cpokhara"},"relations":[],"meta":{"timestamp":"2018-03-11T07:02:46Z","version":1,"changeset":57074229,"user":"Sagarsubedi205","uid":7632456}},"geometry":{"type":"Point","coordinates":[83.9750759,28.1975333]}},{"type":"Feature","id":"node/5470403015","properties":{"type":"node","id":5470403015,"tags":{"amenity":"pharmacy","contact:phone":"061560744,9846591886","name":"Swekriti Pharmacy","opening_hours":"24 Hrs.","source":"2cpokhara"},"relations":[],"meta":{"timestamp":"2018-03-11T07:35:54Z","version":1,"changeset":57074580,"user":"Amrit Devkota","uid":6497064}},"geometry":{"type":"Point","coordinates":[84.0811855,28.148854]}},{"type":"Feature","id":"node/5470524942","properties":{"type":"node","id":5470524942,"tags":{"amenity":"pharmacy","contact:phone":"986155526","name":"Mount Annapurna Pharmacy"},"relations":[],"meta":{"timestamp":"2018-03-11T09:04:02Z","version":1,"changeset":57075740,"user":"Sagarsubedi205","uid":7632456}},"geometry":{"type":"Point","coordinates":[83.9724229,28.1930539]}},{"type":"Feature","id":"node/5470524958","properties":{"type":"node","id":5470524958,"tags":{"amenity":"pharmacy","contact:phone":"98460300587","name":"Parajuli Medical","opening_hours":"Su-Sa 7:00-20:00","source":"2cpokhara"},"relations":[],"meta":{"timestamp":"2018-03-11T09:04:04Z","version":1,"changeset":57075740,"user":"Sagarsubedi205","uid":7632456}},"geometry":{"type":"Point","coordinates":[83.9738857,28.1955139]}},{"type":"Feature","id":"node/5472132063","properties":{"type":"node","id":5472132063,"tags":{"amenity":"pharmacy","contact:phone":"061-4020237","name":"Dhirgau Medical Hall","opening_hours":"Su-Sa 07:00-20:00","source":"2cpokhara"},"relations":[],"meta":{"timestamp":"2018-04-15T10:41:31Z","version":2,"changeset":58107161,"user":"Manoj Thapa","uid":781054}},"geometry":{"type":"Point","coordinates":[83.9895223,28.1792795]}},{"type":"Feature","id":"node/5472577957","properties":{"type":"node","id":5472577957,"tags":{"amenity":"pharmacy","name":"Pulchowk Medical Hall"},"relations":[],"meta":{"timestamp":"2018-03-12T09:47:15Z","version":1,"changeset":57105245,"user":"sandip parajuli","uid":7668145}},"geometry":{"type":"Point","coordinates":[84.0572109,28.1455371]}},{"type":"Feature","id":"node/5486749068","properties":{"type":"node","id":5486749068,"tags":{"amenity":"pharmacy","contact:phone":"061-520507","name":"Swornim Pharma Enterprises","source":"2c pokhara"},"relations":[],"meta":{"timestamp":"2018-03-18T16:35:18Z","version":1,"changeset":57295185,"user":"Active Asmita","uid":7644107}},"geometry":{"type":"Point","coordinates":[83.9902516,28.2237081]}},{"type":"Feature","id":"node/5508982886","properties":{"type":"node","id":5508982886,"tags":{"amenity":"pharmacy","name":"Srijana Medi Sales","source":"2cpokhara"},"relations":[],"meta":{"timestamp":"2018-03-27T17:43:34Z","version":1,"changeset":57575576,"user":"Active Asmita","uid":7644107}},"geometry":{"type":"Point","coordinates":[83.9905795,28.2232858]}},{"type":"Feature","id":"node/5509844241","properties":{"type":"node","id":5509844241,"tags":{"amenity":"pharmacy","contact:phone":"061-537922","name":"Pokhara Dental Surgical Suppliers","source":"2cpokhara"},"relations":[],"meta":{"timestamp":"2018-03-28T03:36:38Z","version":1,"changeset":57586181,"user":"Active Asmita","uid":7644107}},"geometry":{"type":"Point","coordinates":[83.9901499,28.2224891]}},{"type":"Feature","id":"node/5509844242","properties":{"type":"node","id":5509844242,"tags":{"amenity":"pharmacy","name":"Arohan Kamana Medi Sales"},"relations":[],"meta":{"timestamp":"2018-03-28T03:36:38Z","version":1,"changeset":57586181,"user":"Active Asmita","uid":7644107}},"geometry":{"type":"Point","coordinates":[83.9900836,28.2222718]}},{"type":"Feature","id":"node/5509844246","properties":{"type":"node","id":5509844246,"tags":{"amenity":"pharmacy","contact:phone":"9856036323, 9856026678","name":"Nava Trisana Surgical Suppliers","shop":"wholesale","source":"2cpokhara"},"relations":[],"meta":{"timestamp":"2018-03-28T03:36:38Z","version":1,"changeset":57586181,"user":"Active Asmita","uid":7644107}},"geometry":{"type":"Point","coordinates":[83.9898248,28.2219895]}},{"type":"Feature","id":"node/5509844247","properties":{"type":"node","id":5509844247,"tags":{"amenity":"pharmacy","contact:phone":"061-522633, 061-536650","name":"Srijana Medical Distributors","source":"2cpokhara"},"relations":[],"meta":{"timestamp":"2018-03-28T03:36:38Z","version":1,"changeset":57586181,"user":"Active Asmita","uid":7644107}},"geometry":{"type":"Point","coordinates":[83.9897763,28.2218965]}},{"type":"Feature","id":"node/5509844249","properties":{"type":"node","id":5509844249,"tags":{"amenity":"pharmacy","contact:phone":"061-531870","name":"Mega Medicine Distributors Pvt Ltd","shop":"wholesale","source":"2cpokhara"},"relations":[],"meta":{"timestamp":"2018-03-28T03:36:38Z","version":1,"changeset":57586181,"user":"Active Asmita","uid":7644107}},"geometry":{"type":"Point","coordinates":[83.9896226,28.2216072]}},{"type":"Feature","id":"node/5515928927","properties":{"type":"node","id":5515928927,"tags":{"amenity":"pharmacy","name":"Sajjan Medical Hall","source":"2cpokhara"},"relations":[],"meta":{"timestamp":"2018-03-30T09:29:58Z","version":1,"changeset":57655694,"user":"Active Asmita","uid":7644107}},"geometry":{"type":"Point","coordinates":[83.9901249,28.2231408]}},{"type":"Feature","id":"node/5515928929","properties":{"type":"node","id":5515928929,"tags":{"amenity":"pharmacy","name":"Om Pharmacy","source":"2cpokhara"},"relations":[],"meta":{"timestamp":"2018-03-30T09:29:58Z","version":1,"changeset":57655694,"user":"Active Asmita","uid":7644107}},"geometry":{"type":"Point","coordinates":[83.9900655,28.2228159]}},{"type":"Feature","id":"node/5517954443","properties":{"type":"node","id":5517954443,"tags":{"amenity":"pharmacy","contact:phone":"9804114219, 9860016559","name":"Sudhan Pharmacy","source":"2cpokhara"},"relations":[],"meta":{"timestamp":"2018-03-31T07:48:52Z","version":1,"changeset":57681583,"user":"Amrit Devkota","uid":6497064}},"geometry":{"type":"Point","coordinates":[84.0834814,28.1345279]}},{"type":"Feature","id":"node/5517954455","properties":{"type":"node","id":5517954455,"tags":{"amenity":"pharmacy","contact:phone":"9846056836","name":"Nabin Pharmacy","source":"2cpokhara"},"relations":[],"meta":{"timestamp":"2018-03-31T07:48:53Z","version":1,"changeset":57681583,"user":"Amrit Devkota","uid":6497064}},"geometry":{"type":"Point","coordinates":[84.0827867,28.1330957]}},{"type":"Feature","id":"node/5520102853","properties":{"type":"node","id":5520102853,"tags":{"amenity":"pharmacy","name":"Nidishan Medical Hall","source":"2cpokhara"},"relations":[],"meta":{"timestamp":"2018-04-01T10:34:37Z","version":1,"changeset":57709087,"user":"Madan Acharya","uid":7707025}},"geometry":{"type":"Point","coordinates":[83.997001,28.2272312]}},{"type":"Feature","id":"node/5520102863","properties":{"type":"node","id":5520102863,"tags":{"amenity":"pharmacy","source":"2cpokhara"},"relations":[],"meta":{"timestamp":"2018-04-01T10:34:37Z","version":1,"changeset":57709087,"user":"Madan Acharya","uid":7707025}},"geometry":{"type":"Point","coordinates":[83.9980048,28.2271307]}},{"type":"Feature","id":"node/5520102866","properties":{"type":"node","id":5520102866,"tags":{"amenity":"pharmacy","contact:phone":"9856033307","name":"Aafanta Pharmacy","source":"2cpokhara"},"relations":[],"meta":{"timestamp":"2018-04-01T10:34:38Z","version":1,"changeset":57709087,"user":"Madan Acharya","uid":7707025}},"geometry":{"type":"Point","coordinates":[83.9993298,28.2296629]}},{"type":"Feature","id":"node/5521528088","properties":{"type":"node","id":5521528088,"tags":{"amenity":"pharmacy","contact:phone":"061-541696","name":"Asia Medi Sales","shop":"wholesale","source":"2cpokhara"},"relations":[],"meta":{"timestamp":"2018-04-02T03:26:22Z","version":1,"changeset":57727331,"user":"Active Asmita","uid":7644107}},"geometry":{"type":"Point","coordinates":[83.9864309,28.2109858]}},{"type":"Feature","id":"node/5521528089","properties":{"type":"node","id":5521528089,"tags":{"amenity":"pharmacy","contact:phone":"061-530975, 98066908471","name":"Monal Pharmacy","source":"2cpokhara"},"relations":[],"meta":{"timestamp":"2018-04-02T03:26:22Z","version":1,"changeset":57727331,"user":"Active Asmita","uid":7644107}},"geometry":{"type":"Point","coordinates":[83.9864544,28.2110012]}},{"type":"Feature","id":"node/5521528093","properties":{"type":"node","id":5521528093,"tags":{"amenity":"pharmacy","contact:phone":"061-531199, 98462209855","name":"City Pharmacy","source":"2cpokhara"},"relations":[],"meta":{"timestamp":"2018-04-02T03:26:23Z","version":1,"changeset":57727331,"user":"Active Asmita","uid":7644107}},"geometry":{"type":"Point","coordinates":[83.9865478,28.2110353]}},{"type":"Feature","id":"node/5521528095","properties":{"type":"node","id":5521528095,"tags":{"amenity":"pharmacy","name":"GMC Pharmacy","source":"2cpokhara"},"relations":[],"meta":{"timestamp":"2018-04-02T03:26:23Z","version":1,"changeset":57727331,"user":"Active Asmita","uid":7644107}},"geometry":{"type":"Point","coordinates":[83.9865686,28.2110569]}},{"type":"Feature","id":"node/5521528096","properties":{"type":"node","id":5521528096,"tags":{"amenity":"pharmacy","contact:phone":"9856024899","name":"Sagarmatha Medi Distributors","shop":"wholesale","source":"2cpokhara"},"relations":[],"meta":{"timestamp":"2018-04-02T03:26:23Z","version":1,"changeset":57727331,"user":"Active Asmita","uid":7644107}},"geometry":{"type":"Point","coordinates":[83.9865525,28.2110744]}},{"type":"Feature","id":"node/5521528099","properties":{"type":"node","id":5521528099,"tags":{"amenity":"pharmacy","contact:phone":"9856033090","name":"Tapaiko Ausadhi Pasal","source":"2cpokhara"},"relations":[],"meta":{"timestamp":"2018-04-02T03:26:23Z","version":1,"changeset":57727331,"user":"Active Asmita","uid":7644107}},"geometry":{"type":"Point","coordinates":[83.9866888,28.2112834]}},{"type":"Feature","id":"node/5521528100","properties":{"type":"node","id":5521528100,"tags":{"amenity":"pharmacy","contact:phone":"061-534745, 9856037449","name":"Asmani Pharmacy","source":"2cpokhara"},"relations":[],"meta":{"timestamp":"2018-04-02T03:26:23Z","version":1,"changeset":57727331,"user":"Active Asmita","uid":7644107}},"geometry":{"type":"Point","coordinates":[83.986703,28.2112996]}},{"type":"Feature","id":"node/5521528106","properties":{"type":"node","id":5521528106,"tags":{"amenity":"pharmacy","contact:phone":"061-533155","name":"Somiya Pharmacy","source":"2cpokhara"},"relations":[],"meta":{"timestamp":"2018-04-02T03:26:24Z","version":1,"changeset":57727331,"user":"Active Asmita","uid":7644107}},"geometry":{"type":"Point","coordinates":[83.9868789,28.2115681]}},{"type":"Feature","id":"node/5521528107","properties":{"type":"node","id":5521528107,"tags":{"amenity":"pharmacy","contact:phone":"061-540670, 9846034728","name":"Rajan Pharmacy","source":"2cpokhara"},"relations":[],"meta":{"timestamp":"2018-04-02T03:26:24Z","version":1,"changeset":57727331,"user":"Active Asmita","uid":7644107}},"geometry":{"type":"Point","coordinates":[83.9869091,28.2116005]}},{"type":"Feature","id":"node/5521786636","properties":{"type":"node","id":5521786636,"tags":{"amenity":"pharmacy","name":"Sakushal Pharmacy","opening_hours":"7:00-20:00","operator":"Private","source":"2cpokhara"},"relations":[],"meta":{"timestamp":"2018-04-15T10:41:31Z","version":2,"changeset":58107161,"user":"Manoj Thapa","uid":781054}},"geometry":{"type":"Point","coordinates":[83.9937307,28.1846915]}},{"type":"Feature","id":"node/5521786640","properties":{"type":"node","id":5521786640,"tags":{"amenity":"pharmacy","name":"Kabya Pharmacy","opening_hours":"7:00-21:00","operator":"private","source":"2cpokhara"},"relations":[],"meta":{"timestamp":"2018-04-02T06:21:23Z","version":1,"changeset":57729551,"user":"Abash Paudel","uid":6677482}},"geometry":{"type":"Point","coordinates":[83.9905895,28.1950677]}},{"type":"Feature","id":"node/5521786641","properties":{"type":"node","id":5521786641,"tags":{"amenity":"pharmacy","name":"Jaysan Medical","opening_hours":"6:30-19:30","operator":"Private","source":"2cpokhara"},"relations":[],"meta":{"timestamp":"2018-04-02T06:21:23Z","version":1,"changeset":57729551,"user":"Abash Paudel","uid":6677482}},"geometry":{"type":"Point","coordinates":[83.9907088,28.1952048]}},{"type":"Feature","id":"node/5528570643","properties":{"type":"node","id":5528570643,"tags":{"amenity":"pharmacy","name":"Saguna Pharmacy","opening_hours":"07:00-20:00","operator":"Private","source":"2cpokhara"},"relations":[],"meta":{"timestamp":"2018-04-04T16:56:21Z","version":1,"changeset":57809217,"user":"Abash Paudel","uid":6677482}},"geometry":{"type":"Point","coordinates":[83.993329,28.2013967]}},{"type":"Feature","id":"node/5530391812","properties":{"type":"node","id":5530391812,"tags":{"amenity":"pharmacy","name":"Banstola Medical Hall"},"relations":[],"meta":{"timestamp":"2018-04-05T10:14:42Z","version":1,"changeset":57829818,"user":"Manoj Thapa","uid":781054}},"geometry":{"type":"Point","coordinates":[83.9362013,28.2783145]}},{"type":"Feature","id":"node/5531593542","properties":{"type":"node","id":5531593542,"tags":{"amenity":"pharmacy","name":"New Garima Medical Hall","source":"2cpokhara"},"relations":[],"meta":{"timestamp":"2018-04-05T17:36:13Z","version":1,"changeset":57842734,"user":"Amrit Devkota","uid":6497064}},"geometry":{"type":"Point","coordinates":[84.0751616,28.2139549]}},{"type":"Feature","id":"node/5534126580","properties":{"type":"node","id":5534126580,"tags":{"amenity":"pharmacy","contact:phone":"9846030449, 9816127253","name":"Shuvatara Pharmacy","source":"2cpokhara"},"relations":[],"meta":{"timestamp":"2018-04-06T16:30:31Z","version":1,"changeset":57870908,"user":"Active Asmita","uid":7644107}},"geometry":{"type":"Point","coordinates":[83.9856136,28.2177531]}},{"type":"Feature","id":"node/5534126599","properties":{"type":"node","id":5534126599,"tags":{"amenity":"pharmacy","contact:phone":"061-535845","name":"Grand Medicine Nepal Pvt Ltd","shop":"wholesale","source":"2cpokhara"},"relations":[],"meta":{"timestamp":"2018-04-06T16:30:32Z","version":1,"changeset":57870908,"user":"Active Asmita","uid":7644107}},"geometry":{"type":"Point","coordinates":[83.9857296,28.2208036]}},{"type":"Feature","id":"node/5543097193","properties":{"type":"node","id":5543097193,"tags":{"amenity":"pharmacy","name":"Ashmi Pharmacy","source":"2cpokhara"},"relations":[],"meta":{"timestamp":"2018-04-10T14:50:55Z","version":1,"changeset":57975078,"user":"Active Asmita","uid":7644107}},"geometry":{"type":"Point","coordinates":[83.9889592,28.2153579]}},{"type":"Feature","id":"node/5543097197","properties":{"type":"node","id":5543097197,"tags":{"amenity":"pharmacy","name":"Ex Army Medical Hall","source":"2cpokhara"},"relations":[],"meta":{"timestamp":"2018-04-10T14:50:55Z","version":1,"changeset":57975078,"user":"Active Asmita","uid":7644107}},"geometry":{"type":"Point","coordinates":[83.9891437,28.215884]}},{"type":"Feature","id":"node/5543180998","properties":{"type":"node","id":5543180998,"tags":{"amenity":"pharmacy","name":"Keshab Homeo Pharmacy","source":"2cpokhara"},"relations":[],"meta":{"timestamp":"2018-04-10T15:24:43Z","version":1,"changeset":57976594,"user":"Active Asmita","uid":7644107}},"geometry":{"type":"Point","coordinates":[83.9863127,28.2107451]}},{"type":"Feature","id":"node/5543181000","properties":{"type":"node","id":5543181000,"tags":{"amenity":"pharmacy","name":"Pratik Surgical Diagonostic Concern Pvt Ltd","source":"2cpokhara"},"relations":[],"meta":{"timestamp":"2018-04-10T15:24:44Z","version":1,"changeset":57976594,"user":"Active Asmita","uid":7644107}},"geometry":{"type":"Point","coordinates":[83.9861735,28.2105967]}},{"type":"Feature","id":"node/5543309623","properties":{"type":"node","id":5543309623,"tags":{"amenity":"pharmacy","contact:phone":"061-5412274, 9846781917","name":"Bindabasini Surgical Solution","source":"2cpokhara"},"relations":[],"meta":{"timestamp":"2018-04-10T16:32:13Z","version":1,"changeset":57978508,"user":"Active Asmita","uid":7644107}},"geometry":{"type":"Point","coordinates":[83.9912628,28.219823]}},{"type":"Feature","id":"node/5543309626","properties":{"type":"node","id":5543309626,"tags":{"amenity":"pharmacy","contact:phone":"9846286000","name":"Priyanch Surgical House","source":"2cpokhara"},"relations":[],"meta":{"timestamp":"2018-04-10T16:32:13Z","version":1,"changeset":57978508,"user":"Active Asmita","uid":7644107}},"geometry":{"type":"Point","coordinates":[83.9913521,28.2204078]}},{"type":"Feature","id":"node/5543309637","properties":{"type":"node","id":5543309637,"tags":{"amenity":"pharmacy","contact:phone":"9846142371","name":"Dun Pharmacy","source":"2cpokhara"},"relations":[],"meta":{"timestamp":"2018-04-10T16:32:14Z","version":1,"changeset":57978508,"user":"Active Asmita","uid":7644107}},"geometry":{"type":"Point","coordinates":[83.9913832,28.2213403]}},{"type":"Feature","id":"node/5543309638","properties":{"type":"node","id":5543309638,"tags":{"amenity":"pharmacy","contact:phone":"061-522063","name":"Rusha Pharma Enterprises","shop":"wholesale","source":"2cpokhara"},"relations":[],"meta":{"timestamp":"2018-04-10T16:32:14Z","version":1,"changeset":57978508,"user":"Active Asmita","uid":7644107}},"geometry":{"type":"Point","coordinates":[83.9913774,28.2213825]}},{"type":"Feature","id":"node/5543309642","properties":{"type":"node","id":5543309642,"tags":{"amenity":"pharmacy","name":"Annapurna Medico Pharma","source":"2cpokhara"},"relations":[],"meta":{"timestamp":"2018-04-10T16:32:14Z","version":1,"changeset":57978508,"user":"Active Asmita","uid":7644107}},"geometry":{"type":"Point","coordinates":[83.9913383,28.221936]}},{"type":"Feature","id":"node/5543309647","properties":{"type":"node","id":5543309647,"tags":{"amenity":"pharmacy","contact:phone":"061-532997, 9846155999","name":"Ananda Pharma","source":"2cpokhara"},"relations":[],"meta":{"timestamp":"2018-04-10T16:32:14Z","version":1,"changeset":57978508,"user":"Active Asmita","uid":7644107}},"geometry":{"type":"Point","coordinates":[83.9913049,28.2221846]}},{"type":"Feature","id":"node/5543309661","properties":{"type":"node","id":5543309661,"tags":{"amenity":"pharmacy","contact:phone":"9869093170","name":"Kathmandu Nardevi Aayurveda Pharma","source":"2cpokhara"},"relations":[],"meta":{"timestamp":"2018-04-10T16:32:16Z","version":1,"changeset":57978508,"user":"Active Asmita","uid":7644107}},"geometry":{"type":"Point","coordinates":[83.9912338,28.222956]}},{"type":"Feature","id":"node/5543535038","properties":{"type":"node","id":5543535038,"tags":{"amenity":"pharmacy","contact:phone":"9846287612","name":"Care Pharmacy","source":"2cpokhara"},"relations":[],"meta":{"timestamp":"2018-04-10T18:29:24Z","version":1,"changeset":57981857,"user":"Active Asmita","uid":7644107}},"geometry":{"type":"Point","coordinates":[83.9878451,28.2118905]}},{"type":"Feature","id":"node/5543535039","properties":{"type":"node","id":5543535039,"tags":{"amenity":"pharmacy","contact:phone":"061-530646","name":"Swastika Medical Hall","source":"2cpokhara"},"relations":[],"meta":{"timestamp":"2018-04-10T18:29:24Z","version":1,"changeset":57981857,"user":"Active Asmita","uid":7644107}},"geometry":{"type":"Point","coordinates":[83.9877514,28.2119301]}},{"type":"Feature","id":"node/5543535042","properties":{"type":"node","id":5543535042,"tags":{"amenity":"pharmacy","name":"Shuvam Medical Hall","source":"2cpokhara"},"relations":[],"meta":{"timestamp":"2018-04-10T18:29:24Z","version":1,"changeset":57981857,"user":"Active Asmita","uid":7644107}},"geometry":{"type":"Point","coordinates":[83.985918,28.2097679]}},{"type":"Feature","id":"node/5543535045","properties":{"type":"node","id":5543535045,"tags":{"amenity":"pharmacy","contact:phone":"061-531086","name":"Ripesh Medical Hall","source":"2cpokhara"},"relations":[],"meta":{"timestamp":"2018-04-10T18:29:25Z","version":1,"changeset":57981857,"user":"Active Asmita","uid":7644107}},"geometry":{"type":"Point","coordinates":[83.9861397,28.2096061]}},{"type":"Feature","id":"node/5544172877","properties":{"type":"node","id":5544172877,"tags":{"amenity":"pharmacy","contact:phone":"061-541060","name":"Unesh Drug Disrtibutors","source":"2cpokhara"},"relations":[],"meta":{"timestamp":"2018-04-11T03:16:10Z","version":1,"changeset":57990378,"user":"Active Asmita","uid":7644107}},"geometry":{"type":"Point","coordinates":[83.9911436,28.2213319]}},{"type":"Feature","id":"node/5544172880","properties":{"type":"node","id":5544172880,"tags":{"amenity":"pharmacy","name":"Shakya Medical Concen","source":"2cpokhara"},"relations":[],"meta":{"timestamp":"2018-04-11T03:16:10Z","version":1,"changeset":57990378,"user":"Active Asmita","uid":7644107}},"geometry":{"type":"Point","coordinates":[83.9911536,28.2216457]}},{"type":"Feature","id":"node/5544172883","properties":{"type":"node","id":5544172883,"tags":{"amenity":"pharmacy","contact:phone":"061-530482","name":"Everest Surgical & Laboratory Concern","source":"2cpokhara"},"relations":[],"meta":{"timestamp":"2018-04-11T03:16:10Z","version":1,"changeset":57990378,"user":"Active Asmita","uid":7644107}},"geometry":{"type":"Point","coordinates":[83.9910779,28.2221603]}},{"type":"Feature","id":"node/5544259257","properties":{"type":"node","id":5544259257,"tags":{"amenity":"pharmacy","name":"Jana Sewa Medical Hall","source":"2cpokhara"},"relations":[],"meta":{"timestamp":"2018-04-11T04:29:28Z","version":1,"changeset":57991353,"user":"Active Asmita","uid":7644107}},"geometry":{"type":"Point","coordinates":[83.9850514,28.2091523]}},{"type":"Feature","id":"node/5544259258","properties":{"type":"node","id":5544259258,"tags":{"amenity":"pharmacy","contact:phone":"061- 525249, 061-527694","name":"Himsagar Medico Pharma","source":"2cpokhara"},"relations":[],"meta":{"timestamp":"2018-04-11T04:29:28Z","version":1,"changeset":57991353,"user":"Active Asmita","uid":7644107}},"geometry":{"type":"Point","coordinates":[83.9845456,28.2085482]}},{"type":"Feature","id":"node/5544259261","properties":{"type":"node","id":5544259261,"tags":{"amenity":"pharmacy","contact:phone":"061-537317","name":"Amrit Kalash Pharmacy","source":"2cpokhara"},"relations":[],"meta":{"timestamp":"2018-04-11T04:29:28Z","version":1,"changeset":57991353,"user":"Active Asmita","uid":7644107}},"geometry":{"type":"Point","coordinates":[83.9838267,28.2075367]}},{"type":"Feature","id":"node/5544259264","properties":{"type":"node","id":5544259264,"tags":{"amenity":"pharmacy","contact:phone":"9856039082","name":"Light Pharmacy","source":"2cpokhara"},"relations":[],"meta":{"timestamp":"2018-04-11T04:29:28Z","version":1,"changeset":57991353,"user":"Active Asmita","uid":7644107}},"geometry":{"type":"Point","coordinates":[83.9826484,28.2056819]}},{"type":"Feature","id":"node/5544259275","properties":{"type":"node","id":5544259275,"tags":{"amenity":"pharmacy","contact:phone":"061-551574, 9802839540","name":"Ratna Polyclinc & Medical Centre","source":"2cpokhara"},"relations":[],"meta":{"timestamp":"2018-04-11T04:29:29Z","version":1,"changeset":57991353,"user":"Active Asmita","uid":7644107}},"geometry":{"type":"Point","coordinates":[83.9834788,28.2063534]}},{"type":"Feature","id":"node/5544259281","properties":{"type":"node","id":5544259281,"tags":{"amenity":"pharmacy","name":"Sunrise Medico Pharma","source":"2cpokhara"},"relations":[],"meta":{"timestamp":"2018-04-11T04:29:29Z","version":1,"changeset":57991353,"user":"Active Asmita","uid":7644107}},"geometry":{"type":"Point","coordinates":[83.9843844,28.2078771]}},{"type":"Feature","id":"node/5544259284","properties":{"type":"node","id":5544259284,"tags":{"amenity":"pharmacy","contact:phone":"9846193383","name":"Niti Niyam Medico Pharma","source":"2cpokhara"},"relations":[],"meta":{"timestamp":"2018-04-11T04:29:30Z","version":1,"changeset":57991353,"user":"Active Asmita","uid":7644107}},"geometry":{"type":"Point","coordinates":[83.9849717,28.2084029]}},{"type":"Feature","id":"node/5545184682","properties":{"type":"node","id":5545184682,"tags":{"amenity":"pharmacy","name":"Sushan Pharmacy","operator":"private","wheelchair":"yes"},"relations":[],"meta":{"timestamp":"2018-04-11T13:00:27Z","version":1,"changeset":58002730,"user":"Bijay adhikari","uid":7643850}},"geometry":{"type":"Point","coordinates":[83.9858423,28.2383573]}},{"type":"Feature","id":"node/5556007773","properties":{"type":"node","id":5556007773,"tags":{"amenity":"pharmacy","name":"Bishal Pharmacy"},"relations":[],"meta":{"timestamp":"2018-04-16T08:27:50Z","version":1,"changeset":58130142,"user":"sandip parajuli","uid":7668145}},"geometry":{"type":"Point","coordinates":[84.0498244,28.1777306]}},{"type":"Feature","id":"node/5556007775","properties":{"type":"node","id":5556007775,"tags":{"amenity":"pharmacy","contact:phone":"984601468","name":"Sapana Medical Hall","opening_hours":"10:00-20:00","operator:type":"private"},"relations":[],"meta":{"timestamp":"2018-04-16T08:27:50Z","version":1,"changeset":58130142,"user":"sandip parajuli","uid":7668145}},"geometry":{"type":"Point","coordinates":[84.050562,28.1769527]}},{"type":"Feature","id":"node/5556007791","properties":{"type":"node","id":5556007791,"tags":{"amenity":"pharmacy","contact:email":"bharatprahad999baral@gmail.com","contact:phone":"9846658110","name":"Monika Pharmacy","opening_hours":"7-8","operator":"private"},"relations":[],"meta":{"timestamp":"2018-04-16T08:27:51Z","version":1,"changeset":58130142,"user":"sandip parajuli","uid":7668145}},"geometry":{"type":"Point","coordinates":[84.0495176,28.175446]}},{"type":"Feature","id":"node/5556144855","properties":{"type":"node","id":5556144855,"tags":{"amenity":"pharmacy","contact:phone":"9856034845","name":"Sumpurna Pharmacy","opening_hours":"7:00-20:00","operator":"private"},"relations":[],"meta":{"timestamp":"2018-04-16T09:38:21Z","version":1,"changeset":58132023,"user":"sandip parajuli","uid":7668145}},"geometry":{"type":"Point","coordinates":[84.0371637,28.184802]}},{"type":"Feature","id":"node/5572346633","properties":{"type":"node","id":5572346633,"tags":{"amenity":"pharmacy","name":"Sankalpa Pharmacy","opening_hours":"7:00-20:00","operator:type":"private","source":"2c peset"},"relations":[],"meta":{"timestamp":"2018-04-23T01:07:11Z","version":1,"changeset":58323492,"user":"sadeepta dh","uid":4851333}},"geometry":{"type":"Point","coordinates":[83.9766013,28.2067994]}},{"type":"Feature","id":"node/5577883611","properties":{"type":"node","id":5577883611,"tags":{"amenity":"pharmacy","name":"Re Life Ayurveda Hospital Pvt. Ltd","operator:type":"private","source":"2c peset"},"relations":[],"meta":{"timestamp":"2018-04-25T07:39:37Z","version":1,"changeset":58399252,"user":"sadeepta dh","uid":4851333}},"geometry":{"type":"Point","coordinates":[83.9790598,28.2119398]}},{"type":"Feature","id":"node/5580150189","properties":{"type":"node","id":5580150189,"tags":{"amenity":"pharmacy","name":"Balika Pharmacy"},"relations":[],"meta":{"timestamp":"2018-04-26T10:16:38Z","version":2,"changeset":58438091,"user":"reenuka","uid":7644128}},"geometry":{"type":"Point","coordinates":[84.1090808,28.1149104]}},{"type":"Feature","id":"node/5580150207","properties":{"type":"node","id":5580150207,"tags":{"amenity":"pharmacy","name":"Ashik Farmacy"},"relations":[],"meta":{"timestamp":"2018-05-02T09:45:11Z","version":2,"changeset":58609152,"user":"Ro Sun","uid":3112087}},"geometry":{"type":"Point","coordinates":[84.0934096,28.1146458]}},{"type":"Feature","id":"node/5598345202","properties":{"type":"node","id":5598345202,"tags":{"amenity":"pharmacy","name":"Natural Health Care"},"relations":[],"meta":{"timestamp":"2018-05-05T09:35:31Z","version":1,"changeset":58703104,"user":"Bijay adhikari","uid":7643850}},"geometry":{"type":"Point","coordinates":[84.0072611,28.2147088]}},{"type":"Feature","id":"node/5608413320","properties":{"type":"node","id":5608413320,"tags":{"amenity":"pharmacy","contact:phone":"9856037315","name":"Panta Pharmacy","opening_hours":"7:00 - 20:00","operator":"Private","source":"2cpokhara"},"relations":[],"meta":{"timestamp":"2018-05-10T03:59:53Z","version":1,"changeset":58837028,"user":"Abash Paudel","uid":6677482}},"geometry":{"type":"Point","coordinates":[84.0035617,28.1829521]}},{"type":"Feature","id":"node/5608424434","properties":{"type":"node","id":5608424434,"tags":{"amenity":"pharmacy","contact:phone":"061430837","name":"Ashish Medical Hall","operator":"Private","source":"2cpokhara"},"relations":[],"meta":{"timestamp":"2018-05-10T03:59:53Z","version":1,"changeset":58837028,"user":"Abash Paudel","uid":6677482}},"geometry":{"type":"Point","coordinates":[84.0024814,28.1847731]}},{"type":"Feature","id":"node/5613946503","properties":{"type":"node","id":5613946503,"tags":{"amenity":"pharmacy","contact:phone":"9846066982","name":"Palikhe Medical Pharma","source":"2cpokhara"},"relations":[],"meta":{"timestamp":"2018-05-12T18:11:27Z","version":1,"changeset":58908598,"user":"Abash Paudel","uid":6677482}},"geometry":{"type":"Point","coordinates":[83.9958302,28.221252]}},{"type":"Feature","id":"node/5615303773","properties":{"type":"node","id":5615303773,"tags":{"amenity":"pharmacy","name":"Chirag Pharmacy Wholesale","operator":"private","source":"2cpokhara"},"relations":[],"meta":{"timestamp":"2018-05-13T16:02:41Z","version":1,"changeset":58927891,"user":"Abash Paudel","uid":6677482}},"geometry":{"type":"Point","coordinates":[83.9971016,28.2213944]}},{"type":"Feature","id":"node/5618740241","properties":{"type":"node","id":5618740241,"tags":{"amenity":"pharmacy","name":"Babisha Sergisales","operator":"private","source":"2cpokhara"},"relations":[],"meta":{"timestamp":"2018-05-15T02:28:34Z","version":1,"changeset":58969266,"user":"Abash Paudel","uid":6677482}},"geometry":{"type":"Point","coordinates":[83.9939258,28.2204751]}},{"type":"Feature","id":"node/5618869110","properties":{"type":"node","id":5618869110,"tags":{"amenity":"pharmacy","name":"Alisha Medical Hall","source":"2cpokhara"},"relations":[],"meta":{"timestamp":"2018-05-24T10:44:21Z","version":2,"changeset":59237628,"user":"marek kleciak","uid":338611}},"geometry":{"type":"Point","coordinates":[84.0049584,28.2200148]}},{"type":"Feature","id":"node/5631484521","properties":{"type":"node","id":5631484521,"tags":{"amenity":"pharmacy","name:en":"Susant's home"},"relations":[],"meta":{"timestamp":"2018-05-21T02:10:41Z","version":1,"changeset":59136668,"user":"pratixa","uid":3481032}},"geometry":{"type":"Point","coordinates":[83.989725,28.2355787]}},{"type":"Feature","id":"node/5645230505","properties":{"type":"node","id":5645230505,"tags":{"amenity":"pharmacy","name":"Panta Pharmacy","name:ne":"पन्त फार्मेसी","opening_hours":"Sunrise-Sunset"},"relations":[],"meta":{"timestamp":"2018-05-27T05:48:23Z","version":1,"changeset":59306511,"user":"Ro Sun","uid":3112087}},"geometry":{"type":"Point","coordinates":[84.0003075,28.2185897]}},{"type":"Feature","id":"node/5645230514","properties":{"type":"node","id":5645230514,"tags":{"amenity":"pharmacy","name":"Advance Aausadi Pasal","name:ne":"एडभान्स औसधी पसल"},"relations":[],"meta":{"timestamp":"2018-05-27T05:48:23Z","version":1,"changeset":59306511,"user":"Ro Sun","uid":3112087}},"geometry":{"type":"Point","coordinates":[84.0097643,28.2135814]}},{"type":"Feature","id":"node/5645230516","properties":{"type":"node","id":5645230516,"tags":{"amenity":"pharmacy","name":"Shridh Medical Hall","opening_hours":"10:00- 16:00"},"relations":[],"meta":{"timestamp":"2018-05-27T05:48:23Z","version":1,"changeset":59306511,"user":"Ro Sun","uid":3112087}},"geometry":{"type":"Point","coordinates":[84.005754,28.2151154]}},{"type":"Feature","id":"node/5649162204","properties":{"type":"node","id":5649162204,"tags":{"amenity":"pharmacy","name":"Komal Pharmacy","name:ne":"कोमल फार्मेसी"},"relations":[],"meta":{"timestamp":"2018-05-29T09:20:10Z","version":1,"changeset":59361949,"user":"Ro Sun","uid":3112087}},"geometry":{"type":"Point","coordinates":[83.9927724,28.2017586]}}],"createdOn":1527761746942}