{"type":"FeatureCollection","features":[{"type":"Feature","id":"way/343059841","properties":{"type":"way","id":343059841,"tags":{"addr:city":"Kalika","addr:county":"pokhara lekhnath","addr:district":"Kaski","addr:place":"kalika 4","addr:province":"Weastern","addr:state":"Nepal","addr:street":"kalikasthan","amenity":"police","building":"yes","building:levels":"1","name":"Kalika Samudhayek Sewa kendra"},"relations":[],"meta":{"timestamp":"2017-09-08T10:58:18Z","version":7,"changeset":51840628,"user":"Aleks-Berlin","uid":85218}},"geometry":{"type":"Point","coordinates":[84.07479544999998,28.214253]}},{"type":"Feature","id":"way/363764149","properties":{"type":"way","id":363764149,"tags":{"addr:place":"Lamachaur","addr:street":"Amalabisaune Panitanki Marga","amenity":"police","contact:phone":"9848021732","name":"Lamachaur Batulechaur CRV Police Station","name:ne":"लामाचौर बाटुलेचौर सी.आर.भी पुलीस इसटेसन","opening_hours":"24/7","source":"2cpokhara"},"relations":[],"meta":{"timestamp":"2018-02-24T10:30:53Z","version":7,"changeset":56632750,"user":"Rabin Ojha","uid":6075053}},"geometry":{"type":"Point","coordinates":[83.973803425,28.2641080375]}},{"type":"Feature","id":"way/387994876","properties":{"type":"way","id":387994876,"tags":{"amenity":"police","name":"Wada Police Station, Bagar","name:ne":"वडा प्रहरी कार्यालय, बगर","opening_hours":"24/7","operator":"government","phone":"100"},"relations":[],"meta":{"timestamp":"2017-02-09T16:04:38Z","version":8,"changeset":45951018,"user":"Manoj Thapa","uid":781054}},"geometry":{"type":"Point","coordinates":[83.98609066666667,28.242961688888887]}},{"type":"Feature","id":"way/403793880","properties":{"type":"way","id":403793880,"tags":{"amenity":"police","barrier":"wall","contact:phone":"061466637","name":"Western Region Armed Police Force HQ Muktinath Battalion","name:ne":"वेस्टर्न रिजन आर्म्ड फोर्चे एच किव मुकतिनाथ ब्यटोलियों","office":"government","opening_hours":"24/7","operator":"government","website":"www.apf.gov","wheelchair":"yes"},"relations":[],"meta":{"timestamp":"2018-03-20T09:15:48Z","version":9,"changeset":57344010,"user":"Ro Sun","uid":3112087}},"geometry":{"type":"Point","coordinates":[83.96972999375001,28.204918618750003]}},{"type":"Feature","id":"way/403795444","properties":{"type":"way","id":403795444,"tags":{"amenity":"police","barrier":"wall","name":"Armed Police Force Accomodation","name:ne":"ए प फ अकोमोदेशन"},"relations":[],"meta":{"timestamp":"2018-03-20T06:13:36Z","version":7,"changeset":57339589,"user":"Ro Sun","uid":3112087}},"geometry":{"type":"Point","coordinates":[83.97231225,28.204922375000002]}},{"type":"Feature","id":"way/403999148","properties":{"type":"way","id":403999148,"tags":{"addr:city":"Pokhara","addr:place":"Milan Tole","addr:street":"Sugam Marga","amenity":"police","barrier":"wall","level":"2","name":"Province Police Office","office":"government","opening_hours":"10:00-17:00","operator":"government"},"relations":[],"meta":{"timestamp":"2018-03-20T05:14:42Z","version":8,"changeset":57338819,"user":"Ro Sun","uid":3112087}},"geometry":{"type":"Point","coordinates":[83.97173995714286,28.205748914285717]}},{"type":"Feature","id":"way/408534802","properties":{"type":"way","id":408534802,"tags":{"addr:city":"Pokhara","amenity":"police","name":"District Police Office, Kaski","name:ne":"जिल्ला प्रहरी कार्यालय, कास्की","office":"government","operator":"government","phone":"+977 61 420033, 9856005555, 9856039599"},"relations":[],"meta":{"timestamp":"2017-02-13T04:23:15Z","version":9,"changeset":46035751,"user":"Manoj Thapa","uid":781054}},"geometry":{"type":"Point","coordinates":[83.98932518181819,28.22573050909091]}},{"type":"Feature","id":"way/413078725","properties":{"type":"way","id":413078725,"tags":{"amenity":"police","name":"Metro CRV Police Beat","name:ne":"मेट्रो सी.आर.भी पुलीस बिट","opening_hours":"24/7","wheelchair":"no"},"relations":[],"meta":{"timestamp":"2016-09-13T08:41:14Z","version":3,"changeset":42119390,"user":"Bishal9841","uid":3573216}},"geometry":{"type":"Point","coordinates":[84.0070637888889,28.211058866666672]}},{"type":"Feature","id":"way/414773796","properties":{"type":"way","id":414773796,"tags":{"amenity":"police","building":"yes","name":"Budhha Chowk Police Beat","name:ne":"बुद्ध चोक प्रहरी बिट"},"relations":[],"meta":{"timestamp":"2016-10-06T06:53:29Z","version":3,"changeset":42675806,"user":"Parassrest","uid":3569249}},"geometry":{"type":"Point","coordinates":[83.99482995,28.206267149999995]}},{"type":"Feature","id":"way/417526392","properties":{"type":"way","id":417526392,"tags":{"amenity":"police","name":"Temporary Police Station, Industrial Area","name:ne":"अस्थाई प्रहरी पोस्ट, औधोगिग क्षेत्र","opening_hours":"24/7"},"relations":[],"meta":{"timestamp":"2017-02-09T07:17:09Z","version":4,"changeset":45939008,"user":"Alisha12","uid":4204463}},"geometry":{"type":"Point","coordinates":[84.0094886,28.20152685]}},{"type":"Feature","id":"way/419153062","properties":{"type":"way","id":419153062,"tags":{"amenity":"police","building":"yes"},"relations":[],"meta":{"timestamp":"2017-11-29T06:14:34Z","version":2,"changeset":54167790,"user":"nishaadhikari","uid":3481073}},"geometry":{"type":"Point","coordinates":[84.01117914999999,28.2075008]}},{"type":"Feature","id":"way/419653603","properties":{"type":"way","id":419653603,"tags":{"addr:city":"Pokhara lekthnath municipility","amenity":"police","building":"yes","contact:phone":"061-52111","name":"Police Check Post"},"relations":[],"meta":{"timestamp":"2017-08-10T10:24:01Z","version":2,"changeset":50996986,"user":"liladevkota123","uid":6448317}},"geometry":{"type":"Point","coordinates":[83.973747225,28.249010650000002]}},{"type":"Feature","id":"way/420464299","properties":{"type":"way","id":420464299,"tags":{"amenity":"police","building":"yes","name":"Temporary Police Station, Ramghat","name:ne":"अस्थाई प्रहरी पोस्ट, रामघाट","opening_hours":"24/7","phone":"100"},"relations":[],"meta":{"timestamp":"2017-02-09T06:52:30Z","version":3,"changeset":45938560,"user":"Alisha12","uid":4204463}},"geometry":{"type":"Point","coordinates":[83.99213375,28.2183186]}},{"type":"Feature","id":"way/420505537","properties":{"type":"way","id":420505537,"tags":{"amenity":"police","building":"yes","name":"Police station, Chorepatan","name:ne":"प्रहरी चौकी, छोरेपाटन","opening_hours":"24/7","operator":"government"},"relations":[],"meta":{"timestamp":"2017-02-09T06:36:46Z","version":3,"changeset":45938286,"user":"Alisha12","uid":4204463}},"geometry":{"type":"Point","coordinates":[83.9570737,28.190316275]}},{"type":"Feature","id":"way/420741582","properties":{"type":"way","id":420741582,"tags":{"amenity":"police","barrier":"wall","name":"Zonal Police Headquataer","name:ne":"अञ्चल प्रहरी कार्यालय","office":"government","opening_hours":"24/7","operator":"government"},"relations":[],"meta":{"timestamp":"2017-05-22T10:53:36Z","version":4,"changeset":48884618,"user":"Ro Sun","uid":3112087}},"geometry":{"type":"Point","coordinates":[83.97053013333334,28.2024806]}},{"type":"Feature","id":"way/421079143","properties":{"type":"way","id":421079143,"tags":{"addr:street":"Bagar","amenity":"police","building":"yes","name":"Samudayak Sewa Kendra, Bagar","name:en":"Cummunity Service Centre, Indreni Tergra Ted.Development Centre","name:ne":"सामुदायिक सेवा केन्द्र"},"relations":[],"meta":{"timestamp":"2017-08-09T09:41:23Z","version":4,"changeset":50966938,"user":"cibesh009","uid":6145192}},"geometry":{"type":"Point","coordinates":[83.98627454999999,28.241769399999995]}},{"type":"Feature","id":"way/422570931","properties":{"type":"way","id":422570931,"tags":{"addr:city":"Pokhara Lekhanath Metropolitan City","addr:place":"Adharsha Margha-15","addr:street":"Dhunge Sangu Chowk","amenity":"police","name":"Temporary Police Station, Dhunge Sangu","name:ne":"शिभ मन्दिर","operator":"government","religion":"hindu"},"relations":[],"meta":{"timestamp":"2017-09-10T06:33:18Z","version":6,"changeset":51898430,"user":"Ro Sun","uid":3112087}},"geometry":{"type":"Point","coordinates":[83.9959562,28.1863619]}},{"type":"Feature","id":"way/422787931","properties":{"type":"way","id":422787931,"tags":{"amenity":"police","building":"yes","name":"Temporary Police Station, Hospital Chowk","name:ne":"अस्थाई प्रहरी पोस्ट, होस्पितल चोक","opening_hours":"24/7","source":"2cpokhara","wheelchair":"limited"},"relations":[],"meta":{"timestamp":"2018-05-15T05:25:03Z","version":4,"changeset":58971151,"user":"Abash Paudel","uid":6677482}},"geometry":{"type":"Point","coordinates":[83.99937539999999,28.212404149999998]}},{"type":"Feature","id":"way/425510458","properties":{"type":"way","id":425510458,"tags":{"amenity":"police","contact:phone":"061-430933","name":"Ward Police Station, Rambazar","name:ne":"वडा प्रहरी कार्यालय, रामबजार","source":"2cpokhara"},"relations":[],"meta":{"timestamp":"2018-04-10T04:01:42Z","version":5,"changeset":57958358,"user":"Abash Paudel","uid":6677482}},"geometry":{"type":"Point","coordinates":[84.00001920714287,28.19968431428571]}},{"type":"Feature","id":"way/425887154","properties":{"type":"way","id":425887154,"tags":{"amenity":"police","name":"Police Station, Pame","name:ne":"प्रहरी चौकी, पामे"},"relations":[],"meta":{"timestamp":"2017-02-09T06:39:13Z","version":2,"changeset":45938327,"user":"Alisha12","uid":4204463}},"geometry":{"type":"Point","coordinates":[83.91020424999999,28.235254625000003]}},{"type":"Feature","id":"way/429578932","properties":{"type":"way","id":429578932,"tags":{"amenity":"police","contact:phone":"061-463426","email":"wrapbpokhara@gmail.com","name":"West Regional Armed Police Battalion","name:ne":"वेष्ट रिजनल आर्मड् पुलिस बतालियोन","operator":"government"},"relations":[],"meta":{"timestamp":"2016-08-15T09:08:44Z","version":2,"changeset":41463390,"user":"Parassrest","uid":3569249}},"geometry":{"type":"Point","coordinates":[83.96858358571428,28.199966760714286]}},{"type":"Feature","id":"way/429595780","properties":{"type":"way","id":429595780,"tags":{"amenity":"police","contact:phone":"061:465087","name":"Ward Police Office, Baidam","name:ne":"वडा प्रहरी कार्यलय, वैदाम","opening_hours":"10:00-17:00","operator":"government"},"relations":[],"meta":{"timestamp":"2017-08-10T08:14:22Z","version":5,"changeset":50993223,"user":"gyanendra nepali","uid":6447854}},"geometry":{"type":"Point","coordinates":[83.96846024,28.20099626]}},{"type":"Feature","id":"way/429606362","properties":{"type":"way","id":429606362,"tags":{"amenity":"police","barrier":"fence","name":"Zonal Armed Police Brigade,Gandaki","name:ne":"अञ्चल सशस्त्र प्रहरी गुल्म ,गण्डकी","office":"government","opening_hours":"24/7","operator":"government"},"relations":[],"meta":{"timestamp":"2017-05-22T10:53:36Z","version":5,"changeset":48884618,"user":"Ro Sun","uid":3112087}},"geometry":{"type":"Point","coordinates":[83.97007272631578,28.203714173684208]}},{"type":"Feature","id":"way/485277744","properties":{"type":"way","id":485277744,"tags":{"addr:street":"Sisuwa Sisa Ghat Marga","amenity":"police","building":"yes","name":"Police Station, Rajako Chautara","opening_hours":"24/7","phone":"061410200"},"relations":[],"meta":{"timestamp":"2018-04-15T09:32:14Z","version":3,"changeset":58106022,"user":"Ro Sun","uid":3112087}},"geometry":{"type":"Point","coordinates":[84.1046321,28.119665075]}},{"type":"Feature","id":"way/489206156","properties":{"type":"way","id":489206156,"tags":{"amenity":"police","name":"Police Station, Bharatpokhari"},"relations":[],"meta":{"timestamp":"2017-05-11T05:33:54Z","version":2,"changeset":48580252,"user":"Ro Sun","uid":3112087}},"geometry":{"type":"Point","coordinates":[84.06470287500001,28.101566675]}},{"type":"Feature","id":"way/489220112","properties":{"type":"way","id":489220112,"tags":{"amenity":"police","name":"Police Beat, Gagangaunda"},"relations":[],"meta":{"timestamp":"2017-05-11T04:59:38Z","version":3,"changeset":48579793,"user":"Ro Sun","uid":3112087}},"geometry":{"type":"Point","coordinates":[84.08266115,28.13282805]}},{"type":"Feature","id":"node/568542955","properties":{"type":"node","id":568542955,"tags":{"amenity":"police","contact:email":"touristpolicepokhara@nepalpolice.gov.np","contact:phone":"061-462761, 100","name":"Tourist Police Post","name:ne":"पर्यटक पुलिस","operator":"Nepal Police"},"relations":[],"meta":{"timestamp":"2017-04-13T07:44:04Z","version":6,"changeset":47733468,"user":"Parassrest","uid":3569249}},"geometry":{"type":"Point","coordinates":[83.95727,28.2117055]}},{"type":"Feature","id":"node/2142193514","properties":{"type":"node","id":2142193514,"tags":{"amenity":"police","contact:email":"touristpolicepokhara@nepalpolice.gov.np","contact:phone":"061-462761, 100","name":"Tourist Police Sub-Section, Baidam","name:ne":"पर्यटन प्रहरी, बैदाम","operator":"Nepal Police","source":"2cpokhara"},"relations":[],"meta":{"timestamp":"2018-03-07T15:51:00Z","version":6,"changeset":56973345,"user":"Sagarsubedi205","uid":7632456}},"geometry":{"type":"Point","coordinates":[83.9695651,28.1992872]}},{"type":"Feature","id":"node/4180402812","properties":{"type":"node","id":4180402812,"tags":{"amenity":"police","name":"Ilaka Prahari Karyalaya, Sisuwa","name:ne":"इलाका प्रहरी कार्यालय, सिसुवा"},"relations":[],"meta":{"timestamp":"2016-09-25T06:23:22Z","version":2,"changeset":42416589,"user":"Alisha12","uid":4204463}},"geometry":{"type":"Point","coordinates":[84.0535176,28.1725723]}},{"type":"Feature","id":"node/4193201723","properties":{"type":"node","id":4193201723,"tags":{"amenity":"police","name":"Temporary Police Station, Nadipur","name:ne":"अस्थाई प्रहरी पोस्ट, नदीपुर","opening_hours":"24/7","operator":"Nepal Police"},"relations":[],"meta":{"timestamp":"2017-02-09T06:45:53Z","version":2,"changeset":45938442,"user":"Alisha12","uid":4204463}},"geometry":{"type":"Point","coordinates":[83.9905489,28.2334287]}},{"type":"Feature","id":"node/4419914582","properties":{"type":"node","id":4419914582,"tags":{"amenity":"police","name":"Samudayak Sewa Kendra, Prithivi Chowk","opening_hours":"24/7","phone":"100"},"relations":[],"meta":{"timestamp":"2017-02-09T16:04:38Z","version":3,"changeset":45951018,"user":"Manoj Thapa","uid":781054}},"geometry":{"type":"Point","coordinates":[83.9877959,28.209592]}},{"type":"Feature","id":"node/4646528890","properties":{"type":"node","id":4646528890,"tags":{"addr:place":"Dada Ko Nak","addr:street":"Prithvi Highway","amenity":"police","contact:phone":"061-561101","name":"Lekhnath Samudayik Police Station","opening_hours":"24/7"},"relations":[],"meta":{"timestamp":"2017-08-11T07:24:24Z","version":3,"changeset":51023390,"user":"rmpaudel123","uid":6447862}},"geometry":{"type":"Point","coordinates":[84.0553013,28.1697869]}},{"type":"Feature","id":"node/4675910058","properties":{"type":"node","id":4675910058,"tags":{"addr:city":"Pokhara","addr:street":"Srijana Chowk","amenity":"police","name":"Temporary Police Station, Srijan Chowk","name:ne":"अस्थाई प्रहरी पोस्ट, सृजना चोक","opening_hours":"24/7"},"relations":[],"meta":{"timestamp":"2017-02-09T06:57:08Z","version":2,"changeset":45938638,"user":"Alisha12","uid":4204463}},"geometry":{"type":"Point","coordinates":[83.9811391,28.211011]}},{"type":"Feature","id":"node/4676074203","properties":{"type":"node","id":4676074203,"tags":{"amenity":"police","name":"Temporary Police Station Ripitar, Sarankot","opening_hours":"24/7"},"relations":[],"meta":{"timestamp":"2017-02-09T07:46:37Z","version":1,"changeset":45939665,"user":"Alisha12","uid":4204463}},"geometry":{"type":"Point","coordinates":[83.9485706,28.2461392]}},{"type":"Feature","id":"node/4676159646","properties":{"type":"node","id":4676159646,"tags":{"amenity":"police","name":"Temporary Police Station, Bindawasini","opening_hours":"24/7"},"relations":[],"meta":{"timestamp":"2017-02-09T08:37:36Z","version":1,"changeset":45940518,"user":"Alisha12","uid":4204463}},"geometry":{"type":"Point","coordinates":[83.9852464,28.2373819]}},{"type":"Feature","id":"node/4676761452","properties":{"type":"node","id":4676761452,"tags":{"amenity":"police","name":"Police Station, Sarankot","opening_hours":"24/7","phone":"100"},"relations":[],"meta":{"timestamp":"2017-02-09T16:04:38Z","version":1,"changeset":45951018,"user":"Manoj Thapa","uid":781054}},"geometry":{"type":"Point","coordinates":[83.9562585,28.2443633]}},{"type":"Feature","id":"node/4676761453","properties":{"type":"node","id":4676761453,"tags":{"amenity":"police","name":"Samudayak Sewa Kendra, Matepani","opening_hours":"24/7"},"relations":[],"meta":{"timestamp":"2017-02-09T16:04:38Z","version":1,"changeset":45951018,"user":"Manoj Thapa","uid":781054}},"geometry":{"type":"Point","coordinates":[84.0039371,28.2154829]}},{"type":"Feature","id":"node/4676853330","properties":{"type":"node","id":4676853330,"tags":{"amenity":"police","name":"Temporary Police Station, Baal Sudhar Kendra Saarankot","opening_hours":"24/7","phone":"100"},"relations":[],"meta":{"timestamp":"2017-02-09T16:28:15Z","version":1,"changeset":45951485,"user":"Manoj Thapa","uid":781054}},"geometry":{"type":"Point","coordinates":[83.9649231,28.2397828]}},{"type":"Feature","id":"node/4676857193","properties":{"type":"node","id":4676857193,"tags":{"amenity":"police","contact:phone":"100","name":"Samudayak Sewa Kendra, Baaidam","opening_hours":"24/7"},"relations":[],"meta":{"timestamp":"2017-07-03T05:40:30Z","version":2,"changeset":49998984,"user":"Alisha12","uid":4204463}},"geometry":{"type":"Point","coordinates":[83.9565514,28.2145448]}},{"type":"Feature","id":"node/4676863854","properties":{"type":"node","id":4676863854,"tags":{"amenity":"police","contact:phone":"100","name":"Tourist Police Information Center","opening_hours":"24/7","operator":"Nepal Police"},"relations":[],"meta":{"timestamp":"2017-02-09T16:38:20Z","version":1,"changeset":45951681,"user":"Manoj Thapa","uid":781054}},"geometry":{"type":"Point","coordinates":[83.9573751,28.2082223]}},{"type":"Feature","id":"node/4676863855","properties":{"type":"node","id":4676863855,"tags":{"amenity":"police","contact:phone":"100","name":"Tourist Police Information Center","opening_hours":"24/7","operator":"Nepal Police"},"relations":[],"meta":{"timestamp":"2017-02-09T16:38:21Z","version":1,"changeset":45951681,"user":"Manoj Thapa","uid":781054}},"geometry":{"type":"Point","coordinates":[83.9681975,28.2013072]}},{"type":"Feature","id":"node/4788203626","properties":{"type":"node","id":4788203626,"tags":{"amenity":"police","name":"PoliceBeat Budhibazar","source":"2cpokhara"},"relations":[],"meta":{"timestamp":"2018-03-20T10:16:28Z","version":3,"changeset":57345828,"user":"sandip parajuli","uid":7668145}},"geometry":{"type":"Point","coordinates":[84.0378727,28.1835855]}},{"type":"Feature","id":"node/4807356760","properties":{"type":"node","id":4807356760,"tags":{"amenity":"police","name":"Ward Police Station, Gagangauda"},"relations":[],"meta":{"timestamp":"2017-09-10T05:14:57Z","version":6,"changeset":51897374,"user":"Ro Sun","uid":3112087}},"geometry":{"type":"Point","coordinates":[84.0834953,28.1333702]}},{"type":"Feature","id":"node/4807652325","properties":{"type":"node","id":4807652325,"tags":{"amenity":"police","contact:email":"Apohamsapurkaski@yahoo.com","contact:phone":"9856061196","name":"CRV(Metro) Police Station","opening_hours":"24/7"},"relations":[],"meta":{"timestamp":"2018-03-13T09:38:01Z","version":4,"changeset":57138946,"user":"reenuka","uid":7644128}},"geometry":{"type":"Point","coordinates":[84.0698029,28.1655885]}},{"type":"Feature","id":"node/4814824510","properties":{"type":"node","id":4814824510,"tags":{"amenity":"police","name":"Police Station, Sundaridanda"},"relations":[],"meta":{"timestamp":"2017-05-11T05:32:27Z","version":2,"changeset":48580232,"user":"Ro Sun","uid":3112087}},"geometry":{"type":"Point","coordinates":[84.112588,28.1656394]}},{"type":"Feature","id":"node/4845167461","properties":{"type":"node","id":4845167461,"tags":{"amenity":"police","name":"ACAP Check Post"},"relations":[],"meta":{"timestamp":"2017-05-10T07:19:20Z","version":1,"changeset":48553272,"user":"Ro Sun","uid":3112087}},"geometry":{"type":"Point","coordinates":[83.9644433,28.3307205]}},{"type":"Feature","id":"node/5023743172","properties":{"type":"node","id":5023743172,"tags":{"amenity":"police","name":"Passenger Help Desk"},"relations":[],"meta":{"timestamp":"2017-08-09T08:31:54Z","version":1,"changeset":50964431,"user":"cibesh009","uid":6145192}},"geometry":{"type":"Point","coordinates":[83.9827672,28.2320367]}},{"type":"Feature","id":"node/5242353953","properties":{"type":"node","id":5242353953,"tags":{"amenity":"police","name":"Police Beat"},"relations":[],"meta":{"timestamp":"2018-02-12T05:34:31Z","version":2,"changeset":56282140,"user":"Ro Sun","uid":3112087}},"geometry":{"type":"Point","coordinates":[84.0531901,28.1723988]}},{"type":"Feature","id":"node/5253483933","properties":{"type":"node","id":5253483933,"tags":{"amenity":"police","name":"Shree Sasastra Prahari Bal Nepal"},"relations":[],"meta":{"timestamp":"2017-11-29T06:18:34Z","version":2,"changeset":54167863,"user":"nishaadhikari","uid":3481073}},"geometry":{"type":"Point","coordinates":[84.0101224,28.2060016]}},{"type":"Feature","id":"node/5517629211","properties":{"type":"node","id":5517629211,"tags":{"amenity":"police","contact:phone":"061561755","name":"Police Beat, Gagangaunda","source":"2cpokhara"},"relations":[],"meta":{"timestamp":"2018-03-31T03:08:42Z","version":1,"changeset":57678404,"user":"Amrit Devkota","uid":6497064}},"geometry":{"type":"Point","coordinates":[84.0827224,28.1327604]}},{"type":"Feature","id":"node/5531419883","properties":{"type":"node","id":5531419883,"tags":{"amenity":"police","name":"Community Police Service Center, Kalika","source":"2cpokhara"},"relations":[],"meta":{"timestamp":"2018-04-05T16:44:37Z","version":1,"changeset":57841324,"user":"Amrit Devkota","uid":6497064}},"geometry":{"type":"Point","coordinates":[84.0747636,28.2142296]}},{"type":"Feature","id":"node/5537475981","properties":{"type":"node","id":5537475981,"tags":{"amenity":"police","contact:phone":"061-465087","name:en":"Ward police office","operator:type":"goverment"},"relations":[],"meta":{"timestamp":"2018-04-11T11:25:26Z","version":2,"changeset":58000123,"user":"Shrestha Khum","uid":7644104}},"geometry":{"type":"Point","coordinates":[83.9684683,28.2011225]}},{"type":"Feature","id":"node/5544259297","properties":{"type":"node","id":5544259297,"tags":{"amenity":"police","contact:phone":"061-520412","name":"Traffic Police Office","source":"2cpokhara"},"relations":[],"meta":{"timestamp":"2018-04-11T04:29:31Z","version":1,"changeset":57991353,"user":"Active Asmita","uid":7644107}},"geometry":{"type":"Point","coordinates":[83.9863742,28.2089376]}},{"type":"Feature","id":"node/5580150200","properties":{"type":"node","id":5580150200,"tags":{"amenity":"police","name":"Police Station, Rajako Chautara"},"relations":[],"meta":{"timestamp":"2018-04-26T10:11:33Z","version":1,"changeset":58437964,"user":"reenuka","uid":7644128}},"geometry":{"type":"Point","coordinates":[84.1045599,28.1195842]}},{"type":"Feature","id":"node/5581851392","properties":{"type":"node","id":5581851392,"tags":{"amenity":"police","name":"Ilaka Prahari Karyalaya Hansapur"},"relations":[],"meta":{"timestamp":"2018-04-27T06:27:44Z","version":1,"changeset":58465666,"user":"Kshitizraj Sharma","uid":7004124}},"geometry":{"type":"Point","coordinates":[84.1442673,28.175892]}}],"createdOn":1526447931059}