{"type":"FeatureCollection","features":[{"type":"Feature","id":"way/341270282","properties":{"type":"way","id":341270282,"tags":{"amenity":"studio","name":"Radio Nepal","name:ne":"रेडियो नेपाल","studio":"radio"},"relations":[],"meta":{"timestamp":"2017-03-02T06:01:27Z","version":6,"changeset":46513358,"user":"Alisha12","uid":4204463}},"geometry":{"type":"Point","coordinates":[83.98181089655174,28.22020936206897]}},{"type":"Feature","id":"node/2139881406","properties":{"type":"node","id":2139881406,"tags":{"amenity":"studio","frequency":"99.6 MHz","name":"Radio Barahi","name:ne":"रेडियो बाराही","phone":"061-463222","studio":"radio","website":"www.barahiradio.com"},"relations":[],"meta":{"timestamp":"2017-12-01T06:54:51Z","version":6,"changeset":54225808,"user":"Ro Sun","uid":3112087}},"geometry":{"type":"Point","coordinates":[83.9709511,28.2003911]}},{"type":"Feature","id":"node/3534510221","properties":{"type":"node","id":3534510221,"tags":{"amenity":"studio","frequency":"106","name":"Gorkhali Radio","name:ne":"गोर्खाली रेडियो","phone":"061-527414","studio":"radio"},"relations":[],"meta":{"timestamp":"2016-08-12T09:53:44Z","version":2,"changeset":41407154,"user":"Bishal9841","uid":3573216}},"geometry":{"type":"Point","coordinates":[83.972623,28.2076124]}},{"type":"Feature","id":"node/3534510222","properties":{"type":"node","id":3534510222,"tags":{"amenity":"studio","frequency":"91","name":"Machhapuchhre FM","name:ne":"माछापुछ्रे एफ. एम .","phone":"061-532883","studio":"radio","website":"www.fmmachhpurchha.com"},"relations":[],"meta":{"timestamp":"2016-08-09T10:59:56Z","version":2,"changeset":41342786,"user":"Alisha12","uid":4204463}},"geometry":{"type":"Point","coordinates":[83.9726163,28.1979229]}},{"type":"Feature","id":"node/3534510223","properties":{"type":"node","id":3534510223,"tags":{"amenity":"studio","frequency":"107.6 MHz","name":"Radio Taranga","name:ne":"रेडियो तरङ्ग","phone":"061-527100,061-527101","studio":"radio","website":"www.radiotarang.com"},"relations":[],"meta":{"timestamp":"2017-12-01T07:51:52Z","version":4,"changeset":54227043,"user":"Ro Sun","uid":3112087}},"geometry":{"type":"Point","coordinates":[83.9774266,28.200905]}},{"type":"Feature","id":"node/3687087546","properties":{"type":"node","id":3687087546,"tags":{"amenity":"studio","contact:phone":"061462897","frequency":"90.6","name":"Radio Janani","name:ne":"रेडियो जननी","studio":"radio","website":"jananifm.com"},"relations":[],"meta":{"timestamp":"2017-12-01T06:54:51Z","version":6,"changeset":54225808,"user":"Ro Sun","uid":3112087}},"geometry":{"type":"Point","coordinates":[83.9814226,28.2121475]}},{"type":"Feature","id":"node/4175457542","properties":{"type":"node","id":4175457542,"tags":{"amenity":"studio","contact:phone":"061540024","frequency":"97.9","name":"Image FM","name:ne":"इमेज फ म्","opening_hours":"24/7","studio":"radio"},"relations":[],"meta":{"timestamp":"2017-12-01T06:54:51Z","version":5,"changeset":54225808,"user":"Ro Sun","uid":3112087}},"geometry":{"type":"Point","coordinates":[83.9760028,28.2153751]}},{"type":"Feature","id":"node/4297526829","properties":{"type":"node","id":4297526829,"tags":{"amenity":"studio","contact:phone":"061539251/533383","frequency":"92.2","name":"Himchuli FM","name:ne":"हिमचुली एफ एम्","studio":"radio"},"relations":[],"meta":{"timestamp":"2017-12-01T06:54:52Z","version":4,"changeset":54225808,"user":"Ro Sun","uid":3112087}},"geometry":{"type":"Point","coordinates":[83.9775127,28.2111233]}},{"type":"Feature","id":"node/4361366727","properties":{"type":"node","id":4361366727,"tags":{"amenity":"studio","frequency":"95.8","name":"Pokhara FM","name:ne":"पोखरा फम्म","phone":"061-532583","studio":"radio"},"relations":[],"meta":{"timestamp":"2017-12-05T03:49:23Z","version":4,"changeset":54352393,"user":"Sachham","uid":7152840}},"geometry":{"type":"Point","coordinates":[83.9885236,28.2240994]}},{"type":"Feature","id":"node/4641763900","properties":{"type":"node","id":4641763900,"tags":{"addr:city":"Pokhara","addr:country":"NP","alt_name":"3 Angle Radio Station","amenity":"studio","email":"info@3angelsradio.org.np","name":"3 Angels Community Radio","phone":"+977 61 431823","studio":"radio","website":"http://3angelsradio.org.np/about-3-angels-community-radio/"},"relations":[],"meta":{"timestamp":"2018-05-16T08:30:07Z","version":5,"changeset":59008950,"user":"srvbhattarai","uid":5084910}},"geometry":{"type":"Point","coordinates":[83.9926252,28.1897903]}},{"type":"Feature","id":"node/4641767801","properties":{"type":"node","id":4641767801,"tags":{"amenity":"studio","frequency":"102.2 MHz","name":"Sunaulo FM","phone":"061-532433; 061-532446","studio":"radio"},"relations":[],"meta":{"timestamp":"2018-06-21T07:23:33Z","version":4,"changeset":60033296,"user":"Gaurav Thapa","uid":4212590}},"geometry":{"type":"Point","coordinates":[83.9865353,28.2241763]}},{"type":"Feature","id":"node/4646583792","properties":{"type":"node","id":4646583792,"tags":{"amenity":"studio","contact:phone":"061535065","frequency":"102.2 MHz","name":"Big FM","studio":"radio"},"relations":[],"meta":{"timestamp":"2017-12-01T06:54:52Z","version":2,"changeset":54225808,"user":"Ro Sun","uid":3112087}},"geometry":{"type":"Point","coordinates":[83.9865511,28.222478]}},{"type":"Feature","id":"node/4646706704","properties":{"type":"node","id":4646706704,"tags":{"amenity":"studio","contact:phone":"061400488/400435","frequency":"88.5 MHz","name":"Radio Hemja","name:ne":"रेडियो हेम्जा","studio":"radio"},"relations":[],"meta":{"timestamp":"2018-04-05T10:14:42Z","version":4,"changeset":57829818,"user":"Manoj Thapa","uid":781054}},"geometry":{"type":"Point","coordinates":[83.9356817,28.278047]}},{"type":"Feature","id":"node/4650640609","properties":{"type":"node","id":4650640609,"tags":{"addr:city":"Pokhara Lekhnath Metropolitan City","addr:place":"Tal Chowk","addr:street":"Talchowk Begnas","amenity":"studio","contact:phone":"061-561358","frequency":"96.2","name":"Radio Lake City","opening_hours":"Su-Fr 05:00-23:00","operator":"Private","source":"2C Pokhara Field Data Collection","studio":"radio"},"relations":[],"meta":{"timestamp":"2017-08-11T10:19:40Z","version":4,"changeset":51028488,"user":"rmpaudel123","uid":6447862}},"geometry":{"type":"Point","coordinates":[84.0586394,28.1628134]}},{"type":"Feature","id":"node/4650648167","properties":{"type":"node","id":4650648167,"tags":{"addr:city":"Lekhnath","addr:street":"Tal Chowk","amenity":"studio","contact:phone":"061560512","frequency":"88.2 MHz","name":"National FM","source":"2C Pokhara Field Data Collection","studio":"radio"},"relations":[],"meta":{"timestamp":"2017-12-01T07:38:37Z","version":3,"changeset":54226770,"user":"Ro Sun","uid":3112087}},"geometry":{"type":"Point","coordinates":[84.0573959,28.1626916]}},{"type":"Feature","id":"node/4650794600","properties":{"type":"node","id":4650794600,"tags":{"amenity":"studio","contact:phone":"061-411612","frequency":"106.6","name":"Radio Lekhnath","source":"2C Pokhara Field Data Collection","studio":"radio"},"relations":[],"meta":{"timestamp":"2017-04-16T04:00:10Z","version":2,"changeset":47829226,"user":"Parassrest","uid":3569249}},"geometry":{"type":"Point","coordinates":[84.0432425,28.1792884]}},{"type":"Feature","id":"node/4650852757","properties":{"type":"node","id":4650852757,"tags":{"addr:street":"Naya Bazar","amenity":"studio","contact:email":"gtvpokhara@gmail.com","contact:phone":"061-527103, 527104, 527105, 527106, 551947","frequency":"90.2","name":"Radio Gandaki","source":"2C Pokhara Field Data Collection","studio":"radio"},"relations":[],"meta":{"timestamp":"2017-02-01T06:47:11Z","version":1,"changeset":45707924,"user":"Alisha12","uid":4204463}},"geometry":{"type":"Point","coordinates":[83.9896307,28.216602]}},{"type":"Feature","id":"node/4650852758","properties":{"type":"node","id":4650852758,"tags":{"amenity":"studio","name":"Radio Sarankot","source":"2C Pokhara Field Data Collection","studio":"radio"},"relations":[],"meta":{"timestamp":"2017-02-01T06:47:11Z","version":1,"changeset":45707924,"user":"Alisha12","uid":4204463}},"geometry":{"type":"Point","coordinates":[83.9864734,28.2241943]}},{"type":"Feature","id":"node/4650852759","properties":{"type":"node","id":4650852759,"tags":{"amenity":"studio","contact:phone":"061541882/541883","frequency":"93.8 MHz","name":"Radio Sarangi","source":"2C Pokhara Field Data Collection","studio":"radio"},"relations":[],"meta":{"timestamp":"2017-12-01T07:46:26Z","version":2,"changeset":54226939,"user":"Ro Sun","uid":3112087}},"geometry":{"type":"Point","coordinates":[83.9913622,28.2252751]}},{"type":"Feature","id":"node/4650879649","properties":{"type":"node","id":4650879649,"tags":{"amenity":"studio","contact:email":"radioapostle@gmail.com","contact:phone":"061-521978,061-550506","frequency":"102.6","name":"Radio Apostle Recording Studio","name:ne":"एपोसटल म्युजिक रेकडिङ स्टुडियो एन्ड एफ एम स्टुडियो","opening_hours":"05 AM-11 PM","operator":"private","owner":"Anil shahi","source":"2cpokhara","studio":"radio","website":"www.radioapostle.com.np"},"relations":[],"meta":{"timestamp":"2018-03-02T15:23:57Z","version":4,"changeset":56823290,"user":"Rabin Ojha","uid":6075053}},"geometry":{"type":"Point","coordinates":[83.9862646,28.2402849]}},{"type":"Feature","id":"node/4650879651","properties":{"type":"node","id":4650879651,"tags":{"amenity":"studio","contact:phone":"051-533636","frequency":"105.6","name":"Radio City Pokhara","source":"2C Pokhara Field Data Collection","studio":"radio"},"relations":[],"meta":{"timestamp":"2017-08-11T07:04:03Z","version":3,"changeset":51022756,"user":"Sailesh Prj","uid":6443256}},"geometry":{"type":"Point","coordinates":[83.9884512,28.2334571]}},{"type":"Feature","id":"node/4700644941","properties":{"type":"node","id":4700644941,"tags":{"amenity":"studio","contact:email":"editor@chhunumunu.com","contact:phone":"061-524811","frequency":"87.9","name":"Chhunumunu FM","studio":"radio"},"relations":[],"meta":{"timestamp":"2017-02-23T07:05:54Z","version":2,"changeset":46328250,"user":"Alisha12","uid":4204463}},"geometry":{"type":"Point","coordinates":[83.9874101,28.2178192]}},{"type":"Feature","id":"node/4707738527","properties":{"type":"node","id":4707738527,"tags":{"amenity":"studio","frequency":"92.3","name":"Mega FM","studio":"radio"},"relations":[],"meta":{"timestamp":"2017-02-27T06:21:43Z","version":1,"changeset":46433330,"user":"Alisha12","uid":4204463}},"geometry":{"type":"Point","coordinates":[83.9882957,28.2220923]}},{"type":"Feature","id":"node/4969672056","properties":{"type":"node","id":4969672056,"tags":{"amenity":"studio","name":"News FM","name:ne":"न्यूस एफ एम","studio":"radio"},"relations":[],"meta":{"timestamp":"2018-06-05T06:19:32Z","version":3,"changeset":59557393,"user":"Gaurav Thapa","uid":4212590}},"geometry":{"type":"Point","coordinates":[83.9836841,28.2397188]}},{"type":"Feature","id":"node/4969672057","properties":{"type":"node","id":4969672057,"tags":{"amenity":"studio","name":"Entertainment FM","studio":"radio"},"relations":[],"meta":{"timestamp":"2018-06-21T03:57:18Z","version":3,"changeset":60028615,"user":"Gaurav Thapa","uid":4212590}},"geometry":{"type":"Point","coordinates":[83.9836684,28.2397038]}},{"type":"Feature","id":"node/4969672058","properties":{"type":"node","id":4969672058,"tags":{"amenity":"studio","frequency":"105","name":"Live FM","studio":"radio"},"relations":[],"meta":{"timestamp":"2018-03-27T09:41:51Z","version":2,"changeset":57561172,"user":"Ro Sun","uid":3112087}},"geometry":{"type":"Point","coordinates":[83.9836865,28.2396808]}},{"type":"Feature","id":"node/4978710392","properties":{"type":"node","id":4978710392,"tags":{"addr:city":"pokhara","addr:place":"Masbar Pokharipatan","addr:street":"Kolbari Marga","alt_name":"Safalta Media Pvt. Ltd (Radio Safalta) Masbar","amenity":"studio","contact:phone":"061-465966","frequency":"103.4 MHz","name":"Radio Safalta","studio":"radio","website":"www.radiosafalta.com"},"relations":[],"meta":{"timestamp":"2017-12-01T07:49:11Z","version":3,"changeset":54226993,"user":"Ro Sun","uid":3112087}},"geometry":{"type":"Point","coordinates":[83.9722097,28.208811]}},{"type":"Feature","id":"node/5237487260","properties":{"type":"node","id":5237487260,"tags":{"amenity":"studio","building:levels":"4","contact:email":"radiorightsnepal@gmail.com","contact:phone":"061442325, 061442326","frequency":"105.3 MHz","name":"Radio Right's Nepal","opening_hours":"5 AM- 6 PM","operator":"private","source":"2cpokhara","studio":"radio","website":"rrn.com.np"},"relations":[],"meta":{"timestamp":"2018-02-24T10:30:52Z","version":2,"changeset":56632750,"user":"Rabin Ojha","uid":6075053}},"geometry":{"type":"Point","coordinates":[83.9748318,28.2599977]}},{"type":"Feature","id":"node/5257160230","properties":{"type":"node","id":5257160230,"tags":{"amenity":"studio","contact:phone":"061533177,061532877","name":"Annapurna Music FM","name:ne":"अन्नपूर्णमा म्युजिक ए.फ.म्","studio":"radio"},"relations":[],"meta":{"timestamp":"2018-03-28T04:11:53Z","version":2,"changeset":57586527,"user":"Ro Sun","uid":3112087}},"geometry":{"type":"Point","coordinates":[83.9897818,28.2260526]}},{"type":"Feature","id":"node/5257160231","properties":{"type":"node","id":5257160231,"tags":{"amenity":"studio","contact:phone":"061533177,061532877","name":"Annapurna FM","name:ne":"अन्नपूर्णमा ए.फ.म्","studio":"radio"},"relations":[],"meta":{"timestamp":"2018-03-28T04:11:54Z","version":2,"changeset":57586527,"user":"Ro Sun","uid":3112087}},"geometry":{"type":"Point","coordinates":[83.9897094,28.2260587]}},{"type":"Feature","id":"node/5434552639","properties":{"type":"node","id":5434552639,"tags":{"amenity":"studio","email":"Paschimpkr@gmail.com","frequency":"107.9 Mhz","name":"Radio Paschim Pokhara ","operator":"private","phone":"061-401465","studio":"radio","wheelchair":"yes"},"relations":[],"meta":{"timestamp":"2018-06-21T03:59:05Z","version":3,"changeset":60028632,"user":"Gaurav Thapa","uid":4212590}},"geometry":{"type":"Point","coordinates":[83.9478917,28.2726028]}},{"type":"Feature","id":"node/5470524933","properties":{"type":"node","id":5470524933,"tags":{"amenity":"studio","email":"sambridhamediahouse@gmail.com","frequency":"92.6MHz","name":"Sambridha Media House","phone":"061-460060; 061-463130","source":"2cpokhara","studio":"radio"},"relations":[],"meta":{"timestamp":"2018-06-21T03:52:45Z","version":3,"changeset":60028558,"user":"Gaurav Thapa","uid":4212590}},"geometry":{"type":"Point","coordinates":[83.9712618,28.1932708]}}],"createdOn":1531124488563}