{"type":"FeatureCollection","features":[{"type":"Feature","id":"way/364490403","properties":{"type":"way","id":364490403,"tags":{"amenity":"drinking_water","building":"yes","man_made":"storage_tank","name":"Nareshwor Public Tap"},"relations":[],"meta":{"timestamp":"2017-08-10T07:55:40Z","version":2,"changeset":50992734,"user":"gyanendra nepali","uid":6447854}},"geometry":{"type":"Point","coordinates":[83.9637427,28.211853675]}},{"type":"Feature","id":"way/399380520","properties":{"type":"way","id":399380520,"tags":{"addr:city":"pokhara lekhnath metropolitan city","addr:housenumber":"91","addr:place":"Thulimajuwa","amenity":"drinking_water","building":"yes","building:levels":"1","drinking_water":"yes","estd:":"2070 BS","man_made":"storage_tank","name":"Thulimajuwa Khani Pani Upovokta Samati","opening_hours":"07:00-10:00 16:00-18:00","operator":"community"},"relations":[],"meta":{"timestamp":"2017-08-11T11:17:42Z","version":3,"changeset":51030168,"user":"rojipokhara","uid":6447872}},"geometry":{"type":"Point","coordinates":[83.99775285,28.181649]}},{"type":"Feature","id":"way/422333253","properties":{"type":"way","id":422333253,"tags":{"addr:city":"municipality","addr:place":"Lakuri Danda","amenity":"drinking_water","drinking_water":"yes","man_made":"storage_tank","name":"Lekhnath Sanosahar Khanipani ","source":"2cpokhara"},"relations":[],"meta":{"timestamp":"2018-05-25T11:32:37Z","version":5,"changeset":59268452,"user":"Gaurav Thapa","uid":4212590}},"geometry":{"type":"Point","coordinates":[84.02972112,28.204278770000002]}},{"type":"Feature","id":"way/437425765","properties":{"type":"way","id":437425765,"tags":{"building":"yes","content":"water","man_made":"storage_tank"},"relations":[],"meta":{"timestamp":"2017-08-31T04:58:27Z","version":2,"changeset":51600104,"user":"Ashish Thapa","uid":4039113}},"geometry":{"type":"Point","coordinates":[83.99011125,28.2017068]}},{"type":"Feature","id":"way/485804811","properties":{"type":"way","id":485804811,"tags":{"amenity":"drinking_water","building":"yes","drinking_water":"yes","man_made":"storage_tank","source":"2cpokhara"},"relations":[],"meta":{"timestamp":"2018-04-05T16:09:10Z","version":2,"changeset":57840402,"user":"Sagarsubedi205","uid":7632456}},"geometry":{"type":"Point","coordinates":[84.111116825,28.205104999999996]}},{"type":"Feature","id":"way/514272717","properties":{"type":"way","id":514272717,"tags":{"amenity":"drinking_water","man_made":"storage_tank","name":"Amalabisaune Panitanki","operator":"Government"},"relations":[],"meta":{"timestamp":"2018-04-12T04:22:10Z","version":4,"changeset":58023354,"user":"Manoj Thapa","uid":781054}},"geometry":{"type":"Point","coordinates":[83.973772775,28.264539550000002]}},{"type":"Feature","id":"way/514382334","properties":{"type":"way","id":514382334,"tags":{"add:city":"Pokhara Lekhanath Municipality","addr:place":"Radha Krishna Tole-14","amenity":"drinking_water","drinking_water":"yes","man_made":"storage_tank"},"relations":[],"meta":{"timestamp":"2017-08-10T05:11:29Z","version":1,"changeset":50988984,"user":"Niru Pradhan","uid":1235208}},"geometry":{"type":"Point","coordinates":[84.015105225,28.177284874999998]}},{"type":"Feature","id":"way/514388770","properties":{"type":"way","id":514388770,"tags":{"addr:place":"Pargati Nagar Gharipatan","addr:street":"Pargati Marga","amenity":"drinking_water","drinking_water":"yes","man_made":"storage_tank"},"relations":[],"meta":{"timestamp":"2017-08-10T05:54:11Z","version":1,"changeset":50989615,"user":"Ankit Keshav Baral","uid":6447999}},"geometry":{"type":"Point","coordinates":[83.98619335000001,28.203353300000003]}},{"type":"Feature","id":"way/514388772","properties":{"type":"way","id":514388772,"tags":{"addr:city":"Pokhara Lekhanath Metropolitan City","addr:place":"Pargati Tole Gharipatan","addr:street":"Pargati Marga","amenity":"Drinking Water","man_made":"storage_tank","name":"Pargati Tole Pani Tank","opening_hours":"00:00-24:00","operator":"public"},"relations":[],"meta":{"timestamp":"2017-08-10T05:54:11Z","version":1,"changeset":50989615,"user":"Ankit Keshav Baral","uid":6447999}},"geometry":{"type":"Point","coordinates":[83.9852579,28.201047449999997]}},{"type":"Feature","id":"way/514432804","properties":{"type":"way","id":514432804,"tags":{"addr:city":"Pokhara Lekhnath Metropolitian City","addr:country":"NP","addr:place":"Sitaladevi Tole","amenity":"drinking_water","man_made":"storage_tank","name":"Hitiko Dhara"},"relations":[],"meta":{"timestamp":"2018-05-27T05:48:27Z","version":3,"changeset":59306511,"user":"Ro Sun","uid":3112087}},"geometry":{"type":"Point","coordinates":[84.002143375,28.2171512]}},{"type":"Feature","id":"way/514663209","properties":{"type":"way","id":514663209,"tags":{"addr:city":"Pokhara Lektnath Municipality","addr:place":"Gairi Gaun","addr:street":"Khalte","amenity":"drinking_water","drinking_water":"yes","man_made":"storage_tank"},"relations":[],"meta":{"timestamp":"2017-09-07T07:36:45Z","version":2,"changeset":51801380,"user":"GerdP","uid":533465}},"geometry":{"type":"Point","coordinates":[84.0171732,28.170729825]}},{"type":"Feature","id":"way/514665207","properties":{"type":"way","id":514665207,"tags":{"addr:city":"Pokhara Lektnath Municipality","addr:place":"Gairi Gaun","addr:street":"Khalte -14","amenity":"drinking_water","drinking_water":"yes","man_made":"storage_tank"},"relations":[],"meta":{"timestamp":"2017-09-07T07:36:45Z","version":2,"changeset":51801380,"user":"GerdP","uid":533465}},"geometry":{"type":"Point","coordinates":[84.01746754999999,28.168192400000002]}},{"type":"Feature","id":"way/514671483","properties":{"type":"way","id":514671483,"tags":{"addr:city":"Pokhara Lekhnath Metropolitan City","addr:place":"Buddha Tole","addr:street":"lekhnath Reathepani","amenity":"drinking_water","drinking_water":"yes","man_made":"storage_tank","name":"Nepal Redcross Society Water Tank"},"relations":[],"meta":{"timestamp":"2017-08-11T06:10:11Z","version":1,"changeset":51021538,"user":"rmpaudel123","uid":6447862}},"geometry":{"type":"Point","coordinates":[84.04552684999999,28.172185775]}},{"type":"Feature","id":"way/514674558","properties":{"type":"way","id":514674558,"tags":{"addr:place":"Silinge","amenity":"drinking_water","drinking_water":"yes","man_made":"storage_tank"},"relations":[],"meta":{"timestamp":"2017-08-11T06:24:49Z","version":1,"changeset":51021902,"user":"sanzay123","uid":6447979}},"geometry":{"type":"Point","coordinates":[84.032249025,28.206745125]}},{"type":"Feature","id":"way/514719650","properties":{"type":"way","id":514719650,"tags":{"addr:city":"Pokhara Lekhnath Metropolitan City","addr:place":"Shanti Tole","addr:street":"Parmartha Nagar To Laxmi Adarsha School Marg","amenity":"drinking_water","drinking_water":"yes","man_made":"storage_tank","name":"Shisuwa Khudi Khanepani Tank"},"relations":[],"meta":{"timestamp":"2017-08-11T09:07:55Z","version":1,"changeset":51026305,"user":"rmpaudel123","uid":6447862}},"geometry":{"type":"Point","coordinates":[84.05551748571428,28.171701228571433]}},{"type":"Feature","id":"way/514722685","properties":{"type":"way","id":514722685,"tags":{"addr:city":"Pokhara Lekhnath Metropolitan City","addr:place":"Sainik Basti Group No.2","amenity":"drinking_water","drinking_water":"yes","man_made":"storage_tank","name":"Bhupu Sainik Khaney Pani Sainik Group 2","operator":"Community Based"},"relations":[],"meta":{"timestamp":"2017-08-11T09:18:37Z","version":1,"changeset":51026617,"user":"Beepson","uid":6448115}},"geometry":{"type":"Point","coordinates":[84.069259675,28.145754675000003]}},{"type":"Feature","id":"way/514722688","properties":{"type":"way","id":514722688,"tags":{"addr:city":"Pokhara Lekhnath Municipality","addr:place":"Sainik Basti Group No. 3","amenity":"drinking_water","drinking_water":"yes","man_made":"storage_tank","name":"Bhupu Sainik Khaney Pani Sainik Group 3","operator":"Community"},"relations":[],"meta":{"timestamp":"2017-08-11T09:18:37Z","version":1,"changeset":51026617,"user":"Beepson","uid":6448115}},"geometry":{"type":"Point","coordinates":[84.07269895,28.14279925]}},{"type":"Feature","id":"way/520184507","properties":{"type":"way","id":520184507,"tags":{"building":"yes","content":"water","man_made":"storage_tank"},"relations":[],"meta":{"timestamp":"2017-08-31T04:56:10Z","version":1,"changeset":51600077,"user":"Ashish Thapa","uid":4039113}},"geometry":{"type":"Point","coordinates":[83.98803485,28.20775785]}},{"type":"Feature","id":"way/520185057","properties":{"type":"way","id":520185057,"tags":{"content":"water","man_made":"storage_tank"},"relations":[],"meta":{"timestamp":"2017-08-31T04:57:24Z","version":1,"changeset":51600090,"user":"Ashish Thapa","uid":4039113}},"geometry":{"type":"Point","coordinates":[83.98699582500001,28.205389675]}},{"type":"Feature","id":"way/561175158","properties":{"type":"way","id":561175158,"tags":{"addr:city":"Pokhara Lekhnath Municipality","addr:place":"Sainik Basti Group No. 3","amenity":"drinking_water","drinking_water":"yes","man_made":"storage_tank","name":"Bhupu Sainik Khaney Pani Sainik Group 3","operator":"Community"},"relations":[],"meta":{"timestamp":"2018-02-14T07:16:54Z","version":1,"changeset":56344569,"user":"Ro Sun","uid":3112087}},"geometry":{"type":"Point","coordinates":[84.0734567,28.142142025]}},{"type":"Feature","id":"way/574918945","properties":{"type":"way","id":574918945,"tags":{"man_made":"storage_tank","name":"Nepal Oil Nigam Limited","office":"government","source":"2C Pokhara Field Data Collection 2018"},"relations":[],"meta":{"timestamp":"2018-06-05T05:37:34Z","version":2,"changeset":59556461,"user":"Ro Sun","uid":3112087}},"geometry":{"type":"Point","coordinates":[84.0809201,28.131751125]}},{"type":"Feature","id":"way/591956965","properties":{"type":"way","id":591956965,"tags":{"amenity":"drinking_water","man_made":"storage_tank"},"relations":[],"meta":{"timestamp":"2018-05-30T04:52:47Z","version":1,"changeset":59385482,"user":"Ro Sun","uid":3112087}},"geometry":{"type":"Point","coordinates":[84.0051978,28.201679125]}},{"type":"Feature","id":"node/4175481728","properties":{"type":"node","id":4175481728,"tags":{"addr:city":"Pokhara Lekhanath Metropolitan City","addr:place":"Masbar Pokharipatan","addr:street":"Sugam Marga","amenity":"drinking_water","drinking_water":"yes","man_made":"storage_tank"},"relations":[],"meta":{"timestamp":"2017-08-10T10:48:16Z","version":3,"changeset":50997596,"user":"Ankit Keshav Baral","uid":6447999}},"geometry":{"type":"Point","coordinates":[83.973084,28.2102243]}},{"type":"Feature","id":"node/5021937089","properties":{"type":"node","id":5021937089,"tags":{"addr:place":"Gude tal","amenity":"drinking_water","drinking_water":"yes","man_made":"storage_tank"},"relations":[],"meta":{"timestamp":"2017-08-08T09:47:45Z","version":1,"changeset":50939089,"user":"Sanjeev brl","uid":6447910}},"geometry":{"type":"Point","coordinates":[84.0437418,28.1895061]}},{"type":"Feature","id":"node/5027817546","properties":{"type":"node","id":5027817546,"tags":{"addr:city":"Pokhara Lekhnath Metropolitan City","addr:place":"Deurali","addr:street":"Begnastal Taalbesi","amenity":"drinking_water","man_made":"storage_tank","name":"Kurlung Khola Khane Pani Yojana "},"relations":[],"meta":{"timestamp":"2018-06-08T05:50:42Z","version":10,"changeset":59655953,"user":"srvbhattarai","uid":5084910}},"geometry":{"type":"Point","coordinates":[84.105505,28.1600244]}},{"type":"Feature","id":"node/5031860194","properties":{"type":"node","id":5031860194,"tags":{"amenity":"drinking_water","drinking_water":"yes","man_made":"storage_tank","name":"Khume Water Tank","source":"2cpokhara"},"relations":[],"meta":{"timestamp":"2018-03-11T06:38:22Z","version":2,"changeset":57073967,"user":"Madan Acharya","uid":7707025}},"geometry":{"type":"Point","coordinates":[84.0344104,28.2651355]}},{"type":"Feature","id":"node/5031860201","properties":{"type":"node","id":5031860201,"tags":{"access":"public","drinking_water":"yes","emergency":"water_tank","man_made":"storage_tank","name":"Bijaypur Water Tank","source":"2cpokhara"},"relations":[],"meta":{"timestamp":"2018-04-11T07:09:41Z","version":3,"changeset":57993894,"user":"Manoj Thapa","uid":781054}},"geometry":{"type":"Point","coordinates":[84.0327448,28.258888]}},{"type":"Feature","id":"node/5455943587","properties":{"type":"node","id":5455943587,"tags":{"access":"public","amenity":"drinking_water","drinking_water":"yes","man_made":"storage_tank","source":"2cpokhara"},"relations":[],"meta":{"timestamp":"2018-04-11T07:15:45Z","version":2,"changeset":57994036,"user":"Manoj Thapa","uid":781054}},"geometry":{"type":"Point","coordinates":[84.0142,28.2490452]}},{"type":"Feature","id":"node/5458651099","properties":{"type":"node","id":5458651099,"tags":{"access":"public","amenity":"drinking_water","drinking_water":"yes","man_made":"storage_tank","name":"Nuwarthok Pani Tanki","opening_hours":"sunrise-sunset"},"relations":[],"meta":{"timestamp":"2018-03-06T08:56:47Z","version":1,"changeset":56927830,"user":"LonelyNarayan","uid":7644124}},"geometry":{"type":"Point","coordinates":[83.9697627,28.2128305]}},{"type":"Feature","id":"node/5464417737","properties":{"type":"node","id":5464417737,"tags":{"access":"public","amenity":"drinking_water","drinking_water":"yes","man_made":"storage_tank","name":"Siva Tole Pani Tank","opening_hours":"7:00-17:00"},"relations":[],"meta":{"timestamp":"2018-03-08T12:02:33Z","version":1,"changeset":56997079,"user":"LonelyNarayan","uid":7644124}},"geometry":{"type":"Point","coordinates":[83.988033,28.2077575]}},{"type":"Feature","id":"node/5472132065","properties":{"type":"node","id":5472132065,"tags":{"amenity":"drinking_water","man_made":"storage_tank","name":"Srijana Bikas Kendra- Srijana Khanepani Pariyojana","source":"2cpokhara"},"relations":[],"meta":{"timestamp":"2018-03-12T05:41:49Z","version":1,"changeset":57099709,"user":"Sagarsubedi205","uid":7632456}},"geometry":{"type":"Point","coordinates":[83.9871472,28.1797633]}},{"type":"Feature","id":"node/5531322426","properties":{"type":"node","id":5531322426,"tags":{"amenity":"drinking_water","drinking_water":"no","man_made":"storage_tank","source":"2cpokhara"},"relations":[],"meta":{"timestamp":"2018-04-05T16:22:24Z","version":1,"changeset":57840743,"user":"Sagarsubedi205","uid":7632456}},"geometry":{"type":"Point","coordinates":[84.1063788,28.2103924]}},{"type":"Feature","id":"node/5544450002","properties":{"type":"node","id":5544450002,"tags":{"access":"public","amenity":"drinking_water","drinking_water":"yes","man_made":"storage_tank","source":"2cpokhara"},"relations":[],"meta":{"timestamp":"2018-04-11T07:15:45Z","version":1,"changeset":57994036,"user":"Manoj Thapa","uid":781054}},"geometry":{"type":"Point","coordinates":[83.9957092,28.2523536]}},{"type":"Feature","id":"node/5577800074","properties":{"type":"node","id":5577800074,"tags":{"man_made":"storage_tank","name":"Lekthanath Sahari Khanepani"},"relations":[],"meta":{"timestamp":"2018-04-25T06:35:16Z","version":1,"changeset":58397811,"user":"sandip parajuli","uid":7668145}},"geometry":{"type":"Point","coordinates":[84.0465206,28.2084572]}},{"type":"Feature","id":"node/5588186896","properties":{"type":"node","id":5588186896,"tags":{"access":"public","amenity":"drinking_water","man_made":"storage_tank","source":"2c Preset"},"relations":[],"meta":{"timestamp":"2018-04-30T11:14:27Z","version":1,"changeset":58551599,"user":"Kshitizraj Sharma","uid":7004124}},"geometry":{"type":"Point","coordinates":[83.9216852,28.2000859]}},{"type":"Feature","id":"node/5588186908","properties":{"type":"node","id":5588186908,"tags":{"access":"public","amenity":"drinking_water","man_made":"storage_tank","source":"2c Preset"},"relations":[],"meta":{"timestamp":"2018-04-30T11:14:28Z","version":1,"changeset":58551599,"user":"Kshitizraj Sharma","uid":7004124}},"geometry":{"type":"Point","coordinates":[83.9237807,28.2017436]}},{"type":"Feature","id":"node/5588187632","properties":{"type":"node","id":5588187632,"tags":{"access":"public","amenity":"drinking_water","man_made":"storage_tank","source":"2c Preset"},"relations":[],"meta":{"timestamp":"2018-04-30T11:14:31Z","version":1,"changeset":58551599,"user":"Kshitizraj Sharma","uid":7004124}},"geometry":{"type":"Point","coordinates":[83.906919,28.2123979]}},{"type":"Feature","id":"node/5588187706","properties":{"type":"node","id":5588187706,"tags":{"access":"public","amenity":"drinking_water","man_made":"storage_tank","source":"2c Preset"},"relations":[],"meta":{"timestamp":"2018-04-30T11:14:32Z","version":1,"changeset":58551599,"user":"Kshitizraj Sharma","uid":7004124}},"geometry":{"type":"Point","coordinates":[83.8785184,28.2113301]}}],"createdOn":1529471936560}