{"type":"FeatureCollection","features":[{"type":"Feature","id":"way/342344892","properties":{"type":"way","id":342344892,"tags":{"amenity":"veterinary","building":"yes","name":"Krishi Tatha Pashu Sewa Kendra, Lekhnath","office":"government","opening_hours":"Mo-Fr 10:00-16:00"},"relations":[],"meta":{"timestamp":"2018-05-27T10:54:33Z","version":5,"changeset":59310990,"user":"Ro Sun","uid":3112087}},"geometry":{"type":"Point","coordinates":[84.081333,28.148223450000003]}},{"type":"Feature","id":"way/407061389","properties":{"type":"way","id":407061389,"tags":{"amenity":"veterinary","building":"yes","email":"wrdls@dls.gov.np","fax":"061–525863","name":"Regional Veterinary Laboratary","name:ne":"क्षेत्रिय पशु रोग अन्वेषण प्रयोगशाला","phone":"061-520419"},"relations":[],"meta":{"timestamp":"2016-06-14T07:55:50Z","version":3,"changeset":40011600,"user":"Ashish Thapa","uid":4039113}},"geometry":{"type":"Point","coordinates":[84.000317375,28.211866575000002]}},{"type":"Feature","id":"way/410975392","properties":{"type":"way","id":410975392,"tags":{"amenity":"veterinary","building":"yes","name":"Kaphle Veterinary","name:ne":"काफ्ले भेटनेरी"},"relations":[],"meta":{"timestamp":"2016-08-10T08:19:38Z","version":3,"changeset":41362074,"user":"Ro Sun","uid":3112087}},"geometry":{"type":"Point","coordinates":[83.99982490000001,28.2115706]}},{"type":"Feature","id":"way/542883647","properties":{"type":"way","id":542883647,"tags":{"amenity":"veterinary","building":"yes","contact:phone":"9856031043","name":"B & B Vet and Poultry Suppliers"},"relations":[],"meta":{"timestamp":"2018-03-05T16:43:48Z","version":2,"changeset":56908802,"user":"Amrit Devkota","uid":6497064}},"geometry":{"type":"Point","coordinates":[84.07009676666667,28.16282341666667]}},{"type":"Feature","id":"node/3043193226","properties":{"type":"node","id":3043193226,"tags":{"amenity":"veterinary","name":"Himalayan Animal Rescue Trust (HART)","name:ne":"हिमालयन पशु उद्धार ट्रस्ट(हर्ट)"},"relations":[],"meta":{"timestamp":"2016-10-06T10:02:13Z","version":3,"changeset":42679692,"user":"Bishal9841","uid":3573216}},"geometry":{"type":"Point","coordinates":[83.9622361,28.2080649]}},{"type":"Feature","id":"node/3068284285","properties":{"type":"node","id":3068284285,"tags":{"addr:city":"Pokhara","addr:street":"Hospital Marg","amenity":"veterinary","name":"Himalayan Animal Rescue Trust (HART)","name:ne":"हिमालयन अनिमाल रेसकिउ ट्रस्ट {हर्ट }","phone":"+977 061 462 808","website":"http://www.hartnepal.org"},"relations":[],"meta":{"timestamp":"2016-09-13T08:41:15Z","version":3,"changeset":42119390,"user":"Bishal9841","uid":3573216}},"geometry":{"type":"Point","coordinates":[84.0017951,28.2133097]}},{"type":"Feature","id":"node/4160825716","properties":{"type":"node","id":4160825716,"tags":{"amenity":"veterinary","name":"Bhandari Veterinary","name:ne":"भन्डारी भेट्नरी"},"relations":[],"meta":{"timestamp":"2018-06-18T04:36:33Z","version":4,"changeset":59928705,"user":"Gaurav Thapa","uid":4212590}},"geometry":{"type":"Point","coordinates":[83.9888762,28.2414178]}},{"type":"Feature","id":"node/4172951091","properties":{"type":"node","id":4172951091,"tags":{"amenity":"veterinary","name":"Pashupati Veterinary","name:ne":"पशुपति भेट्नरी"},"relations":[],"meta":{"timestamp":"2018-06-18T04:35:33Z","version":3,"changeset":59928695,"user":"Gaurav Thapa","uid":4212590}},"geometry":{"type":"Point","coordinates":[83.9825979,28.2111185]}},{"type":"Feature","id":"node/4176500654","properties":{"type":"node","id":4176500654,"tags":{"amenity":"veterinary","name":"BG Veterinary","name:ne":"बि जि भेट्नरी"},"relations":[],"meta":{"timestamp":"2017-06-13T07:24:45Z","version":3,"changeset":49490579,"user":"Ro Sun","uid":3112087}},"geometry":{"type":"Point","coordinates":[83.9833765,28.2107884]}},{"type":"Feature","id":"node/4225192797","properties":{"type":"node","id":4225192797,"tags":{"amenity":"veterinary","name":"Sunrise Veterinary Center","name:ne":"सनराइज पशु सेवा केन्द्र","opening_hours":"sunrise-sunset","phone":"061 523513"},"relations":[],"meta":{"timestamp":"2018-05-30T05:13:44Z","version":4,"changeset":59385721,"user":"Ro Sun","uid":3112087}},"geometry":{"type":"Point","coordinates":[83.9988004,28.2056854]}},{"type":"Feature","id":"node/4225215859","properties":{"type":"node","id":4225215859,"tags":{"amenity":"veterinary","name":"Bibhid Veterinary Store","name:ne":"भिभिड भेट्नरी स्टोर"},"relations":[],"meta":{"timestamp":"2016-10-06T06:53:31Z","version":3,"changeset":42675806,"user":"Parassrest","uid":3569249}},"geometry":{"type":"Point","coordinates":[83.9953313,28.2038018]}},{"type":"Feature","id":"node/4511531291","properties":{"type":"node","id":4511531291,"tags":{"amenity":"veterinary"},"relations":[],"meta":{"timestamp":"2016-11-20T05:43:07Z","version":1,"changeset":43815048,"user":"gaurab basnet","uid":3120057}},"geometry":{"type":"Point","coordinates":[83.9802174,28.2714567]}},{"type":"Feature","id":"node/4511531292","properties":{"type":"node","id":4511531292,"tags":{"amenity":"veterinary","name":"Brothers Veterinary"},"relations":[],"meta":{"timestamp":"2017-06-29T08:43:04Z","version":2,"changeset":49911597,"user":"Ro Sun","uid":3112087}},"geometry":{"type":"Point","coordinates":[83.9807005,28.2247775]}},{"type":"Feature","id":"node/4571467986","properties":{"type":"node","id":4571467986,"tags":{"amenity":"veterinary","contact:phone":"061-539029, 9846029182, 9846061281","name":"Pun Veterinary Centre"},"relations":[],"meta":{"timestamp":"2016-12-25T11:19:59Z","version":1,"changeset":44659669,"user":"Alisha12","uid":4204463}},"geometry":{"type":"Point","coordinates":[83.9949144,28.2047776]}},{"type":"Feature","id":"node/4716567896","properties":{"type":"node","id":4716567896,"tags":{"amenity":"veterinary","name":"Machapurchey Veterinary"},"relations":[],"meta":{"timestamp":"2018-04-05T10:41:53Z","version":3,"changeset":57830536,"user":"Manoj Thapa","uid":781054}},"geometry":{"type":"Point","coordinates":[83.9717501,28.2612958]}},{"type":"Feature","id":"node/4759005339","properties":{"type":"node","id":4759005339,"tags":{"amenity":"veterinary","name":"Bahari Vet Farma","name:ne":"बाहारी भेट फार्मा"},"relations":[],"meta":{"timestamp":"2018-06-18T04:12:52Z","version":2,"changeset":59928365,"user":"Gaurav Thapa","uid":4212590}},"geometry":{"type":"Point","coordinates":[83.9761699,28.2147016]}},{"type":"Feature","id":"node/4766870928","properties":{"type":"node","id":4766870928,"tags":{"amenity":"veterinary","name":"Rara Veterinary Concern","name:ne":"रारा भेटेरिनरी कन्सर्न","opening_hours":"Sunrise-Sunset","phone":"061-541169"},"relations":[],"meta":{"timestamp":"2018-05-27T07:17:05Z","version":2,"changeset":59307588,"user":"Ro Sun","uid":3112087}},"geometry":{"type":"Point","coordinates":[84.0004585,28.2129357]}},{"type":"Feature","id":"node/4766870929","properties":{"type":"node","id":4766870929,"tags":{"amenity":"veterinary","name":"Gautam Veterinary Suppliers","opening_hours":"Sunrise-Sunset"},"relations":[],"meta":{"timestamp":"2018-05-27T07:17:05Z","version":2,"changeset":59307588,"user":"Ro Sun","uid":3112087}},"geometry":{"type":"Point","coordinates":[84.0005461,28.2129684]}},{"type":"Feature","id":"node/4805349937","properties":{"type":"node","id":4805349937,"tags":{"amenity":"veterinary","name":"Dipshikha Veterinary Centre"},"relations":[],"meta":{"timestamp":"2018-06-18T04:29:03Z","version":2,"changeset":59928588,"user":"Gaurav Thapa","uid":4212590}},"geometry":{"type":"Point","coordinates":[83.9692957,28.1917231]}},{"type":"Feature","id":"node/5096897284","properties":{"type":"node","id":5096897284,"tags":{"amenity":"veterinary","contact:phone":"9846041167","name":"Pokhrel Veterinary","opening_hours":"7:00-19:00","source":"2cpokhara"},"relations":[],"meta":{"timestamp":"2018-06-18T04:30:22Z","version":3,"changeset":59928612,"user":"Gaurav Thapa","uid":4212590}},"geometry":{"type":"Point","coordinates":[83.9966335,28.193269]}},{"type":"Feature","id":"node/5100059577","properties":{"type":"node","id":5100059577,"tags":{"amenity":"veterinary","name":"Sapkota Veterinary"},"relations":[],"meta":{"timestamp":"2018-06-18T04:27:53Z","version":2,"changeset":59928568,"user":"Gaurav Thapa","uid":4212590}},"geometry":{"type":"Point","coordinates":[84.049931,28.1751032]}},{"type":"Feature","id":"node/5100274832","properties":{"type":"node","id":5100274832,"tags":{"amenity":"veterinary","contact:phone":"9846320684","name":"Sishuwa Krishhi Sewa Bhandar","source":"2cpokhara"},"relations":[],"meta":{"timestamp":"2018-03-28T11:44:49Z","version":2,"changeset":57597658,"user":"Amrit Devkota","uid":6497064}},"geometry":{"type":"Point","coordinates":[84.0684389,28.1645841]}},{"type":"Feature","id":"node/5182161027","properties":{"type":"node","id":5182161027,"tags":{"amenity":"veterinary","name":"Pokhara Vet and Pet Clinic"},"relations":[],"meta":{"timestamp":"2017-10-22T18:08:42Z","version":1,"changeset":53158142,"user":"Ro Sun","uid":3112087}},"geometry":{"type":"Point","coordinates":[83.9860323,28.2242778]}},{"type":"Feature","id":"node/5225829823","properties":{"type":"node","id":5225829823,"tags":{"amenity":"veterinary","name":"Kalpana Veterinary Pharma"},"relations":[],"meta":{"timestamp":"2017-11-13T05:22:46Z","version":1,"changeset":53729864,"user":"Ro Sun","uid":3112087}},"geometry":{"type":"Point","coordinates":[83.9766549,28.2123735]}},{"type":"Feature","id":"node/5240720823","properties":{"type":"node","id":5240720823,"tags":{"amenity":"veterinary","name":"Tiwari Vet Centre"},"relations":[],"meta":{"timestamp":"2017-11-21T09:53:02Z","version":1,"changeset":53971073,"user":"Ro Sun","uid":3112087}},"geometry":{"type":"Point","coordinates":[84.0912254,28.1641804]}},{"type":"Feature","id":"node/5240765822","properties":{"type":"node","id":5240765822,"tags":{"amenity":"veterinary","name":"Sapkota Veterinary Suppliers"},"relations":[],"meta":{"timestamp":"2017-11-21T09:52:55Z","version":1,"changeset":53971073,"user":"Ro Sun","uid":3112087}},"geometry":{"type":"Point","coordinates":[84.0498702,28.1751736]}},{"type":"Feature","id":"node/5453797157","properties":{"type":"node","id":5453797157,"tags":{"amenity":"veterinary","name":"Asai Vet Pharma","phone":"061-530693"},"relations":[],"meta":{"timestamp":"2018-03-04T10:41:34Z","version":1,"changeset":56867178,"user":"Active Asmita","uid":7644107}},"geometry":{"type":"Point","coordinates":[83.9764427,28.2124526]}},{"type":"Feature","id":"node/5453797159","properties":{"type":"node","id":5453797159,"tags":{"amenity":"veterinary","name":"Green Wealth Vet Pharma","phone":"061-531444","source":"2cpokhara"},"relations":[],"meta":{"timestamp":"2018-03-04T10:41:34Z","version":1,"changeset":56867178,"user":"Active Asmita","uid":7644107}},"geometry":{"type":"Point","coordinates":[83.9759827,28.2125037]}},{"type":"Feature","id":"node/5470403019","properties":{"type":"node","id":5470403019,"tags":{"amenity":"veterinary","contact:phone":"9804102437","name":"Saela Janasewa Pasu Ausadhi Pasal","source":"2cpokhara"},"relations":[],"meta":{"timestamp":"2018-03-11T07:35:54Z","version":1,"changeset":57074580,"user":"Amrit Devkota","uid":6497064}},"geometry":{"type":"Point","coordinates":[84.0816388,28.148128]}},{"type":"Feature","id":"node/5470524941","properties":{"type":"node","id":5470524941,"tags":{"amenity":"veterinary","contact:phone":"9856077239","name":"Panchase Vet Pharma","opening_hours":"Su-Sa 8:00-18:00","source":"2cpokhara"},"relations":[],"meta":{"timestamp":"2018-03-11T09:04:02Z","version":1,"changeset":57075740,"user":"Sagarsubedi205","uid":7632456}},"geometry":{"type":"Point","coordinates":[83.9724004,28.1930397]}},{"type":"Feature","id":"node/5491231995","properties":{"type":"node","id":5491231995,"tags":{"amenity":"veterinary","name":"Nepal Krisi Sewa Bhandar","source":"2cpokhara"},"relations":[],"meta":{"timestamp":"2018-03-20T13:12:18Z","version":1,"changeset":57351616,"user":"Active Asmita","uid":7644107}},"geometry":{"type":"Point","coordinates":[83.9872399,28.2237424]}},{"type":"Feature","id":"node/5491232007","properties":{"type":"node","id":5491232007,"tags":{"amenity":"veterinary","name":"Krishi Samagri Bhandar"},"relations":[],"meta":{"timestamp":"2018-03-20T13:12:18Z","version":1,"changeset":57351616,"user":"Active Asmita","uid":7644107}},"geometry":{"type":"Point","coordinates":[83.9860806,28.2239675]}},{"type":"Feature","id":"node/5517954476","properties":{"type":"node","id":5517954476,"tags":{"amenity":"veterinary","name":"Acharya Agro Vet Center","source":"2cpokhara"},"relations":[],"meta":{"timestamp":"2018-03-31T07:48:54Z","version":1,"changeset":57681583,"user":"Amrit Devkota","uid":6497064}},"geometry":{"type":"Point","coordinates":[84.0823743,28.1326664]}},{"type":"Feature","id":"node/5520695729","properties":{"type":"node","id":5520695729,"tags":{"amenity":"veterinary","contact:phone":"9856025944","estd":"2068 B.S.","name":"Samudhyak Pasu Prajanan Kendra","opening_days":"Sun-Fri"},"relations":[],"meta":{"timestamp":"2018-04-01T17:09:48Z","version":1,"changeset":57717652,"user":"Amrit Devkota","uid":6497064}},"geometry":{"type":"Point","coordinates":[84.0393256,28.1476627]}},{"type":"Feature","id":"node/5531593546","properties":{"type":"node","id":5531593546,"tags":{"amenity":"veterinary","contact:phone":"9846103697","name":"Veterinary Centre","source":"2cpokhara"},"relations":[],"meta":{"timestamp":"2018-06-18T04:14:36Z","version":2,"changeset":59928393,"user":"Gaurav Thapa","uid":4212590}},"geometry":{"type":"Point","coordinates":[84.0750425,28.2140476]}},{"type":"Feature","id":"node/5544259276","properties":{"type":"node","id":5544259276,"tags":{"amenity":"veterinary","contact:phone":"061-549599, 984532006","name":"Pokhara Veterinary Clinic","source":"2cpokhara"},"relations":[],"meta":{"timestamp":"2018-06-18T04:15:54Z","version":2,"changeset":59928405,"user":"Gaurav Thapa","uid":4212590}},"geometry":{"type":"Point","coordinates":[83.9835562,28.2064714]}},{"type":"Feature","id":"node/5550547033","properties":{"type":"node","id":5550547033,"tags":{"amenity":"veterinary","contact:phone":"9746006595, 9816187814","name":"Saurab Veterinary Centre","source":"2cpokhara"},"relations":[],"meta":{"timestamp":"2018-06-18T04:17:05Z","version":2,"changeset":59928422,"user":"Gaurav Thapa","uid":4212590}},"geometry":{"type":"Point","coordinates":[83.9540648,28.1569118]}},{"type":"Feature","id":"node/5553930294","properties":{"type":"node","id":5553930294,"tags":{"amenity":"veterinary","contact:phone":"9846363469","name":"Pasu Sewa Kendra","name:ne":"पशु सेवा केन्द्र","source":"2cpokhara"},"relations":[],"meta":{"timestamp":"2018-06-18T04:22:56Z","version":3,"changeset":59928513,"user":"Gaurav Thapa","uid":4212590}},"geometry":{"type":"Point","coordinates":[83.9984266,28.152601]}},{"type":"Feature","id":"node/5587559352","properties":{"type":"node","id":5587559352,"tags":{"amenity":"veterinary","name":"Animal Service Branch Bamdi","opening_hours":"8:00-16:00"},"relations":[],"meta":{"timestamp":"2018-04-30T07:07:58Z","version":1,"changeset":58545307,"user":"LonelyNarayan","uid":7644124}},"geometry":{"type":"Point","coordinates":[83.8887336,28.2386548]}},{"type":"Feature","id":"node/5598644123","properties":{"type":"node","id":5598644123,"tags":{"amenity":"veterinary","name":"Animal Health And Training Centre"},"relations":[],"meta":{"timestamp":"2018-05-28T12:56:22Z","version":2,"changeset":59339709,"user":"marek kleciak","uid":338611}},"geometry":{"type":"Point","coordinates":[84.0506593,28.2246494]}},{"type":"Feature","id":"node/5609175221","properties":{"type":"node","id":5609175221,"tags":{"amenity":"veterinary","name":"Pashu Sewa Kendra","name:ne":"पशु सेवा केन्द्र"},"relations":[],"meta":{"timestamp":"2018-06-18T04:24:56Z","version":3,"changeset":59928537,"user":"Gaurav Thapa","uid":4212590}},"geometry":{"type":"Point","coordinates":[83.9393093,28.2802681]}},{"type":"Feature","id":"node/5618890825","properties":{"type":"node","id":5618890825,"tags":{"amenity":"veterinary","contact:phone":"061-539813","name":"Sijan Veterinary Centre","opening_hours":"7:30-20:00","source":"2cpokhara"},"relations":[],"meta":{"timestamp":"2018-05-15T05:25:00Z","version":1,"changeset":58971151,"user":"Abash Paudel","uid":6677482}},"geometry":{"type":"Point","coordinates":[83.9992976,28.2187072]}},{"type":"Feature","id":"node/5645333841","properties":{"type":"node","id":5645333841,"tags":{"amenity":"veterinary","name":"Janasewa Vet Pasal","name:ne":"जनसेवा भेट पसल","opening_hours":"Sunrise-Sunset","phone":"061-533140"},"relations":[],"meta":{"timestamp":"2018-05-27T07:17:04Z","version":1,"changeset":59307588,"user":"Ro Sun","uid":3112087}},"geometry":{"type":"Point","coordinates":[84.0010256,28.213218]}},{"type":"Feature","id":"node/5645333842","properties":{"type":"node","id":5645333842,"tags":{"amenity":"veterinary","name":"Aarati Veterinary Suppliers","name:ne":"आरती भेतेनिरी सप्लायर्स","opening_hours":"Sunrise-Sunset","phone":"061-522301"},"relations":[],"meta":{"timestamp":"2018-05-27T07:17:04Z","version":1,"changeset":59307588,"user":"Ro Sun","uid":3112087}},"geometry":{"type":"Point","coordinates":[84.0003524,28.2128895]}},{"type":"Feature","id":"node/5650840047","properties":{"type":"node","id":5650840047,"tags":{"amenity":"veterinary","name":"Kendriya Vet Pharma","name:ne":"केन्द्रीय भेट फर्मा","phone":"061-432714"},"relations":[],"meta":{"timestamp":"2018-05-30T04:52:46Z","version":1,"changeset":59385482,"user":"Ro Sun","uid":3112087}},"geometry":{"type":"Point","coordinates":[83.9961346,28.2056993]}}],"createdOn":1529835371400}