{"type":"FeatureCollection","features":[{"type":"Feature","id":"way/514474347","properties":{"type":"way","id":514474347,"tags":{"addr:city":"Pokhara Lekhnath Metropolitan City","addr:place":"Simtal","amenity":"drinking_water","drinking_water":"yes","man_made":"water_tap","operator":"public"},"relations":[],"meta":{"timestamp":"2017-08-10T10:28:43Z","version":1,"changeset":50997122,"user":"usha51","uid":6448132}},"geometry":{"type":"Point","coordinates":[83.940945475,28.249176225]}},{"type":"Feature","id":"node/4796345917","properties":{"type":"node","id":4796345917,"tags":{"amenity":"drinking_water","man_made":"water_tap"},"relations":[],"meta":{"timestamp":"2017-04-16T09:28:07Z","version":1,"changeset":47833690,"user":"Parassrest","uid":3569249}},"geometry":{"type":"Point","coordinates":[84.0424072,28.2050556]}},{"type":"Feature","id":"node/4796350028","properties":{"type":"node","id":4796350028,"tags":{"amenity":"drinking_water","man_made":"water_tap"},"relations":[],"meta":{"timestamp":"2017-04-16T09:28:07Z","version":1,"changeset":47833690,"user":"Parassrest","uid":3569249}},"geometry":{"type":"Point","coordinates":[84.0411341,28.2065561]}},{"type":"Feature","id":"node/4976721264","properties":{"type":"node","id":4976721264,"tags":{"amenity":"water_point","man_made":"water_tap","point_type":"manmade"},"relations":[],"meta":{"timestamp":"2017-07-23T03:53:49Z","version":2,"changeset":50492459,"user":"Ro Sun","uid":3112087}},"geometry":{"type":"Point","coordinates":[84.0221735,28.1675989]}},{"type":"Feature","id":"node/5023743189","properties":{"type":"node","id":5023743189,"tags":{"addr:city":"pokhara lekthnath municipility","amenity":"drinking_water","drinking_water":"yes","man_made":"water_tap","operator":"public"},"relations":[],"meta":{"timestamp":"2018-04-11T08:37:09Z","version":2,"changeset":57996103,"user":"Manoj Thapa","uid":781054}},"geometry":{"type":"Point","coordinates":[83.9840479,28.2423194]}},{"type":"Feature","id":"node/5026186316","properties":{"type":"node","id":5026186316,"tags":{"amenity":"drinking_water","drinking_water":"yes","man_made":"water_tap","operator":"public"},"relations":[],"meta":{"timestamp":"2017-08-10T10:48:16Z","version":1,"changeset":50997596,"user":"Ankit Keshav Baral","uid":6447999}},"geometry":{"type":"Point","coordinates":[83.9723682,28.2087786]}},{"type":"Feature","id":"node/5027707572","properties":{"type":"node","id":5027707572,"tags":{"addr:city":"Pokhara Lekhnath M.City","addr:place":"Lamachaur","addr:street":"Sahardahar","amenity":"drinking_water","drinking_water":"yes","man_made":"water_tap","name":"Sahardahar Dhara","operator":"community"},"relations":[],"meta":{"timestamp":"2017-08-11T05:55:08Z","version":1,"changeset":51021215,"user":"Delta Bravo123","uid":6447837}},"geometry":{"type":"Point","coordinates":[83.9692006,28.2675617]}},{"type":"Feature","id":"node/5027723139","properties":{"type":"node","id":5027723139,"tags":{"addr:city":"Pokhara Lekhnath Metropolitan City","addr:place":"Chhimeki Tole","addr:street":"lekhnath Reathepani","amenity":"drinking_water","drinking_water":"yes","man_made":"water_tap","name":"Redcross Dhara"},"relations":[],"meta":{"timestamp":"2017-08-11T06:10:10Z","version":1,"changeset":51021538,"user":"rmpaudel123","uid":6447862}},"geometry":{"type":"Point","coordinates":[84.0476418,28.1652952]}},{"type":"Feature","id":"node/5027723140","properties":{"type":"node","id":5027723140,"tags":{"addr:place":"Buddha Tole","addr:street":"lekhnath Reathepani","amenity":"drinking_water","drinking_water":"yes","man_made":"water_tap","name":"Redcross Dhara","operator":"community"},"relations":[],"meta":{"timestamp":"2017-08-11T06:10:11Z","version":1,"changeset":51021538,"user":"rmpaudel123","uid":6447862}},"geometry":{"type":"Point","coordinates":[84.0460713,28.1696744]}},{"type":"Feature","id":"node/5027723141","properties":{"type":"node","id":5027723141,"tags":{"addr:city":"Pokhara Lekhnath Metropolitan City","addr:place":"Buddha Tole","addr:street":"lekhnath Reathepani","amenity":"drinking_water","drinking_water":"yes","man_made":"water_tap","name":"Redcross Dhara","operator":"community"},"relations":[],"meta":{"timestamp":"2017-08-11T06:10:11Z","version":1,"changeset":51021538,"user":"rmpaudel123","uid":6447862}},"geometry":{"type":"Point","coordinates":[84.0457951,28.1721388]}},{"type":"Feature","id":"node/5027744706","properties":{"type":"node","id":5027744706,"tags":{"addr:place":"bhawani chowk","amenity":"drinking_water","drinking_water":"yes","man_made":"water_tap","operator":"Public"},"relations":[],"meta":{"timestamp":"2017-08-11T06:24:49Z","version":1,"changeset":51021902,"user":"sanzay123","uid":6447979}},"geometry":{"type":"Point","coordinates":[84.0311051,28.1951547]}},{"type":"Feature","id":"node/5027767973","properties":{"type":"node","id":5027767973,"tags":{"amenity":"drinking_water","drinking_water":"yes","man_made":"water_tap","operator":"public"},"relations":[],"meta":{"timestamp":"2017-08-11T06:42:38Z","version":1,"changeset":51022237,"user":"sanzay123","uid":6447979}},"geometry":{"type":"Point","coordinates":[84.0436637,28.1992716]}},{"type":"Feature","id":"node/5027769325","properties":{"type":"node","id":5027769325,"tags":{"addr:city":"Pokhara Lekhnath M.City","addr:place":"Chrunga","addr:street":"patlechaur ,Chrunga","amenity":"drinking_water","man_made":"water_tap","name":"patlechaur Public Water Tap","operator":"Community"},"relations":[],"meta":{"timestamp":"2017-08-11T06:44:42Z","version":1,"changeset":51022280,"user":"Delta Bravo123","uid":6447837}},"geometry":{"type":"Point","coordinates":[83.9571474,28.3005484]}},{"type":"Feature","id":"node/5027794468","properties":{"type":"node","id":5027794468,"tags":{"addr:city":"Pokhara Lekhnath M.City","addr:place":"Puranchaur","amenity":"drinking_water","man_made":"water_tap","name":"Puranchaur Public Tap"},"relations":[],"meta":{"timestamp":"2017-08-11T06:59:44Z","version":1,"changeset":51022647,"user":"Delta Bravo123","uid":6447837}},"geometry":{"type":"Point","coordinates":[83.9476296,28.2916725]}},{"type":"Feature","id":"node/5027994903","properties":{"type":"node","id":5027994903,"tags":{"addr:place":"Majheri patan-14","addr:street":"Radha Krishna Tole","amenity":"drinking_water","drinking_water":"yes","man_made":"water_tap","operator":"public"},"relations":[],"meta":{"timestamp":"2017-08-11T08:28:56Z","version":2,"changeset":51025070,"user":"Kabita_pokhrel","uid":6447971}},"geometry":{"type":"Point","coordinates":[84.026976,28.1827003]}},{"type":"Feature","id":"node/5028164635","properties":{"type":"node","id":5028164635,"tags":{"addr:city":"Pokhara Lekhnath Metropolitian City","addr:place":"Parajuli Gau","amenity":"drinking_water","drinking_water":"yes","man_made":"water_tap","name":"Parajuligaun public Tap"},"relations":[],"meta":{"timestamp":"2017-08-11T09:51:58Z","version":1,"changeset":51027691,"user":"gaurav bhattarai","uid":6465157}},"geometry":{"type":"Point","coordinates":[83.9873356,28.1568793]}},{"type":"Feature","id":"node/5028164637","properties":{"type":"node","id":5028164637,"tags":{"addr:city":"Pokhara Lekhnath Metropolitian City","addr:place":"Parajuli Gau","amenity":"drinking_water","drinking_water":"yes","man_made":"water_tap","name":"Parajuligaun public Tap"},"relations":[],"meta":{"timestamp":"2017-12-26T08:57:14Z","version":2,"changeset":54924046,"user":"Manoj Thapa","uid":781054}},"geometry":{"type":"Point","coordinates":[83.9889894,28.15563]}},{"type":"Feature","id":"node/5028164642","properties":{"type":"node","id":5028164642,"tags":{"addr:city":"Pokhara Lekhnath Metropolitian City","addr:place":"Sunar Gau","amenity":"drinking_water","drinking_water":"yes","man_made":"water_tap","name":"Sunar Gau Public Tap"},"relations":[],"meta":{"timestamp":"2017-08-11T09:51:58Z","version":1,"changeset":51027691,"user":"gaurav bhattarai","uid":6465157}},"geometry":{"type":"Point","coordinates":[83.991369,28.1540296]}},{"type":"Feature","id":"node/5028164644","properties":{"type":"node","id":5028164644,"tags":{"amenity":"drinking_water","drinking_water":"yes","man_made":"water_tap","operator":"public"},"relations":[],"meta":{"timestamp":"2017-08-11T09:51:58Z","version":1,"changeset":51027691,"user":"gaurav bhattarai","uid":6465157}},"geometry":{"type":"Point","coordinates":[83.9876729,28.1582106]}},{"type":"Feature","id":"node/5028164646","properties":{"type":"node","id":5028164646,"tags":{"addr:city":"Pokhara Lekhnath Metropolitian City","addr:place":"Viral Chaur","amenity":"drinking_water","drinking_water":"yes","man_made":"water_tap","name":"Viral Chaur Public Tap"},"relations":[],"meta":{"timestamp":"2017-08-11T10:13:25Z","version":2,"changeset":51028327,"user":"gaurav bhattarai","uid":6465157}},"geometry":{"type":"Point","coordinates":[83.989175,28.156281]}},{"type":"Feature","id":"node/5031517907","properties":{"type":"node","id":5031517907,"tags":{"addr:place":"Ram Bazzar-30","addr:street":"Dahar No. 2","amenity":"drinking_water","drinking_water":"yes","man_made":"water_tap","name":"Rambazzar Dhunge Dharo","operator":"public"},"relations":[],"meta":{"timestamp":"2017-09-10T05:14:58Z","version":2,"changeset":51897374,"user":"Ro Sun","uid":3112087}},"geometry":{"type":"Point","coordinates":[84.0831119,28.1378345]}},{"type":"Feature","id":"node/5196263622","properties":{"type":"node","id":5196263622,"tags":{"man_made":"water_tap"},"relations":[],"meta":{"timestamp":"2017-10-28T14:33:20Z","version":1,"changeset":53319378,"user":"Bjdai","uid":6838782}},"geometry":{"type":"Point","coordinates":[83.9750574,28.2663423]}},{"type":"Feature","id":"node/5242235970","properties":{"type":"node","id":5242235970,"tags":{"man_made":"water_tap"},"relations":[],"meta":{"timestamp":"2017-11-22T06:21:32Z","version":1,"changeset":53992181,"user":"nishaadhikari","uid":3481073}},"geometry":{"type":"Point","coordinates":[84.0318019,28.1892526]}},{"type":"Feature","id":"node/5431185113","properties":{"type":"node","id":5431185113,"tags":{"amenity":"drinking_water","drinking_water":"no","man_made":"water_tap","operator":"public","source":"2cpokhara"},"relations":[],"meta":{"timestamp":"2018-02-23T11:58:50Z","version":1,"changeset":56607665,"user":"Rabin Ojha","uid":6075053}},"geometry":{"type":"Point","coordinates":[83.9974529,28.2935826]}},{"type":"Feature","id":"node/5431185120","properties":{"type":"node","id":5431185120,"tags":{"amenity":"drinking_water","drinking_water":"no","man_made":"water_tap","source":"2cpokhara"},"relations":[],"meta":{"timestamp":"2018-02-23T11:58:50Z","version":1,"changeset":56607665,"user":"Rabin Ojha","uid":6075053}},"geometry":{"type":"Point","coordinates":[83.9903075,28.2842509]}},{"type":"Feature","id":"node/5459645725","properties":{"type":"node","id":5459645725,"tags":{"amenity":"drinking_water","man_made":"water_tap","operator:type":"community","source":"2c pokhara"},"relations":[],"meta":{"timestamp":"2018-03-08T06:31:09Z","version":2,"changeset":56988835,"user":"dgitto","uid":554973}},"geometry":{"type":"Point","coordinates":[83.9786249,28.2228953]}},{"type":"Feature","id":"node/5459645727","properties":{"type":"node","id":5459645727,"tags":{"amenity":"drinking_water","man_made":"water_tap","operator:type":"public","source":"2c pokhara"},"relations":[],"meta":{"timestamp":"2018-03-08T06:31:09Z","version":2,"changeset":56988835,"user":"dgitto","uid":554973}},"geometry":{"type":"Point","coordinates":[83.9790019,28.223646]}},{"type":"Feature","id":"node/5477836369","properties":{"type":"node","id":5477836369,"tags":{"amenity":"drinking_water","drinking_water":"yes","man_made":"water_tap","name":"Pani Dhara","operator":"public"},"relations":[],"meta":{"timestamp":"2018-03-14T12:03:17Z","version":1,"changeset":57176072,"user":"LonelyNarayan","uid":7644124}},"geometry":{"type":"Point","coordinates":[83.9786225,28.2426567]}},{"type":"Feature","id":"node/5479218517","properties":{"type":"node","id":5479218517,"tags":{"amenity":"drinking_water","drinking_water":"yes","man_made":"water_tap","opening_hours":"7:00-15:00"},"relations":[],"meta":{"timestamp":"2018-03-15T02:38:28Z","version":1,"changeset":57195657,"user":"LonelyNarayan","uid":7644124}},"geometry":{"type":"Point","coordinates":[83.9706932,28.2458566]}},{"type":"Feature","id":"node/5498514169","properties":{"type":"node","id":5498514169,"tags":{"amenity":"drinking_water","drinking_water":"yes","man_made":"water_tap","name":"Thapa Dhara","opening_hours":"sunrise-sunset"},"relations":[],"meta":{"timestamp":"2018-03-23T10:15:21Z","version":1,"changeset":57451393,"user":"LonelyNarayan","uid":7644124}},"geometry":{"type":"Point","coordinates":[83.9413626,28.2428286]}},{"type":"Feature","id":"node/5530501759","properties":{"type":"node","id":5530501759,"tags":{"addr:city":"Pokhara Lekhnath Metropolitan City","addr:place":"Sarangkot","addr:street":"Silingabot","amenity":"drinking_water","drinking_water":"yes","man_made":"water_tap","name":"Silingabot","opening_hours":"Su-Sa 00:00-24:00","operator":"public"},"relations":[],"meta":{"timestamp":"2018-04-05T11:11:10Z","version":1,"changeset":57831419,"user":"Manoj Thapa","uid":781054}},"geometry":{"type":"Point","coordinates":[83.9598235,28.243886]}},{"type":"Feature","id":"node/5531278728","properties":{"type":"node","id":5531278728,"tags":{"amenity":"drinking_water","drinking_water":"yes","man_made":"water_tap","source":"2cpokhara"},"relations":[],"meta":{"timestamp":"2018-04-05T16:09:08Z","version":1,"changeset":57840402,"user":"Sagarsubedi205","uid":7632456}},"geometry":{"type":"Point","coordinates":[84.1039333,28.2124375]}},{"type":"Feature","id":"node/5531278737","properties":{"type":"node","id":5531278737,"tags":{"amenity":"drinking_water","drinking_water":"yes","man_made":"water_tap","source":"2cpokhara"},"relations":[],"meta":{"timestamp":"2018-04-05T16:09:08Z","version":1,"changeset":57840402,"user":"Sagarsubedi205","uid":7632456}},"geometry":{"type":"Point","coordinates":[84.1113804,28.2042397]}},{"type":"Feature","id":"node/5531278741","properties":{"type":"node","id":5531278741,"tags":{"amenity":"drinking_water","drinking_water":"yes","man_made":"water_tap","source":"2cpokhara"},"relations":[],"meta":{"timestamp":"2018-04-05T16:09:09Z","version":1,"changeset":57840402,"user":"Sagarsubedi205","uid":7632456}},"geometry":{"type":"Point","coordinates":[84.1082141,28.19943]}},{"type":"Feature","id":"node/5531278743","properties":{"type":"node","id":5531278743,"tags":{"amenity":"drinking_water","drinking_water":"yes","man_made":"water_tap","source":"2cpokhara"},"relations":[],"meta":{"timestamp":"2018-04-05T16:09:09Z","version":1,"changeset":57840402,"user":"Sagarsubedi205","uid":7632456}},"geometry":{"type":"Point","coordinates":[84.1115266,28.2032617]}},{"type":"Feature","id":"node/5531278745","properties":{"type":"node","id":5531278745,"tags":{"amenity":"drinking_water","drinking_water":"yes","man_made":"water_tap","source":"2cpokhara"},"relations":[],"meta":{"timestamp":"2018-04-05T16:09:09Z","version":1,"changeset":57840402,"user":"Sagarsubedi205","uid":7632456}},"geometry":{"type":"Point","coordinates":[84.1126934,28.2029828]}},{"type":"Feature","id":"node/5531347106","properties":{"type":"node","id":5531347106,"tags":{"amenity":"drinking_water","drinking_water":"yes","man_made":"water_tap","source":"2cpokhara"},"relations":[],"meta":{"timestamp":"2018-04-05T16:29:55Z","version":1,"changeset":57840924,"user":"Sagarsubedi205","uid":7632456}},"geometry":{"type":"Point","coordinates":[84.1053508,28.2092992]}},{"type":"Feature","id":"node/5531347108","properties":{"type":"node","id":5531347108,"tags":{"amenity":"drinking_water","drinking_water":"yes","man_made":"water_tap","source":"2cpokhara"},"relations":[],"meta":{"timestamp":"2018-04-05T16:29:56Z","version":1,"changeset":57840924,"user":"Sagarsubedi205","uid":7632456}},"geometry":{"type":"Point","coordinates":[84.1050169,28.2103173]}},{"type":"Feature","id":"node/5588186882","properties":{"type":"node","id":5588186882,"tags":{"amenity":"drinking_water","man_made":"water_tap","operator:type":"public","source":"2c peset"},"relations":[],"meta":{"timestamp":"2018-04-30T11:14:27Z","version":1,"changeset":58551599,"user":"Kshitizraj Sharma","uid":7004124}},"geometry":{"type":"Point","coordinates":[83.9170168,28.2023298]}},{"type":"Feature","id":"node/5588187531","properties":{"type":"node","id":5588187531,"tags":{"amenity":"drinking_water","man_made":"water_tap","operator:type":"public","source":"2c peset"},"relations":[],"meta":{"timestamp":"2018-04-30T11:14:28Z","version":1,"changeset":58551599,"user":"Kshitizraj Sharma","uid":7004124}},"geometry":{"type":"Point","coordinates":[83.9231152,28.2021049]}},{"type":"Feature","id":"node/5588187532","properties":{"type":"node","id":5588187532,"tags":{"amenity":"drinking_water","man_made":"water_tap","operator:type":"public","source":"2c peset"},"relations":[],"meta":{"timestamp":"2018-04-30T11:14:28Z","version":1,"changeset":58551599,"user":"Kshitizraj Sharma","uid":7004124}},"geometry":{"type":"Point","coordinates":[83.9220956,28.202237]}},{"type":"Feature","id":"node/5588187550","properties":{"type":"node","id":5588187550,"tags":{"amenity":"drinking_water","man_made":"water_tap","operator:type":"public","source":"2c peset"},"relations":[],"meta":{"timestamp":"2018-04-30T11:14:29Z","version":1,"changeset":58551599,"user":"Kshitizraj Sharma","uid":7004124}},"geometry":{"type":"Point","coordinates":[83.9148335,28.2069893]}},{"type":"Feature","id":"node/5588187564","properties":{"type":"node","id":5588187564,"tags":{"amenity":"drinking_water","man_made":"water_tap","operator:type":"public","source":"2c peset"},"relations":[],"meta":{"timestamp":"2018-04-30T11:14:29Z","version":1,"changeset":58551599,"user":"Kshitizraj Sharma","uid":7004124}},"geometry":{"type":"Point","coordinates":[83.9074199,28.2085901]}},{"type":"Feature","id":"node/5588187642","properties":{"type":"node","id":5588187642,"tags":{"amenity":"drinking_water","man_made":"water_tap","operator:type":"public","source":"2c peset"},"relations":[],"meta":{"timestamp":"2018-04-30T11:14:31Z","version":1,"changeset":58551599,"user":"Kshitizraj Sharma","uid":7004124}},"geometry":{"type":"Point","coordinates":[83.9010108,28.2102145]}},{"type":"Feature","id":"node/5588187702","properties":{"type":"node","id":5588187702,"tags":{"amenity":"drinking_water","man_made":"water_tap","operator:type":"public","source":"2c peset"},"relations":[],"meta":{"timestamp":"2018-04-30T11:14:32Z","version":1,"changeset":58551599,"user":"Kshitizraj Sharma","uid":7004124}},"geometry":{"type":"Point","coordinates":[83.8841236,28.2090877]}},{"type":"Feature","id":"node/5589555120","properties":{"type":"node","id":5589555120,"tags":{"amenity":"drinking_water","drinking_water":"yes","man_made":"water_tap","name":"Dhara","operator":"public","source":"2cpokhara"},"relations":[],"meta":{"timestamp":"2018-05-15T08:14:48Z","version":2,"changeset":58975249,"user":"Abash Paudel","uid":6677482}},"geometry":{"type":"Point","coordinates":[83.8631722,28.239104]}},{"type":"Feature","id":"node/5591632261","properties":{"type":"node","id":5591632261,"tags":{"amenity":"drinking_water","drinking_water":"yes","man_made":"water_tap","name":"Dhadkhola Dara"},"relations":[],"meta":{"timestamp":"2018-05-02T06:34:39Z","version":1,"changeset":58604092,"user":"LonelyNarayan","uid":7644124}},"geometry":{"type":"Point","coordinates":[83.8626337,28.237649]}},{"type":"Feature","id":"node/5609175421","properties":{"type":"node","id":5609175421,"tags":{"man_made":"water_tap"},"relations":[],"meta":{"timestamp":"2018-05-10T11:25:12Z","version":1,"changeset":58847269,"user":"Pratapp","uid":8249933}},"geometry":{"type":"Point","coordinates":[83.9381906,28.2803866]}},{"type":"Feature","id":"node/5619176736","properties":{"type":"node","id":5619176736,"tags":{"amenity":"drinking_water","drinking_water":"yes","man_made":"water_tap","name":"Dhara","operator":"public","source":"2cpokhara"},"relations":[],"meta":{"timestamp":"2018-05-15T08:14:47Z","version":1,"changeset":58975249,"user":"Abash Paudel","uid":6677482}},"geometry":{"type":"Point","coordinates":[83.8321732,28.2377931]}},{"type":"Feature","id":"node/5619249321","properties":{"type":"node","id":5619249321,"tags":{"amenity":"drinking_water","man_made":"water_tap","name":"Dhara","operator":"public","source":"2cpokhara"},"relations":[],"meta":{"timestamp":"2018-05-15T09:01:07Z","version":1,"changeset":58976461,"user":"Abash Paudel","uid":6677482}},"geometry":{"type":"Point","coordinates":[83.8261677,28.2235267]}}],"createdOn":1527073644758}